ID,Paddy,Rice,UseForAnalyses,Justification,LabCode,C14Age,C14Error,Method,Delta13C,Delta13C_IRMS,MaterialClass,MaterialDetails,MaterialDetails_En,Context,SiteName,SiteName_En,SiteAddress,Latitude,Longitude,Prefecture,Region,Source,PublicationYear,Reference,Note,Problem
1,FALSE,TRUE,TRUE,,136469,650,40,AMS,NA,-24.1,Charred Seed,炭化種実(炭化米),carbonized seed/nuts rice (Oryza sativa),試料名:№6　C3区SC7,林遺跡(第4次調査),Hayashiiseki（Dai4jichosa）,延岡市伊形町2120-1他,32.52908056,131.6702389,Miyazaki,Kyushu,Rekihaku 14C Database,2008,宮崎県埋蔵文化財センター発掘調査報告書　第174集　林遺跡Ⅱ　一般国道10号延岡道路建設事業に伴う埋蔵文化財発掘調査報告書4,Labcode is verbatim as in the site report with no reference to the name of the lab,Solved
2,FALSE,TRUE,TRUE,,Beta-100179,620,50,AMS,NA,-23.3,Charred Seed,炭化米（イネ）,carbonized rice (Oryza sativa),"第Ⅱ文化層　5層　灰集中DA55, U-39-C55b",K39遺跡第3次調査（大木地点）,K36isekidai3jichosa（Okichiten）,札幌市中央区北11条西14丁目1-10,43.07331944,141.3336611,Hokkaido,Hokkaido,Rekihaku 14C Database,1997,札幌市文化財調査報告書54　K39遺跡大木地点,,
3,FALSE,TRUE,TRUE,,Beta-100180,700,50,AMS,NA,-28.7,Charred Seed,炭化米（イネ）,carbonized rice (Oryza sativa),"第Ⅳ文化層　土坑覆土　土坑Pit12b, U-39-C12b",K39遺跡第3次調査（大木地点）,K36isekidai3jichosa（Okichiten）,札幌市中央区北11条西14丁目1-10,43.07331944,141.3336611,Hokkaido,Hokkaido,Rekihaku 14C Database,1997,札幌市文化財調査報告書54　K39遺跡大木地点,,
4,TRUE,FALSE,,,Beta-117664,1440,70,Beta Counting,NA,-32.2,Wood,木杭,wooden stake wooden stake,試料名:№4　水田2(下位検出面),鳥ノ子遺跡,Torinokoiseki,宮崎市大字浮田字鳥ノ子,31.92276944,131.3790111,Miyazaki,Kyushu,Rekihaku 14C Database,2000,宮崎県埋蔵文化財センター発掘調査報告書　第23集　石塚遺跡･鳥ノ子遺跡　一般国道10号宮崎西バイパス建設事業に伴う発掘調査報告書(3),,
5,TRUE,FALSE,,,Beta-117665,2390,60,Beta Counting,NA,-25.5,Soil,土壌,soil,試料名:№5　水田2(下位検出面),鳥ノ子遺跡,Torinokoiseki,宮崎市大字浮田字鳥ノ子,31.92276944,131.3790111,Miyazaki,Kyushu,Rekihaku 14C Database,2000,宮崎県埋蔵文化財センター発掘調査報告書　第23集　石塚遺跡･鳥ノ子遺跡　一般国道10号宮崎西バイパス建設事業に伴う発掘調査報告書(3),,
6,TRUE,FALSE,,,Beta-122537,620,60,Beta Counting,NA,-23.9,Wood,木材,material wood,B水田面P-7,公田東遺跡,Kudenhigashiiseki,前橋市公田町,36.34745,139.0754694,Gunma,Kanto,Rekihaku 14C Database,1998,公田東遺跡ー発掘調査報告書ー,,
7,FALSE,TRUE,TRUE,,Beta-138182,590,40,AMS,NA,-25.4,Charred Seed,炭化米（イネ）,carbonized rice (Oryza sativa),"5a層　34-07区　炉址5HE08, K39N18-04",K39遺跡第6次,K39isekidai6ji,札幌市北区北18～19条西11～13丁目,43.08106111,141.3364389,Hokkaido,Hokkaido,Rekihaku 14C Database,2001,札幌市文化財調査報告書65　K39遺跡第6次調査（第5分冊）,,
8,TRUE,FALSE,,,Beta-144316,390,40,AMS,NA,-25.7,Other Charred Remains,炭化物,carbonized material,試料名:№1　文明軽石直下水田面,鴇尾遺跡,Tokinoiseki,都城市今町字有里,31.68796944,131.0315694,Miyazaki,Kyushu,Rekihaku 14C Database,2002,宮崎県埋蔵文化財センター発掘調査報告書　第65集　鴇尾遺跡･坂ノ下遺跡　農用地総合整備事業｢都城区域｣農業用道路建設に伴う埋蔵文化財発掘調査報告書(3),,
9,FALSE,TRUE,TRUE,,Beta-145777,1970,40,AMS,NA,-25.2,Charred Seed,炭化物(炭化米),carbonized material rice (Oryza sativa),6区 SI115,真田･北金目遺跡群,Sanada・Kitakanabeisekigun,平塚市北金目,35.36831944,139.2834806,Kanagawa,Kanto,Rekihaku 14C Database,2003,平塚市真田･北金目遺跡群発掘調査報告書3　第4分冊,,
10,FALSE,TRUE,TRUE,,Beta-145778,2000,40,AMS,NA,-25.3,Charred Seed,炭化物(炭化米),carbonized material rice (Oryza sativa),6区 SI115,真田･北金目遺跡群,Sanada・Kitakanabeisekigun,平塚市北金目,35.36831944,139.2834806,Kanagawa,Kanto,Rekihaku 14C Database,2003,平塚市真田･北金目遺跡群発掘調査報告書3　第4分冊,,
11,FALSE,TRUE,TRUE,,Beta-145779,1860,40,AMS,NA,-23.8,Charred Seed,炭化物(炭化米),carbonized material rice (Oryza sativa),32B地点　SI008,真田･北金目遺跡群,Sanada・Kitakanabeisekigun,平塚市北金目,35.36831944,139.2834806,Kanagawa,Kanto,Rekihaku 14C Database,2003,平塚市真田･北金目遺跡群発掘調査報告書3　第4分冊,,
12,TRUE,FALSE,,,Beta-149638,670,40,AMS,NA,-26.3,Other Charred Remains,炭化物,carbonized material,A3地区　水田跡 6b層,宮田館遺跡,Miyatadateiseki,青森市大字宮田字玉水,40.8354,140.8396111,Aomori,Tohoku,Rekihaku 14C Database,2002,青森県埋蔵文化財調査報告書第322集　宮田館遺跡発掘調査報告書,,
13,FALSE,TRUE,TRUE,,Beta-159752,2140,40,AMS,-25.4,-25.4,Charred Seed,"種実,コメ,",seed/nuts rice (Oryza sativa),NA,青谷上寺地遺跡,Aoyakamijichiiseki,気高郡青谷町,35.51398889,134.0126194,Tottori,Chugoku,Rekihaku 14C Database,2009,弥生農耕の起源と東アジア-炭素14年代測定による高精度編年体系の構築-平成16～20年文部科学省・科学研究費学術創成研究費　研究成果報告書,,
14,FALSE,TRUE,TRUE,,Beta-159754,2150,40,AMS,-26,-26,Charred Seed,"種実,コメ,",seed/nuts rice (Oryza sativa),NA,青谷上寺地遺跡,Aoyakamijichiiseki,気高郡青谷町,35.51398889,134.0126194,Tottori,Chugoku,Rekihaku 14C Database,2009,弥生農耕の起源と東アジア-炭素14年代測定による高精度編年体系の構築-平成16～20年文部科学省・科学研究費学術創成研究費　研究成果報告書,,
15,FALSE,TRUE,TRUE,,Beta-159755,2110,40,AMS,-26.5,-26.5,Charred Seed,"種実,コメ,",seed/nuts rice (Oryza sativa),NA,青谷上寺地遺跡,Aoyakamijichiiseki,気高郡青谷町,35.51398889,134.0126194,Tottori,Chugoku,Rekihaku 14C Database,2009,弥生農耕の起源と東アジア-炭素14年代測定による高精度編年体系の構築-平成16～20年文部科学省・科学研究費学術創成研究費　研究成果報告書,,
16,FALSE,TRUE,TRUE,,Beta-161153,1610,50,AMS,NA,-25,Charred Seed,炭化米,carbonized rice (Oryza sativa),"11号住居跡,土器27",三和工業団地Ⅲ遺跡,Sanwakogyodanchi3iseki,伊勢崎市三和町,36.35008889,139.22455,Gunma,Kanto,Rekihaku 14C Database,2004,三和工業団地Ⅱ･Ⅲ・Ⅳ遺跡-自然科学分析編-,,
17,FALSE,TRUE,TRUE,,Beta-162483,1010,40,AMS,NA,-25.7,Charred Seed,炭化種子(米),carbonized seed rice (Oryza sativa),SI-744　床面,朝日山(2)遺跡,Asahiyama(2)Iseki,青森市大字高田字朝日山,40.76765317,140.7126579,Aomori,Tohoku,Rekihaku 14C Database,2003,青森県埋蔵文化財調査報告書第350集　朝日山(2)遺跡Ⅶ,,
18,TRUE,FALSE,,,Beta-162491,260,40,AMS,NA,-24.3,Wood,生木,wood sample,水田畦際TRE上層,宮田館遺跡,Miyatadateiseki,青森市大字宮田字玉水,40.8354,140.8396111,Aomori,Tohoku,Rekihaku 14C Database,2007,青森県埋蔵文化財調査報告書第429集　宮田館遺跡Ⅵ,,
19,FALSE,TRUE,TRUE,,Beta-173934,1160,40,AMS,NA,-25.3,Charred Seed,炭化種子(米),carbonized seed rice (Oryza sativa),SI-744　覆土,朝日山(2)遺跡,Asahiyama(2)Iseki,青森市大字高田字朝日山,40.76765317,140.7126579,Aomori,Tohoku,Rekihaku 14C Database,2004,青森県埋蔵文化財調査報告書第369集　朝日山(2)遺跡Ⅸ,,
20,FALSE,TRUE,TRUE,,Beta-175421,1510,40,AMS,NA,-24.8,Charred Seed,炭化米,carbonized rice (Oryza sativa),第10次調査　SX10217 4b層,沼向遺跡,Numamukaiiseki,仙台市宮城野区中野字沼向,38.28105,141.00105,Miyagi,Tohoku,Rekihaku 14C Database,2010,仙台市文化財調査報告書第360集　沼向遺跡第4〜34次調査　第9分冊,,
21,FALSE,TRUE,TRUE,,Beta-175422,1530,40,AMS,NA,-26.1,Charred Seed,炭化米,carbonized rice (Oryza sativa),第10次調査　SX10217 4b層,沼向遺跡,Numamukaiiseki,仙台市宮城野区中野字沼向,38.28105,141.00105,Miyagi,Tohoku,Rekihaku 14C Database,2010,仙台市文化財調査報告書第360集　沼向遺跡第4〜34次調査　第9分冊,,
22,FALSE,TRUE,TRUE,,Beta-182501,2490,50,AMS,-26.8,"-26.8,-25.6",Charred Seed,"種実,コメ,焼米",seed/nuts rice (Oryza sativa) rice (Oryza sativa),"20次,SK215土坑,2層,707",唐古=鍵遺跡,Karako・Kagiiseki,磯城郡田原本町大字唐子および鍵,34.573,135.7973194,Nara,Kansai,Rekihaku 14C Database,2009,弥生農耕の起源と東アジア-炭素14年代測定による高精度編年体系の構築-平成16～20年文部科学省・科学研究費学術創成研究費　研究成果報告書,,
23,FALSE,TRUE,TRUE,,Beta-185250,1880,40,AMS,NA,-25.6,Charred Seed,炭化米,carbonized rice (Oryza sativa),SI8A区,下老子笹川遺跡,Shimoigosasagawaiseki,高岡市福岡町下老子,36.71241944,136.9435611,Toyama,Chubu,Rekihaku 14C Database,2006,富山県文化振興財団埋蔵文化財発掘調査報告第31集　下老子笹川遺跡発掘調査報告(第五分冊　自然科学分析･考察編),,
24,FALSE,TRUE,TRUE,,Beta-185251,1820,40,AMS,NA,-25.8,Charred Seed,炭化米,carbonized rice (Oryza sativa),SI8B区,下老子笹川遺跡,Shimoigosasagawaiseki,高岡市福岡町下老子,36.71241944,136.9435611,Toyama,Chubu,Rekihaku 14C Database,2006,富山県文化振興財団埋蔵文化財発掘調査報告第31集　下老子笹川遺跡発掘調査報告(第五分冊　自然科学分析･考察編),,
25,FALSE,TRUE,TRUE,,Beta-185252,1910,40,AMS,NA,-24.8,Charred Seed,炭化米,carbonized rice (Oryza sativa),SI9A区,下老子笹川遺跡,Shimoigosasagawaiseki,高岡市福岡町下老子,36.71241944,136.9435611,Toyama,Chubu,Rekihaku 14C Database,2006,富山県文化振興財団埋蔵文化財発掘調査報告第31集　下老子笹川遺跡発掘調査報告(第五分冊　自然科学分析･考察編),,
26,FALSE,TRUE,TRUE,,Beta-185253,1790,40,AMS,NA,-23.8,Charred Seed,炭化米,carbonized rice (Oryza sativa),SI9B区,下老子笹川遺跡,Shimoigosasagawaiseki,高岡市福岡町下老子,36.71241944,136.9435611,Toyama,Chubu,Rekihaku 14C Database,2006,富山県文化振興財団埋蔵文化財発掘調査報告第31集　下老子笹川遺跡発掘調査報告(第五分冊　自然科学分析･考察編),,
27,FALSE,TRUE,TRUE,,Beta-185254,1950,40,AMS,NA,-25.7,Charred Seed,炭化米,carbonized rice (Oryza sativa),SI10(新)A区,下老子笹川遺跡,Shimoigosasagawaiseki,高岡市福岡町下老子,36.71241944,136.9435611,Toyama,Chubu,Rekihaku 14C Database,2006,富山県文化振興財団埋蔵文化財発掘調査報告第31集　下老子笹川遺跡発掘調査報告(第五分冊　自然科学分析･考察編),,
28,FALSE,TRUE,TRUE,,Beta-185255,1900,40,AMS,NA,-26.5,Charred Seed,炭化米,carbonized rice (Oryza sativa),SI10(新)B区,下老子笹川遺跡,Shimoigosasagawaiseki,高岡市福岡町下老子,36.71241944,136.9435611,Toyama,Chubu,Rekihaku 14C Database,2006,富山県文化振興財団埋蔵文化財発掘調査報告第31集　下老子笹川遺跡発掘調査報告(第五分冊　自然科学分析･考察編),,
29,FALSE,TRUE,TRUE,,Beta-185256,1820,40,AMS,NA,-25.7,Charred Seed,炭化米,carbonized rice (Oryza sativa),SI11B区,下老子笹川遺跡,Shimoigosasagawaiseki,高岡市福岡町下老子,36.71241944,136.9435611,Toyama,Chubu,Rekihaku 14C Database,2006,富山県文化振興財団埋蔵文化財発掘調査報告第31集　下老子笹川遺跡発掘調査報告(第五分冊　自然科学分析･考察編),,
30,FALSE,TRUE,TRUE,,Beta-185257,1850,40,AMS,NA,-25.7,Charred Seed,炭化米,carbonized rice (Oryza sativa),SI11D区,下老子笹川遺跡,Shimoigosasagawaiseki,高岡市福岡町下老子,36.71241944,136.9435611,Toyama,Chubu,Rekihaku 14C Database,2006,富山県文化振興財団埋蔵文化財発掘調査報告第31集　下老子笹川遺跡発掘調査報告(第五分冊　自然科学分析･考察編),,
31,FALSE,TRUE,TRUE,,Beta-187219,2320,40,AMS,-24.4,-24.4,Charred Seed,"種実,コメ,",seed/nuts rice (Oryza sativa),"Ⅰ区,334土坑",中里遺跡,Nakazatoiseki,小田原市中里,35.28303889,139.1855889,Kanagawa,Kanto,Rekihaku 14C Database,2009,弥生農耕の起源と東アジア-炭素14年代測定による高精度編年体系の構築-平成16～20年文部科学省・科学研究費学術創成研究費　研究成果報告書,,
32,TRUE,FALSE,,,Beta-188292,840,40,AMS,NA,-26.1,Other Charred Remains,炭化物,carbonized material,"試料名:№2　Ⅲb区,第2号水田(F-1グリッド)",賀来西遺跡,Kakunishiiseki,大分市大字賀来,33.21863889,131.5621611,Oita,Kyushu,Rekihaku 14C Database,2004,賀来西遺跡　第1次･第2次発掘調査報告書　-大分都市計画事業賀来西土地区画整理事業に伴う発掘調査報告書-,,
33,FALSE,TRUE,TRUE,,Beta-188823,1490,40,AMS,NA,-25.7,Charred Seed,炭化米,carbonized rice (Oryza sativa),第10次調査　SX10217 4b層,沼向遺跡,Numamukaiiseki,仙台市宮城野区中野字沼向,38.28105,141.00105,Miyagi,Tohoku,Rekihaku 14C Database,2010,仙台市文化財調査報告書第360集　沼向遺跡第4〜34次調査　第9分冊,,
34,FALSE,TRUE,TRUE,,Beta-188824,1490,40,AMS,NA,-24.3,Charred Seed,炭化米,carbonized rice (Oryza sativa),第10次調査　SX10217 4b層,沼向遺跡,Numamukaiiseki,仙台市宮城野区中野字沼向,38.28105,141.00105,Miyagi,Tohoku,Rekihaku 14C Database,2010,仙台市文化財調査報告書第360集　沼向遺跡第4〜34次調査　第9分冊,,
35,FALSE,TRUE,TRUE,,Beta-195074,2220,40,AMS,NA,-24.9,Charred Seed,炭化米,carbonized rice (Oryza sativa),試料名:№1　SB1013　S.T-14.15　炭化米№2,大谷尻遺跡,Otanijiriiseki,三好市大字勢力字北原820-2他,34.0566,133.9768,Tokushima,Shikoku,Rekihaku 14C Database,2005,徳島県埋蔵文化財センター調査報告書　第53集　四国縦貫自動車道建設に伴う埋蔵文化財発掘調査報告28　大谷尻遺跡　,"Rekihaku co-ordinates - 35.08378889, 137.0606111 are in Nagoya",
36,FALSE,TRUE,TRUE,,Beta-195079,2040,40,AMS,NA,-26.7,Charred Seed,炭化米,carbonized rice (Oryza sativa),試料名:№6　SX1006　P-13　炭化米,大谷尻遺跡,Otanijiriiseki,三好市大字勢力字北原820-2他,34.0566,133.9768,Tokushima,Shikoku,Rekihaku 14C Database,2005,徳島県埋蔵文化財センター調査報告書　第53集　四国縦貫自動車道建設に伴う埋蔵文化財発掘調査報告28　大谷尻遺跡　,"Rekihaku co-ordinates - 35.08378889, 137.0606111 are in Nagoya",
37,FALSE,TRUE,TRUE,,Beta-200251,1820,40,AMS,NA,-24.2,Charred Seed,炭化種実(炭化米),carbonized seed/nuts rice (Oryza sativa),"試料名:№8　SA10,№62,炭化米",湯牟田遺跡(二次調査),Yumutaiseki（2jichosa）,児湯郡川南町大字川南字湯牟田,32.169999,131.502222,Miyazaki,Kyushu,Rekihaku 14C Database,2007,宮崎県埋蔵文化財センター発掘調査報告書　第152集　湯牟田遺跡(二次調査)　東九州自動車道(都農〜西都間)建設に伴う埋蔵文化財発掘調査報告書47,Updated Site Coordinates from Nabunken Database,
38,TRUE,FALSE,,,Beta-201272,2440,40,AMS,-29.6,-29.6,Wood,"木材,",material wood,"水田,杭,No94 a",牟礼遺跡,Mureiseki,茨木市,34.8164,135.56885,Osaka,Kansai,Rekihaku 14C Database,2009,弥生農耕の起源と東アジア-炭素14年代測定による高精度編年体系の構築-平成16～20年文部科学省・科学研究費学術創成研究費　研究成果報告書,,
39,TRUE,FALSE,,,Beta-201273,2520,40,AMS,-28,-28,Wood,"木材,",material wood,水田,牟礼遺跡,Mureiseki,茨木市,34.8164,135.56885,Osaka,Kansai,Rekihaku 14C Database,2009,弥生農耕の起源と東アジア-炭素14年代測定による高精度編年体系の構築-平成16～20年文部科学省・科学研究費学術創成研究費　研究成果報告書,,
40,TRUE,FALSE,,,Beta-201274,2420,40,AMS,-26.4,-26.4,Wood,"木材,スギ,",material wood Japanese cedar (Cryptomeria japonica),水田,牟礼遺跡,Mureiseki,茨木市,34.8164,135.56885,Osaka,Kansai,Rekihaku 14C Database,2009,弥生農耕の起源と東アジア-炭素14年代測定による高精度編年体系の構築-平成16～20年文部科学省・科学研究費学術創成研究費　研究成果報告書,,
41,FALSE,TRUE,TRUE,,Beta-201569,430,40,AMS,NA,-24.2,Charred Seed,炭化米,carbonized rice (Oryza sativa),RA105,本宮熊堂B遺跡,Motomiyakumadobiseki,盛岡市本宮字熊堂,39.68851111,141.1420694,Iwate,Tohoku,Rekihaku 14C Database,2006,岩手県文化振興事業団埋蔵文化財調査報告書第470集　本宮熊堂A遺跡第24次･本宮熊堂B遺跡第25次発掘調査報告書,,
42,FALSE,TRUE,TRUE,,Beta-205808,1450,40,AMS,NA,-23.1,Charred Seed,炭化米,carbonized rice (Oryza sativa),試料名:№3　SB30-3A,大江遺跡群,Oeisekigun,熊本市中央区大江,32.80161111,130.722325,Kumamoto,Kyushu,Rekihaku 14C Database,2006,熊本県文化財調査報告　第231集　大江遺跡群Ⅱ　-国家公務員合同宿舎(学苑住宅)新築工事に伴う大江遺跡群の埋蔵文化財発掘調査報告-,,
43,FALSE,TRUE,TRUE,,Beta-205809,1490,40,AMS,NA,-23.3,Charred Seed,炭化米,carbonized rice (Oryza sativa),試料名:№4　SB30-3B,大江遺跡群,Oeisekigun,熊本市中央区大江,32.80161111,130.722325,Kumamoto,Kyushu,Rekihaku 14C Database,2006,熊本県文化財調査報告　第231集　大江遺跡群Ⅱ　-国家公務員合同宿舎(学苑住宅)新築工事に伴う大江遺跡群の埋蔵文化財発掘調査報告-,,
44,TRUE,FALSE,,,Beta-206208,580,50,AMS,NA,-25.9,Charred Remain,炭化材,carbonized material,水田畦畔,本郷坪遺跡,Hongotsuboiseki,静岡市葵区長沼,34.98781944,138.4139889,Shizuoka,Chubu,Rekihaku 14C Database,2005,静岡県埋蔵文化財調査研究所調査報告第164集　本郷坪遺跡,,
45,TRUE,FALSE,,,Beta-206209,420,50,AMS,NA,-26,Charred Remain,炭化材,carbonized material,水田畦畔,本郷坪遺跡,Hongotsuboiseki,静岡市葵区長沼,34.98781944,138.4139889,Shizuoka,Chubu,Rekihaku 14C Database,2005,静岡県埋蔵文化財調査研究所調査報告第164集　本郷坪遺跡,,
46,TRUE,FALSE,,,Beta-206210,580,50,AMS,NA,-25.5,Other Charred Remains,炭化物,carbonized material,水田畦畔　おにぎり状塊,本郷坪遺跡,Hongotsuboiseki,静岡市葵区長沼,34.98781944,138.4139889,Shizuoka,Chubu,Rekihaku 14C Database,2005,静岡県埋蔵文化財調査研究所調査報告第164集　本郷坪遺跡,,
47,FALSE,TRUE,TRUE,,Beta-208541,1780,40,AMS,NA,-23.5,Charred Seed,炭化米,carbonized rice (Oryza sativa),"試料名:№1　1号周溝状遺構,ｂ",市納上第1遺跡,Ichinawakamidai1iseki,児湯郡川南町大字川南字市納上,32.217777,131.496388,Miyazaki,Kyushu,Rekihaku 14C Database,2006,宮崎県埋蔵文化財センター発掘調査報告書　第121集　　市納上第1遺跡･市納上第4遺跡　東九州自動車道(都農〜西都間)建設に伴う埋蔵文化財発掘調査報告書26,Updated Coordinate based on Nabunken Database,
48,FALSE,TRUE,TRUE,,Beta-208542,1770,40,AMS,NA,-24.6,Charred Seed,炭化米,carbonized rice (Oryza sativa),"試料名:№2　1号周溝状遺構,ｃ",市納上第1遺跡,Ichinawakamidai1iseki,児湯郡川南町大字川南字市納上,32.217777,131.496388,Miyazaki,Kyushu,Rekihaku 14C Database,2006,宮崎県埋蔵文化財センター発掘調査報告書　第121集　　市納上第1遺跡･市納上第4遺跡　東九州自動車道(都農〜西都間)建設に伴う埋蔵文化財発掘調査報告書26,Updated Coordinate based on Nabunken Database,
49,TRUE,FALSE,,,Beta-209338,1340,40,AMS,NA,-26.5,Charred Remain,炭化材,carbonized material,SKR-1　テフラに覆われた水田上面,敷領遺跡,Shikiryoiseki,指宿市十町小字敷領,31.2459,130.62975,Kagoshima,Kyushu,Rekihaku 14C Database,2006,鹿児島県指宿市　敷領遺跡の調査　文部科学省科学研究費補助金特定領域研究「わが国の火山噴火罹災地における生活･文化環境の復元」による発掘調査報告書,,
50,TRUE,FALSE,,,Beta-209339,1310,40,AMS,NA,-23.9,Charred Remain,炭化材,carbonized material,SKR-2　テフラに覆われた水田上面,敷領遺跡,Shikiryoiseki,指宿市十町小字敷領,31.2459,130.62975,Kagoshima,Kyushu,Rekihaku 14C Database,2006,鹿児島県指宿市　敷領遺跡の調査　文部科学省科学研究費補助金特定領域研究「わが国の火山噴火罹災地における生活･文化環境の復元」による発掘調査報告書,,
51,FALSE,TRUE,TRUE,,Beta-211776,2190,40,AMS,NA,-23.5,Charred Seed,炭化種実(イネ),carbonized seed/nuts rice (Oryza sativa),"試料名:№28　E地点,SA1住居跡",平田遺跡E地点,Hirataisekiechiten,都城市南横市町字和田,31.74141111,131.036,Miyazaki,Kyushu,Rekihaku 14C Database,2007,宮崎県埋蔵文化財センター発掘調査報告書　第160集　平田遺跡　D地点･E地点　一般国道10号都城道路建設に伴う埋蔵文化財発掘調査報告書1,,
52,FALSE,TRUE,TRUE,,Beta-215715,2100,40,AMS,-25.2,-25.2,Charred Seed,"種実,コメ,焼米",seed/nuts rice (Oryza sativa) rice (Oryza sativa),"22次,SK102土坑,2層,№355",唐古=鍵遺跡,Karako・Kagiiseki,磯城郡田原本町大字唐子および鍵,34.573,135.7973194,Nara,Kansai,Rekihaku 14C Database,2009,弥生農耕の起源と東アジア-炭素14年代測定による高精度編年体系の構築-平成16～20年文部科学省・科学研究費学術創成研究費　研究成果報告書,,
53,FALSE,TRUE,TRUE,,Beta-218283,1950,40,AMS,NA,-22.7,Charred Seed,炭化種実(イネ),carbonized seed/nuts rice (Oryza sativa),"試料名:№1　A区,SA3-1",国光原遺跡,Kokkobaruiseki,児湯郡川南町大字川南字湯牟田,32.172777,131.500555,Miyazaki,Kyushu,Rekihaku 14C Database,2007,宮崎県埋蔵文化財センター発掘調査報告書　第149集　国光原遺跡　東九州自動車道(都農〜西都間)建設に伴う埋蔵文化財発掘調査報告書44,Updated coordinate based on Nabunken Database,
54,FALSE,TRUE,TRUE,,Beta-218286,2060,40,AMS,NA,-24.3,Charred Seed,炭化種実(イネ),carbonized seed/nuts rice (Oryza sativa),"試料名:№4　A区,SL1-1",国光原遺跡,Kokkobaruiseki,児湯郡川南町大字川南字湯牟田,32.172777,131.500555,Miyazaki,Kyushu,Rekihaku 14C Database,2007,宮崎県埋蔵文化財センター発掘調査報告書　第149集　国光原遺跡　東九州自動車道(都農〜西都間)建設に伴う埋蔵文化財発掘調査報告書44,Updated coordinate based on Nabunken Database,
55,FALSE,TRUE,TRUE,,Beta-225348,1210,40,AMS,NA,-25.9,Charred Seed,炭化種実(イネ),carbonized seed/nuts rice (Oryza sativa),試料名:24,宮ノ東遺跡,Miyanohigashiiseki,西都市大字岡富字宮ノ東他,32.08108889,131.4152694,Miyazaki,Kyushu,Rekihaku 14C Database,2008,宮崎県埋蔵文化財センター発掘調査報告書　第173集　宮ノ東遺跡　東九州自動車道(都農〜西都間)建設に伴う埋蔵文化財発掘調査報告書60　,,
56,FALSE,TRUE,TRUE,,Beta-225386,710,40,AMS,NA,-25.3,Charred Seed,炭化米,carbonized rice (Oryza sativa),11B5地点　Ⅲ層,姫御前遺跡,Himegozeiseki,糸魚川市東寺町,37.04406111,137.8718611,Niigata,Chubu,Rekihaku 14C Database,2008,新潟県埋蔵文化財調査報告書第184集　北陸新幹線関係発掘調査報告書Ⅷ　姫御前遺跡Ⅰ,,
57,FALSE,TRUE,FALSE,Needs Checking; Date on Husk/Phytholith?,Beta-229774,3720,70,AMS,NA,-24.2,Seed,種子(籾),seed rice (Oryza sativa) husk,溝内土器片直下,日高遺跡,Hidakaiseki,高崎市日高町,36.36161944,139.0299194,Gunma,Kanto,Rekihaku 14C Database,2010,高崎市文化財調査報告第257集　史跡 日高遺跡(本編),,
58,FALSE,TRUE,TRUE,,Beta-239326,210,40,AMS,NA,-26.8,Charred Seed,イネ,rice (Oryza sativa),"2DB13　2層, T71-4",T71遺跡　第2次,T71iseki　Dai2ji,札幌市豊平区平岸1条19丁目163,43.0193,141.3617111,Hokkaido,Hokkaido,Rekihaku 14C Database,2008,札幌市文化財調査報告書87　T71遺跡　第2次調査,,
59,TRUE,FALSE,,,Beta-284770,560,40,AMS,NA,-25.6,Wood,植物遺体(草本),plant plant remains herbaceous plants,西地区北壁　水田耕作層Ⅲb層,上道下西遺跡,Kamimichishitanishiiseki,三条市福島新田丙,37.60595,138.9181111,Niigata,Chubu,Rekihaku 14C Database,2012,新潟県埋蔵文化財調査報告書第231集　北陸自動車道栄スマートインターチェンジ関係発掘調査報告書　上道下西遺跡,,
60,TRUE,FALSE,,,Beta-284771,600,40,AMS,NA,-26.2,Wood,植物遺体(草本),plant plant remains herbaceous plants,西地区北壁　水田耕作層Ⅲb層,上道下西遺跡,Kamimichishitanishiiseki,三条市福島新田丙,37.60595,138.9181111,Niigata,Chubu,Rekihaku 14C Database,2012,新潟県埋蔵文化財調査報告書第231集　北陸自動車道栄スマートインターチェンジ関係発掘調査報告書　上道下西遺跡,,
61,FALSE,TRUE,TRUE,,Beta-331065,40,30,AMS,NA,NA,Seed,イネモミ,rice (Oryza sativa) fir (Abies sp.),不明,石郷(3)遺跡,Ishigo(3)Iseki,平川市石郷村元,40.57213889,140.54985,Aomori,Tohoku,Rekihaku 14C Database,2014,亀ヶ岡文化の低湿地遺跡　冷温帯地域の遺跡資源の保存活用促進プロジェクト調査成果報告書1,,
62,FALSE,TRUE,TRUE,,Beta-340384,50,30,AMS,NA,-24.6,Charred Seed,炭化種実(イネ果実),carbonized seed/nuts fruit /achenes etc rice (Oryza sativa),"試料名:№1
土坑7号　",永吉天神段遺跡(第2地点),Nagayoshitenjindaniseki（Dai２chiten）,曽於郡大崎町永吉字天神,31.42563056,130.9788806,Kagoshima,Kyushu,Rekihaku 14C Database,2016,公益財団法人鹿児島県文化振興財団埋蔵文化財調査センター発掘調査報告書(8)　東九州自動車道建設(志布志IC〜鹿屋串良JCT)に伴う埋蔵文化財発掘調査報告書　　永吉天神段遺跡(第1地点),,
63,FALSE,TRUE,TRUE,,Beta-430181,210,30,AMS,NA,-24.3,Charred Seed,炭化米,carbonized rice (Oryza sativa),試料名:№1　BNK-60,文京遺跡(60次調査),Bunkyoiseki（Dai60jichosa）,松山市文京町3番,33.84971944,132.7705111,Ehime,Shikoku,Rekihaku 14C Database,2017,文京遺跡Ⅷ　-文京遺跡60次調査-　愛媛大学埋蔵文化財調査報告ⅩⅩⅩ,,
64,TRUE,FALSE,,,Gak-11642,1870,100,Beta Counting,NA,NA,Soil,土壌,soil,水田土壌,垂柳遺跡,Tareyanagiiseki,南津軽郡田舎館村,40.63211111,140.5548194,Aomori,Tohoku,Rekihaku 14C Database,1985,青森県埋蔵文化財調査報告書第88集　垂柳遺跡発掘調査報告書,Known as Middle Yayoi Paddy Field Site but the dates are on soil samples,
65,TRUE,FALSE,,,Gak-11644,2080,110,Beta Counting,NA,NA,Soil,土壌,soil,水田土壌,垂柳遺跡,Tareyanagiiseki,南津軽郡田舎館村,40.63211111,140.5548194,Aomori,Tohoku,Rekihaku 14C Database,1985,青森県埋蔵文化財調査報告書第88集　垂柳遺跡発掘調査報告書,Known as Middle Yayoi Paddy Field Site but the dates are on soil samples,
66,TRUE,FALSE,,,Gak-11645,1370,180,Beta Counting,NA,NA,Soil,土壌,soil,水田土壌,垂柳遺跡,Tareyanagiiseki,南津軽郡田舎館村,40.63211111,140.5548194,Aomori,Tohoku,Rekihaku 14C Database,1985,青森県埋蔵文化財調査報告書第88集　垂柳遺跡発掘調査報告書,,
67,TRUE,FALSE,,,GaK-13517,3250,150,Beta Counting,NA,NA,Wood,木片,wood frag,Ⅰ･Ⅱ区　C･D-7Grid　11a層水田跡大畦畔上樹木片集中地点,富沢遺跡,Tomizawaiseki,仙台市長町南,38.22283889,140.8801389,Miyagi,Tohoku,Rekihaku 14C Database,1988,仙台市文化財調査報告書第114集　富沢遺跡-第28次発掘調査報告書-,,
68,TRUE,FALSE,,,GaK-13518,1710,110,Beta Counting,NA,NA,Wood,木片,wood frag,Ⅱ区 B-4Grid 9a層　水田跡大畦,富沢遺跡,Tomizawaiseki,仙台市長町南,38.22283889,140.8801389,Miyagi,Tohoku,Rekihaku 14C Database,1988,仙台市文化財調査報告書第114集　富沢遺跡-第28次発掘調査報告書-,,
69,TRUE,FALSE,,,Gak-17037,1580,100,Beta Counting,NA,NA,Wood,木材,material wood,3号水田跡　耕作土直下,栗出舘跡,Kuridetateato,田村郡大越町大字栗出字沢目木,37.35696111,140.6089611,Fukushima,Tohoku,Rekihaku 14C Database,1993,福島県文化財調査報告書第291集　東北横断自動車道遺跡調査報告20　馬場平B遺跡　栗出舘跡,,
70,TRUE,FALSE,,,Gak-17038,1050,70,Beta Counting,NA,NA,Wood,木材,material wood,4号水田跡　耕作土内,栗出舘跡,Kuridetateato,田村郡大越町大字栗出字沢目木,37.35696111,140.6089611,Fukushima,Tohoku,Rekihaku 14C Database,1993,福島県文化財調査報告書第291集　東北横断自動車道遺跡調査報告20　馬場平B遺跡　栗出舘跡,,
71,TRUE,FALSE,,,Gak-19868,1380,60,Beta Counting,NA,NA,Wood,木材,material wood,自然木　現在の水田面より-1m,山下遺跡,Yamashitaiseki,青森市大字宮田字玉水,40.8354,140.8396111,Aomori,Tohoku,Rekihaku 14C Database,1999,青森県埋蔵文化財調査報告書第258集　山下遺跡･上野尻遺跡,,
72,TRUE,FALSE,,,Gak-19869,1250,70,Beta Counting,NA,NA,Wood,木材,material wood,自然木　現在の水田面より-1m,山下遺跡,Yamashitaiseki,青森市大字宮田字玉水,40.8354,140.8396111,Aomori,Tohoku,Rekihaku 14C Database,1999,青森県埋蔵文化財調査報告書第258集　山下遺跡･上野尻遺跡,,
73,TRUE,FALSE,,,Gak-20391,1160,70,Beta Counting,NA,-32.2,Wood,木材,material wood,試料番号:1　9C代水田層中,八坂本庄遺跡(B区),Yasakahonjoiseki（Bku）,杵築市大字本庄小字浜、前田ほか,33.41891111,131.5907611,Oita,Kyushu,Rekihaku 14C Database,2003,大分県文化財調査報告書　第150輯　八坂川河川改修事業に伴う埋蔵文化財発掘調査報告書　八坂の遺跡Ⅲ　考察･付論篇,,
74,FALSE,TRUE,TRUE,,GaK-6695,1530,120,Beta Counting,NA,NA,Charred Seed,炭化米,carbonized rice (Oryza sativa),55号住居跡,蛍沢遺跡,Hotaruzawaiseki,青森市,40.82296111,140.7473306,Aomori,Tohoku,Rekihaku 14C Database,1979,青森市蛍沢遺跡発掘調査報告書,,
75,TRUE,FALSE,,,GaK-7826,1600,110,Beta Counting,NA,NA,Wood,割り木,split tree,M-41　弥生水田旧水路出土,日高遺跡,Hidakaiseki,高崎市日高町、中尾町村東,36.36161944,139.0299194,Gunma,Kanto,Rekihaku 14C Database,1982,日高遺跡-関越自動車道(新潟線)地域埋蔵文化財発掘調査報告書第5集-,,
76,TRUE,FALSE,,,GaK-7827,1910,100,Beta Counting,NA,NA,Wood,杭,wooden stake,K-41　弥生水田畦内部に打ち込まれた杭,日高遺跡,Hidakaiseki,高崎市日高町、中尾町村東,36.36161944,139.0299194,Gunma,Kanto,Rekihaku 14C Database,1982,日高遺跡-関越自動車道(新潟線)地域埋蔵文化財発掘調査報告書第5集-,,
77,TRUE,FALSE,,,GaK-7828,2250,100,Beta Counting,NA,NA,Wood,自然木,natural wood,O-47G　弥生水田黒色粘性土,日高遺跡,Hidakaiseki,高崎市日高町、中尾町村東,36.36161944,139.0299194,Gunma,Kanto,Rekihaku 14C Database,1982,日高遺跡-関越自動車道(新潟線)地域埋蔵文化財発掘調査報告書第5集-,,
78,TRUE,FALSE,,,GaK-8296,1740,120,Beta Counting,NA,NA,Other unknown samples,不明,unknown,遺跡付近水田地帯　ボーリングコアサンプル　深さ3.8m,谷津遺跡,Yatsuiseki,千葉市花輪町字谷津,35.57921944,140.1559306,Chiba,Kanto,Rekihaku 14C Database,1984,千葉市文化財報告書第10集　谷津遺跡　本文編,,
79,TRUE,FALSE,,,GaK-9092,5380,220,Beta Counting,NA,NA,Other unknown samples,不明,unknown,遺跡付近水田地帯　ボーリングコアサンプル　深さ4.5m,谷津遺跡,Yatsuiseki,千葉市花輪町字谷津,35.57921944,140.1559306,Chiba,Kanto,Rekihaku 14C Database,1984,千葉市文化財報告書第10集　谷津遺跡　本文編,,
80,TRUE,FALSE,,,GaK-9093,4550,140,Beta Counting,NA,NA,Other unknown samples,不明,unknown,遺跡付近水田地帯　ボーリングコアサンプル　深さ7.7m,谷津遺跡,Yatsuiseki,千葉市花輪町字谷津,35.57921944,140.1559306,Chiba,Kanto,Rekihaku 14C Database,1984,千葉市文化財報告書第10集　谷津遺跡　本文編,,
81,FALSE,TRUE,TRUE,,IAA-11832,1090,30,AMS,-17.11,NA,Charred Seed,炭化イネ,carbonized rice (Oryza sativa),竪穴状遺構SX02　床面直上,杉の堂遺跡,Suginodoiseki,水沢市神明町,39.14408056,141.1391111,Iwate,Tohoku,Rekihaku 14C Database,2004,岩手県文化振興事業団埋蔵文化財調査報告書第425集　杉の堂遺跡発掘調査報告書,,
82,FALSE,TRUE,TRUE,,IAA-141615,884,23,AMS,-25.59,NA,Seed,種実(イネ胚乳),seed/nuts rice (Oryza sativa),SD137　3層,細池寺道上遺跡,Hosoiketeramichiueiseki,新潟市秋葉区大安寺,37.79789907,139.1549796,Niigata,Chubu,Rekihaku 14C Database,2015,細池寺道上遺跡Ⅳ　第43次調査,,
83,FALSE,TRUE,TRUE,,IAA-141616,649,24,AMS,-22.73,NA,Seed,種実(イネ胚乳),seed/nuts rice (Oryza sativa),SE263　3層,細池寺道上遺跡,Hosoiketeramichiueiseki,新潟市秋葉区大安寺,37.79789907,139.1549796,Niigata,Chubu,Rekihaku 14C Database,2015,細池寺道上遺跡Ⅳ　第43次調査,,
84,FALSE,TRUE,FALSE,Low Delta13C mixture of different plants,IAA-40,2070,100,Beta Counting,NA,-15,Other Charred Remains,炭化物(繊維状)(イネ属･ススキ属･ウシクサ属),carbonized textile fiber / fiborous material rice (Oryza sativa) silvergrass (Miscanthus sp.) Schizachyrium tribe of grasses?,"試料番号:9
D-24 中世竪穴建物2号　住居",芝原遺跡,Shibaharaiseki,南さつま市金峰町大字宮崎濱崎,31.46553889,130.4019611,Kagoshima,Kyushu,Rekihaku 14C Database,2012,鹿児島県立埋蔵文化財センター発掘調査報告書(170)　芝原遺跡3,this is on stems that might include rice and also Miscanthus sp. a C4 plant hence why dC13 is -15 [CJS],
85,FALSE,TRUE,FALSE,No date,IAA-540,NA,NA,Beta Counting,NA,-28.7,Wood,植物遺体(イネ),plant plant remains rice (Oryza sativa),B3地区　SK2480,中尾新保谷内遺跡,Nakaoshimboyachiiseki,氷見市中尾,36.85016944,136.9477194,Toyama,Chubu,Rekihaku 14C Database,2009,富山県文化振興財団埋蔵文化財発掘調査報告第41集　中尾茅戸遺跡　中尾新保谷内遺跡　神明北遺跡　大野江淵遺跡発掘調査報告(第二分冊),Missing Date; Incorrect Lab-Code (corrected now) - IAA-541 is not イネ but a piece of wood. Date is reported as Modern so left blank,Solved
86,TRUE,FALSE,,,IAAA-10045,280,50,AMS,-29.1,NA,Wood,植物遺体,plant plant remains,水田面　火山灰直下,横山遺跡,Yokoyamaiseki,本荘市福山字横山,39.3858,140.0489194,Akita,Tohoku,Rekihaku 14C Database,2003,秋田県文化財調査報告書第363集　横山遺跡,,
87,FALSE,TRUE,TRUE,,IAAA-103552,1036,26,AMS,-23.42,NA,Charred Seed,炭化米,carbonized rice (Oryza sativa),SN4　B2　1層,油伝(1)遺跡,Aburaden(1)Iseki,弘前市大字時苗字油伝,40.60315,140.4631194,Aomori,Tohoku,Rekihaku 14C Database,2014,油伝(1)遺跡発掘調査報告書,,
88,FALSE,TRUE,TRUE,,IAAA-10378,290,30,AMS,-25.25,NA,Charred Seed,炭化種子（イネ）,carbonized seed rice (Oryza sativa),"（Ⅲ層（Ta-aより下位））1号平地式住居跡床面, OS2-1",オサツ2遺跡,Osatsu2iseki,千歳市長都,42.874,141.6311611,Hokkaido,Hokkaido,Rekihaku 14C Database,2002,千歳市文化財調査報告書ⅩⅩⅦ　ユカンボシC２遺跡・オサツ２遺跡における考古学的調査,,
89,FALSE,TRUE,TRUE,,IAAA-10597,340,20,AMS,-25.52,NA,Charred Seed,炭化米,carbonized rice (Oryza sativa),ポイント1炭範囲②,新府城跡,Shimpujoato,韮崎市中田町中条字城山,35.74118056,138.4318389,Yamanashi,Chubu,Rekihaku 14C Database,2002,史跡新府城跡,,
90,FALSE,TRUE,TRUE,,IAAA-10652,960,30,AMS,-25.1,NA,Charred Seed,炭化種子(イネ),carbonized seed rice (Oryza sativa),第5号焼土･炭化物集中区,和野Ⅰ遺跡,Wano1iseki,下閉伊郡田野畑村和野,39.93111944,141.9137694,Iwate,Tohoku,Rekihaku 14C Database,2004,岩手県文化振興事業団埋蔵文化財調査報告書第452集　和野Ⅰ遺跡発掘調査報告書　(第1分冊　本文･図版･表編),,
91,TRUE,FALSE,,,IAAA-110522,819,21,AMS,-25.71,NA,Wood,植物片,plant fragments,水田区画　耕作土(Ⅷ層水田区画1),山王遺跡,Sannoiseki,多賀城市山王字山王四区,38.2995162,140.9791778,Miyagi,Tohoku,Rekihaku 14C Database,2012,多賀城市文化財調査報告書第109集　山王遺跡ほか,,
92,TRUE,FALSE,,,IAAA-110974,1731,21,AMS,-27.03,NA,Soil,土壌,soil,水田区画　耕作土(Ⅷ層水田区画1),山王遺跡,Sannoiseki,多賀城市山王字山王四区,38.2995162,140.9791778,Miyagi,Tohoku,Rekihaku 14C Database,2012,多賀城市文化財調査報告書第109集　山王遺跡ほか,"Site reports refer to the paddy field as from Kofun period, chronology can be of Final Yayoi",
93,FALSE,TRUE,TRUE,,IAAA-112037,1167,25,AMS,-24.4,NA,Charred Remain,炭化物(イネ属),carbonized material rice (Oryza sativa),南側斜面3,家ノ浦Ⅱ遺跡,Ienora2iseki,にかほ市両前寺字家ノ浦,39.29598889,139.9746694,Akita,Tohoku,Rekihaku 14C Database,2013,秋田県文化財調査報告書第485集　家ノ浦Ⅱ遺跡,,
94,FALSE,TRUE,TRUE,,IAAA-112206,389,25,AMS,-25.5,NA,Charred Seed,炭化コメ,carbonized rice (Oryza sativa),"Ⅲ層　炉4　灰1, 4",福山城下町遺跡,Fukuyamajokamachiiseki,松前郡松前町,41.42801111,140.1111611,Hokkaido,Hokkaido,Rekihaku 14C Database,2012,（財）北海道埋蔵文化財センター調査報告書第290集　松前町　福山城下町遺跡　－町道旭豊岡線代行事業改良工事に関わる埋蔵文化財発掘調査報告書－,,
95,FALSE,TRUE,TRUE,,IAAA-112207,328,23,AMS,-19.5,NA,Charred Seed,炭化コメ,carbonized rice (Oryza sativa),"Ⅲ層　炉5　灰1, 5",福山城下町遺跡,Fukuyamajokamachiiseki,松前郡松前町,41.42801111,140.1111611,Hokkaido,Hokkaido,Rekihaku 14C Database,2012,（財）北海道埋蔵文化財センター調査報告書第290集　松前町　福山城下町遺跡　－町道旭豊岡線代行事業改良工事に関わる埋蔵文化財発掘調査報告書－,,
96,FALSE,TRUE,TRUE,,IAAA-112209,339,24,AMS,-26.87,NA,Charred Seed,炭化コメ,carbonized rice (Oryza sativa),"Ⅲ層　炉7, 7",福山城下町遺跡,Fukuyamajokamachiiseki,松前郡松前町,41.42801111,140.1111611,Hokkaido,Hokkaido,Rekihaku 14C Database,2012,（財）北海道埋蔵文化財センター調査報告書第290集　松前町　福山城下町遺跡　－町道旭豊岡線代行事業改良工事に関わる埋蔵文化財発掘調査報告書－,,
97,FALSE,TRUE,TRUE,,IAAA-112210,340,24,AMS,-23.39,NA,Charred Seed,炭化コメ,carbonized rice (Oryza sativa),"Ⅲ層　灰集中1, 8",福山城下町遺跡,Fukuyamajokamachiiseki,松前郡松前町,41.42801111,140.1111611,Hokkaido,Hokkaido,Rekihaku 14C Database,2012,（財）北海道埋蔵文化財センター調査報告書第290集　松前町　福山城下町遺跡　－町道旭豊岡線代行事業改良工事に関わる埋蔵文化財発掘調査報告書－,,
98,FALSE,TRUE,TRUE,,IAAA-112450,1294,24,AMS,-25.69,NA,Charred Seed,炭化種実(イネ胚乳),carbonized seed/nuts rice (Oryza sativa),Ⅰ東　2SI04　炭化物層,道村B遺跡,Domurabiseki,白山市宮丸町,36.5077,136.5499694,Ishikawa,Chubu,Rekihaku 14C Database,2015,白山市道村B遺跡,,
99,FALSE,TRUE,TRUE,,IAAA-112452,1232,23,AMS,-26.2,NA,Charred Seed,炭化種実(イネ胚乳),carbonized seed/nuts rice (Oryza sativa),Ⅰ東　2SK28炭化物,道村B遺跡,Domurabiseki,白山市宮丸町,36.5077,136.5499694,Ishikawa,Chubu,Rekihaku 14C Database,2015,白山市道村B遺跡,,
100,FALSE,TRUE,TRUE,,IAAA-112453,1245,25,AMS,-25.03,NA,Charred Seed,炭化種実(イネ胚乳),carbonized seed/nuts rice (Oryza sativa),Ⅰ東　2SK29炭化物,道村B遺跡,Domurabiseki,白山市宮丸町,36.5077,136.5499694,Ishikawa,Chubu,Rekihaku 14C Database,2015,白山市道村B遺跡,,
101,FALSE,TRUE,TRUE,,IAAA-112454,1274,22,AMS,-22.43,NA,Charred Seed,炭化種実(イネ胚乳),carbonized seed/nuts rice (Oryza sativa),Ⅰ東　3SI11　炭化物,道村B遺跡,Domurabiseki,白山市宮丸町,36.5077,136.5499694,Ishikawa,Chubu,Rekihaku 14C Database,2015,白山市道村B遺跡,,
102,FALSE,TRUE,TRUE,,IAAA-112456,1334,26,AMS,-29.37,NA,Charred Seed,炭化種実(イネ胚乳),carbonized seed/nuts rice (Oryza sativa),Ⅰ東　3下SI09-a,道村B遺跡,Domurabiseki,白山市宮丸町,36.5077,136.5499694,Ishikawa,Chubu,Rekihaku 14C Database,2015,白山市道村B遺跡,,
103,FALSE,TRUE,TRUE,,IAAA-11553,1130,30,AMS,-30.04,NA,Seed,植物遺体(イネ),plant plant remains rice (Oryza sativa),SD42 LL以東　覆土,横山遺跡,Yokoyamaiseki,本荘市福山字横山,39.3858,140.0489194,Akita,Tohoku,Rekihaku 14C Database,2003,秋田県文化財調査報告書第363集　横山遺跡,,
104,FALSE,TRUE,TRUE,,IAAA-11578,1120,30,AMS,-26.66,NA,Charred Seed,炭化米,carbonized rice (Oryza sativa),SI45　覆土,横山遺跡,Yokoyamaiseki,本荘市福山字横山,39.3858,140.0489194,Akita,Tohoku,Rekihaku 14C Database,2003,秋田県文化財調査報告書第363集　横山遺跡,,
105,FALSE,TRUE,TRUE,,IAAA-11821,400,30,AMS,-20.9,NA,Charred Seed,炭化種実(イネ･胚乳･穎),carbonized seed/nuts rice (Oryza sativa),SX-04　番号:1,田中城跡,Tanakajoato,玉名郡和水町大字和仁字古城,33.08056111,130.59445,Kumamoto,Kyushu,Rekihaku 14C Database,2002,三加和町文化財調査報告書　第19集　田中城跡ⅩⅦ,,
106,FALSE,TRUE,TRUE,,IAAA-11822,370,30,AMS,-21.08,NA,Charred Seed,炭化種実(イネ･胚乳･穎),carbonized seed/nuts rice (Oryza sativa),SX-04　番号:2,田中城跡,Tanakajoato,玉名郡和水町大字和仁字古城,33.08056111,130.59445,Kumamoto,Kyushu,Rekihaku 14C Database,2002,三加和町文化財調査報告書　第19集　田中城跡ⅩⅦ,,
107,FALSE,TRUE,TRUE,,IAAA-120273,1238,22,AMS,-23.55,NA,Charred Seed,炭化穀類(イネ),carbonized rice (Oryza sativa),グリッドGⅣ　4号トレンチ　礎石建物跡SB02　堀込地業,長者山遺跡,Chojayamaiseki,日立市十王町伊師,36.67981111,140.7065389,Ibaraki,Kanto,Rekihaku 14C Database,2015,長者山遺跡ー平成20〜24年度発掘調査成果報告書ー,,
108,FALSE,TRUE,TRUE,,IAAA-120274,1240,24,AMS,-22.96,NA,Charred Seed,炭化穀類(イネ),carbonized rice (Oryza sativa),グリッドGⅦ　5号トレンチ　掘立柱建物跡SB06　P1埋土,長者山遺跡,Chojayamaiseki,日立市十王町伊師,36.67981111,140.7065389,Ibaraki,Kanto,Rekihaku 14C Database,2015,長者山遺跡ー平成20〜24年度発掘調査成果報告書ー,,
109,FALSE,TRUE,TRUE,,IAAA-120774,93,24,AMS,-27.02,NA,Charred Seed,炭化種実(イネ科イネ属),carbonized seed/nuts Poaceae rice (Oryza sativa),"試料名:№5
6号住居跡　床面",田原迫ノ上遺跡,Taharasakonoeiseki,鹿屋市串良町細山田,31.45233056,130.9192389,Kagoshima,Kyushu,Rekihaku 14C Database,2016,公益財団法人鹿児島県文化振興財団埋蔵文化財調査センター発掘調査報告書(5)　東九州自動車道建設(志布志IC〜鹿屋串良JCT間)に伴う埋蔵文化財発掘調査報告書　田原迫ノ上遺跡1(第2分冊),,
110,FALSE,TRUE,TRUE,,IAAA-122028,1265,24,AMS,-23.43,NA,Charred Seed,炭化米,carbonized rice (Oryza sativa),24号竪穴建物跡　張出部焼土内,石田Ⅰ･Ⅱ遺跡,Ishida1・2iseki,奥州市胆沢区南都田字石田,39.11506111,141.0663806,Iwate,Tohoku,Rekihaku 14C Database,2015,岩手県文化振興事業団埋蔵文化財調査報告書第632集　石田Ⅰ･Ⅱ遺跡発掘調査報告書　第一分冊(本文･遺構図版･総括),,
111,FALSE,TRUE,TRUE,,IAAA-122029,1293,25,AMS,-25.14,NA,Charred Seed,炭化米,carbonized rice (Oryza sativa),24号竪穴建物跡　張出部焼土内,石田Ⅰ･Ⅱ遺跡,Ishida1・2iseki,奥州市胆沢区南都田字石田,39.11506111,141.0663806,Iwate,Tohoku,Rekihaku 14C Database,2015,岩手県文化振興事業団埋蔵文化財調査報告書第632集　石田Ⅰ･Ⅱ遺跡発掘調査報告書　第一分冊(本文･遺構図版･総括),,
112,FALSE,TRUE,TRUE,,IAAA-122482,2029,21,AMS,-23.97,NA,Charred Seed,炭化種実(イネ胚乳),carbonized seed/nuts rice (Oryza sativa),試料番号:1   Ⅱ区SK1,バーガ森北斜面遺跡,Ba―Gamorikitashameniseki,吾川郡いの町,33.55756528,133.4283056,Kochi,Shikoku,Rekihaku 14C Database,2015,高知県埋蔵文化財センター発掘調査報告書　第144集　バーガ森北斜面遺跡　高知西バイパス建設工事に伴う発掘調査報告書Ⅲ,,
113,FALSE,TRUE,TRUE,,IAAA-123211,1180,23,AMS,-22.73,NA,Charred Seed,炭化種実(イネ),carbonized seed/nuts rice (Oryza sativa),SI54　床面,扇田道下遺跡,Ogitamichishitaiseki,大館市扇田道下,40.26473056,140.5716889,Akita,Tohoku,Rekihaku 14C Database,2013,大館市文化財調査報告書第8集　扇田道下遺跡発掘調査報告書,,
114,TRUE,FALSE,,,IAAA-130374,606,25,AMS,-25.24,NA,Wood,木材(マツ属複維管束亜属),material wood pine (Pinus sp.) subgen compound vascular,D区水田2　杭1　№1,川原遺跡･紺町遺跡,Kawaharaiseki・Kommachiiseki,玉名市,32.92771944,130.5594806,Kumamoto,Kyushu,Rekihaku 14C Database,2014,玉名市文化財調査報告　第29集　川原遺跡･紺町遺跡　-玉名市新庁舎建設事業に伴う発掘調査報告書-,,
115,TRUE,FALSE,,,IAAA-130375,628,25,AMS,-28.02,NA,Wood,木材(ツバキ属),material wood camellia (Camellia sp.),D区水田2　杭1　№6,川原遺跡･紺町遺跡,Kawaharaiseki・Kommachiiseki,玉名市,32.92771944,130.5594806,Kumamoto,Kyushu,Rekihaku 14C Database,2014,玉名市文化財調査報告　第29集　川原遺跡･紺町遺跡　-玉名市新庁舎建設事業に伴う発掘調査報告書-,,
116,TRUE,FALSE,,,IAAA-130376,639,24,AMS,-27.12,NA,Wood,木材(マツ属複維管束亜属),material wood pine (Pinus sp.) subgen compound vascular,D区水田2　杭1　№10,川原遺跡･紺町遺跡,Kawaharaiseki・Kommachiiseki,玉名市,32.92771944,130.5594806,Kumamoto,Kyushu,Rekihaku 14C Database,2014,玉名市文化財調査報告　第29集　川原遺跡･紺町遺跡　-玉名市新庁舎建設事業に伴う発掘調査報告書-,,
117,TRUE,FALSE,,,IAAA-130377,748,24,AMS,-26.73,NA,Wood,木材(ハイノキ属ハイノキ節),material wood hainoki (Symplocos sp.),D区水田2　杭2　№4,川原遺跡･紺町遺跡,Kawaharaiseki・Kommachiiseki,玉名市,32.92771944,130.5594806,Kumamoto,Kyushu,Rekihaku 14C Database,2014,玉名市文化財調査報告　第29集　川原遺跡･紺町遺跡　-玉名市新庁舎建設事業に伴う発掘調査報告書-,,
118,TRUE,FALSE,,,IAAA-130378,620,24,AMS,-27.1,NA,Wood,木材(ツバキ属),material wood camellia (Camellia sp.),D区水田2　杭2　№10,川原遺跡･紺町遺跡,Kawaharaiseki・Kommachiiseki,玉名市,32.92771944,130.5594806,Kumamoto,Kyushu,Rekihaku 14C Database,2014,玉名市文化財調査報告　第29集　川原遺跡･紺町遺跡　-玉名市新庁舎建設事業に伴う発掘調査報告書-,,
119,TRUE,FALSE,,,IAAA-130379,738,24,AMS,-29.09,NA,Wood,木材(ツバキ属),material wood camellia (Camellia sp.),D区水田2　杭2　№14,川原遺跡･紺町遺跡,Kawaharaiseki・Kommachiiseki,玉名市,32.92771944,130.5594806,Kumamoto,Kyushu,Rekihaku 14C Database,2014,玉名市文化財調査報告　第29集　川原遺跡･紺町遺跡　-玉名市新庁舎建設事業に伴う発掘調査報告書-,,
120,TRUE,FALSE,,,IAAA-130380,678,24,AMS,-28.33,NA,Wood,木材(タブノキ属),material wood bay tree (Machilus sp.),D区水田2　杭2　№18,川原遺跡･紺町遺跡,Kawaharaiseki・Kommachiiseki,玉名市,32.92771944,130.5594806,Kumamoto,Kyushu,Rekihaku 14C Database,2014,玉名市文化財調査報告　第29集　川原遺跡･紺町遺跡　-玉名市新庁舎建設事業に伴う発掘調査報告書-,,
121,TRUE,FALSE,,,IAAA-130381,637,23,AMS,-29.74,NA,Wood,木材(ユズリハ属),material wood yuzuriha (Daphniphyllum sp.),D区水田2　杭3　№7,川原遺跡･紺町遺跡,Kawaharaiseki・Kommachiiseki,玉名市,32.92771944,130.5594806,Kumamoto,Kyushu,Rekihaku 14C Database,2014,玉名市文化財調査報告　第29集　川原遺跡･紺町遺跡　-玉名市新庁舎建設事業に伴う発掘調査報告書-,,
122,TRUE,FALSE,,,IAAA-130382,563,24,AMS,-28.92,NA,Wood,木材(スダジイ),material wood Itajii tree (Castanopis sieboldi),D区水田2　杭3　№11,川原遺跡･紺町遺跡,Kawaharaiseki・Kommachiiseki,玉名市,32.92771944,130.5594806,Kumamoto,Kyushu,Rekihaku 14C Database,2014,玉名市文化財調査報告　第29集　川原遺跡･紺町遺跡　-玉名市新庁舎建設事業に伴う発掘調査報告書-,,
123,TRUE,FALSE,,,IAAA-130383,642,23,AMS,-27.1,NA,Wood,木材(イヌビワ属),material wood (Ficus sp.),D区水田2　杭3　№14,川原遺跡･紺町遺跡,Kawaharaiseki・Kommachiiseki,玉名市,32.92771944,130.5594806,Kumamoto,Kyushu,Rekihaku 14C Database,2014,玉名市文化財調査報告　第29集　川原遺跡･紺町遺跡　-玉名市新庁舎建設事業に伴う発掘調査報告書-,I have added Ficus sp. as it got missed originally [CJS],
124,TRUE,FALSE,,,IAAA-130384,626,25,AMS,-28.88,NA,Wood,木材(ネジキ),material wood nejiki (Lyonia ovalifolia),D区水田2　杭3　№19,川原遺跡･紺町遺跡,Kawaharaiseki・Kommachiiseki,玉名市,32.92771944,130.5594806,Kumamoto,Kyushu,Rekihaku 14C Database,2014,玉名市文化財調査報告　第29集　川原遺跡･紺町遺跡　-玉名市新庁舎建設事業に伴う発掘調査報告書-,,
125,TRUE,FALSE,,,IAAA-130385,631,25,AMS,-29.53,NA,Wood,木材(スダジイ),material wood Itajii tree (Castanopis sieboldi),D区水田2　杭3　№27,川原遺跡･紺町遺跡,Kawaharaiseki・Kommachiiseki,玉名市,32.92771944,130.5594806,Kumamoto,Kyushu,Rekihaku 14C Database,2014,玉名市文化財調査報告　第29集　川原遺跡･紺町遺跡　-玉名市新庁舎建設事業に伴う発掘調査報告書-,,
126,TRUE,FALSE,,,IAAA-130386,583,25,AMS,-28.41,NA,Wood,木材(シャシャンボ),material wood sea bilberry (Vaccinium bracteatum)​,B区水田2　杭4　№1,川原遺跡･紺町遺跡,Kawaharaiseki・Kommachiiseki,玉名市,32.92771944,130.5594806,Kumamoto,Kyushu,Rekihaku 14C Database,2014,玉名市文化財調査報告　第29集　川原遺跡･紺町遺跡　-玉名市新庁舎建設事業に伴う発掘調査報告書-,,
127,TRUE,FALSE,,,IAAA-130387,574,23,AMS,-28.94,NA,Wood,木材(マツ属複維管束亜属),material wood pine (Pinus sp.) subgen compound vascular,B区水田2　杭5　№4,川原遺跡･紺町遺跡,Kawaharaiseki・Kommachiiseki,玉名市,32.92771944,130.5594806,Kumamoto,Kyushu,Rekihaku 14C Database,2014,玉名市文化財調査報告　第29集　川原遺跡･紺町遺跡　-玉名市新庁舎建設事業に伴う発掘調査報告書-,,
128,TRUE,FALSE,,,IAAA-130388,563,22,AMS,-25.79,NA,Wood,木材(コナラ属アカガシ亜属),material wood oak (Quercus sp.) Japanese evergreen oak (Quercus acuta),B区水田2　杭5　№28,川原遺跡･紺町遺跡,Kawaharaiseki・Kommachiiseki,玉名市,32.92771944,130.5594806,Kumamoto,Kyushu,Rekihaku 14C Database,2014,玉名市文化財調査報告　第29集　川原遺跡･紺町遺跡　-玉名市新庁舎建設事業に伴う発掘調査報告書-,,
129,TRUE,FALSE,,,IAAA-130389,563,23,AMS,-26.98,NA,Wood,木材(スダジイ),material wood Itajii tree (Castanopis sieboldi),B区水田2　杭6　№25,川原遺跡･紺町遺跡,Kawaharaiseki・Kommachiiseki,玉名市,32.92771944,130.5594806,Kumamoto,Kyushu,Rekihaku 14C Database,2014,玉名市文化財調査報告　第29集　川原遺跡･紺町遺跡　-玉名市新庁舎建設事業に伴う発掘調査報告書-,,
130,TRUE,FALSE,,,IAAA-130390,608,24,AMS,-28.18,NA,Wood,木材(カキノキ属),material wood Persimmon (Diospyros sp.),D区水田2　杭7,川原遺跡･紺町遺跡,Kawaharaiseki・Kommachiiseki,玉名市,32.92771944,130.5594806,Kumamoto,Kyushu,Rekihaku 14C Database,2014,玉名市文化財調査報告　第29集　川原遺跡･紺町遺跡　-玉名市新庁舎建設事業に伴う発掘調査報告書-,,
131,TRUE,FALSE,,,IAAA-130391,620,25,AMS,-28.2,NA,Wood,木材(タブノキ属),material wood bay tree (Machilus sp.),D区水田2　杭8,川原遺跡･紺町遺跡,Kawaharaiseki・Kommachiiseki,玉名市,32.92771944,130.5594806,Kumamoto,Kyushu,Rekihaku 14C Database,2014,玉名市文化財調査報告　第29集　川原遺跡･紺町遺跡　-玉名市新庁舎建設事業に伴う発掘調査報告書-,,
132,TRUE,FALSE,,,IAAA-130392,628,25,AMS,-25.57,NA,Wood,木材(マツ属複維管束亜属),material wood pine (Pinus sp.) subgen compound vascular,D区水田2　杭列9　№1,川原遺跡･紺町遺跡,Kawaharaiseki・Kommachiiseki,玉名市,32.92771944,130.5594806,Kumamoto,Kyushu,Rekihaku 14C Database,2014,玉名市文化財調査報告　第29集　川原遺跡･紺町遺跡　-玉名市新庁舎建設事業に伴う発掘調査報告書-,,
133,FALSE,TRUE,TRUE,,IAAA-131729,424,20,AMS,-23.75,NA,Charred Seed,炭化米,carbonized rice (Oryza sativa),Ⅶ層　32K22,宝田遺跡,Takaradaiseki,柏崎市宝田,37.3791,138.5893111,Niigata,Chubu,Rekihaku 14C Database,2015,新潟県埋蔵文化財調査報告書第252集　一般国道8号柏崎バイパス関係発掘調査報告書Ⅷ　宝田遺跡,,
134,FALSE,TRUE,TRUE,,IAAA-132469,941,22,AMS,-21.96,NA,Charred Seed,炭化種実(イネ胚乳),carbonized seed/nuts rice (Oryza sativa),"試料番号:5
土坑墓7号",天神段遺跡,Tenjindaniseki,曽於郡大崎町野方,31.50798056,130.9525306,Kagoshima,Kyushu,Rekihaku 14C Database,2015,公益財団法人鹿児島県文化振興財団埋蔵文化財調査センター発掘調査報告書(3)　東九州自動車道建設(鹿屋串良JCT〜曽於弥五郎IC)に伴う埋蔵文化財発掘調査報告書　天神段遺跡(弥生時代〜近世編),,
135,FALSE,TRUE,TRUE,,IAAA-133011,752,20,AMS,-26.3,NA,Seed,イネ胚乳,rice (Oryza sativa),2区西SE400,沖ノ羽遺跡,Okinohaiseki,新潟市秋葉区七日町字沖ノ羽,37.8180037,139.1339833,Niigata,Chubu,Rekihaku 14C Database,2016,沖ノ羽遺跡Ⅳ　第19･22･24次調査　本文編,,
136,TRUE,FALSE,,,IAAA-133456,1822,24,AMS,-21.46,NA,Soil,土壌,soil,SX1872水田跡　Ⅵ層,山王遺跡,Sannoiseki,多賀城市山王字山王四区,38.2995162,140.9791778,Miyagi,Tohoku,Rekihaku 14C Database,2014,多賀城市文化財調査報告書第115集　桜井館跡ほか　桜井館跡第3次調査　西沢遺跡第25次調査　山王遺跡第139次調査,"Site reports refer to the paddy field as from Kofun period, chronology can be of Final Yayoi",
137,FALSE,TRUE,TRUE,,IAAA-142845,456,23,AMS,-22.86,NA,Charred Seed,炭化種実(イネ胚乳),carbonized seed/nuts rice (Oryza sativa),10号円形土坑,江古田遺跡,Egotaiseki,中野区江古田,35.72583056,139.66635,Tokyo,Kanto,Rekihaku 14C Database,2016,東京都埋蔵文化財センター調査報告第312集　江古田遺跡Ⅳ,,
138,FALSE,TRUE,TRUE,,IAAA-143578,297,23,AMS,-24.61,NA,Charred Seed,炭化種実(イネ胚乳),carbonized seed/nuts rice (Oryza sativa),2号堀　南東虎口部　黒色土,赤沢城跡,Akasawajoseki,中魚沼郡津南町大字赤沢下城,36.97448889,138.6510889,Niigata,Chubu,Rekihaku 14C Database,2016,津南町文化財調査報告書第69輯　赤沢城跡,,
139,FALSE,TRUE,TRUE,,IAAA-143579,424,23,AMS,-25.15,NA,Charred Seed,炭化種実(イネ胚乳),carbonized seed/nuts rice (Oryza sativa),23号土坑　黒色土,赤沢城跡,Akasawajoseki,中魚沼郡津南町大字赤沢下城,36.97448889,138.6510889,Niigata,Chubu,Rekihaku 14C Database,2016,津南町文化財調査報告書第69輯　赤沢城跡,,
140,FALSE,TRUE,TRUE,,IAAA-143580,270,22,AMS,-26.25,NA,Charred Seed,炭化種実(イネ胚乳),carbonized seed/nuts rice (Oryza sativa),5溝　炭化物出土範囲B,赤沢城跡,Akasawajoseki,中魚沼郡津南町大字赤沢下城,36.97448889,138.6510889,Niigata,Chubu,Rekihaku 14C Database,2016,津南町文化財調査報告書第69輯　赤沢城跡,,
141,FALSE,TRUE,TRUE,,IAAA-1500685,723,24,AMS,-25.15,NA,Charred Seed,炭化種実(イネ胚乳),carbonized seed/nuts rice (Oryza sativa),試料名:SX3埋土出土炭化,岡遺跡,Okaiseki,安芸市伊尾木,33.49203056,133.9276,Kochi,Shikoku,Rekihaku 14C Database,2016,高知県埋蔵文化財センター発掘調査報告書　第149集　岡遺跡　県道大久保伊尾木線道路改良工事に伴う発掘調査報告書,,
142,FALSE,TRUE,FALSE,Negative Date (Needs Checking),IAAA-30066,-860,30,AMS,-27.77,NA,Charred Seed,"種実,コメ,",seed/nuts rice (Oryza sativa),98LF12,ナガラバル東遺跡,Nagarabaruhigashiiseki,島尻郡伊平屋村川平ナガラ原1115番地,27.03966111,127.9685806,Okinawa,Kyushu,Rekihaku 14C Database,2009,弥生農耕の起源と東アジア-炭素14年代測定による高精度編年体系の構築-平成16～20年文部科学省・科学研究費学術創成研究費　研究成果報告書,Negative Date,Yes
143,FALSE,TRUE,TRUE,,IAAA-30108,290,30,AMS,-18.25,NA,Seed,種実(イネ),seed/nuts rice (Oryza sativa),SB905EP40-F,飛泉寺跡遺跡,Hisenjiatoiseki,西置賜郡小国町大字市野々字寺ノ前,38.01341111,139.8212694,Yamagata,Tohoku,Rekihaku 14C Database,2004,山形県埋蔵文化財センター調査報告書第134集　飛泉寺跡遺跡発掘調査報告書,,
144,FALSE,TRUE,TRUE,,IAAA-30244,1750,40,AMS,-23.01,NA,Seed,種実遺体(イネ),seed/nuts rice (Oryza sativa),SD125,川前2遺跡,Kawamae2iseki,山形市大字中野目字赤坂,38.33593056,140.3147389,Yamagata,Tohoku,Rekihaku 14C Database,2011,山形県埋蔵文化財センター調査報告書第193集　川前2遺跡第1･2次発掘調査報告書,,
145,FALSE,TRUE,TRUE,,IAAA-30251,2140,40,AMS,-23.61,NA,Charred Seed,"種実,コメ,",seed/nuts rice (Oryza sativa),田手地区，ユンボ作業中に出土,吉野ヶ里遺跡,Yoshinogariiseki,神埼市大字志波屋・鶴・田道ケ里/吉野ヶ里町大字田手・大曲,33.31048056,130.3726694,Saga,Kyushu,Rekihaku 14C Database,2009,弥生農耕の起源と東アジア-炭素14年代測定による高精度編年体系の構築-平成16～20年文部科学省・科学研究費学術創成研究費　研究成果報告書,,
146,FALSE,TRUE,TRUE,,IAAA-30258,2340,50,AMS,-25.88,NA,Charred Seed,"種実,コメ,",seed/nuts rice (Oryza sativa),Ⅱ-F区80号貯蔵穴,下稗田遺跡,Shimohiedaiseki,行橋市大字下稗田・前田地区,33.70353889,130.9447194,Fukuoka,Kyushu,Rekihaku 14C Database,2009,弥生農耕の起源と東アジア-炭素14年代測定による高精度編年体系の構築-平成16～20年文部科学省・科学研究費学術創成研究費　研究成果報告書,,
147,FALSE,TRUE,TRUE,,IAAA-30369,590,40,AMS,-26.13,NA,Charred Seed,炭化米,carbonized rice (Oryza sativa),SK26,水橋金広･中馬場遺跡,Mizuhashikanehiro・Nakabambaiseki,富山市水橋金広,36.71478056,137.3069194,Toyama,Chubu,Rekihaku 14C Database,2006,富山市埋蔵文化財調査報告6-(1)　水橋金広･中馬場遺跡発掘調査報告書Ⅱ,,
148,FALSE,TRUE,TRUE,,IAAA-30533,270,50,AMS,-30.61,-30.61,Charred Seed,イネ,rice (Oryza sativa),"炉1-2層（Ta-a層直下）　1号平地式住居跡, TM3-01",トメト川3遺跡,Tometogawa3iseki,千歳市根志越,42.86336944,141.6767111,Hokkaido,Hokkaido,Rekihaku 14C Database,2004,千歳市文化財調査報告書ⅩⅩⅩⅠ　トメト川３遺跡における考古学的調査,,
149,FALSE,TRUE,TRUE,,IAAA-30559,1230,40,AMS,-30.37,NA,Charred Seed,炭化米,carbonized rice (Oryza sativa),長者山西　72号建物跡,鞠智城跡,Kikuchijoato,熊本群菊花町大字米原,33.02808056,130.7596694,Kumamoto,Kyushu,Rekihaku 14C Database,2004,鞠智城跡　-第24次調査報告-　,Updated coordinate and changed site name,
150,FALSE,TRUE,TRUE,,IAAA-31951,630,33,AMS,-25.44,NA,Charred Seed,炭化米,carbonized rice (Oryza sativa),SK104　3層,間尽遺跡,Mazukushiiseki,高岡市手洗野,36.76141944,136.9593194,Toyama,Chubu,Rekihaku 14C Database,2004,高岡市埋蔵文化財調査報告第11冊　間尽遺跡調査報告Ⅱ,,
151,FALSE,TRUE,TRUE,,IAAA-31968,2022,41,AMS,-22.49,NA,Charred Seed,炭化米,carbonized rice (Oryza sativa),試料番号:8　C'-9　SB1007　埋土(床面直上)遺物番号:38　,カネガ谷遺跡,Kanegadaniiseki,鳴門市大麻町萩原字カネガ谷,34.15846944,134.5162,Tokushima,Shikoku,Rekihaku 14C Database,2005,徳島県埋蔵文化財センター調査報告書　第62集　四国横断自動車道建設に伴う埋蔵文化財発掘調査報告　(自然科学･図版編),,
152,FALSE,TRUE,TRUE,,IAAA-40023,1720,40,AMS,-28.48,NA,Charred Seed,炭化米,carbonized rice (Oryza sativa),A8地区　SI4　,下老子笹川遺跡,Shimoigosasagawaiseki,高岡市福岡町下老子,36.71241944,136.9435611,Toyama,Chubu,Rekihaku 14C Database,2006,富山県文化振興財団埋蔵文化財発掘調査報告第31集　下老子笹川遺跡発掘調査報告(第五分冊　自然科学分析･考察編),,
153,FALSE,TRUE,TRUE,,IAAA-40024,1870,40,AMS,-26.93,NA,Charred Seed,炭化米,carbonized rice (Oryza sativa),B3地区　SI5,下老子笹川遺跡,Shimoigosasagawaiseki,高岡市福岡町下老子,36.71241944,136.9435611,Toyama,Chubu,Rekihaku 14C Database,2006,富山県文化振興財団埋蔵文化財発掘調査報告第31集　下老子笹川遺跡発掘調査報告(第五分冊　自然科学分析･考察編),,
154,FALSE,TRUE,TRUE,,IAAA-40025,1870,40,AMS,-25.92,NA,Charred Seed,炭化米,carbonized rice (Oryza sativa),B5地区　SI7　,下老子笹川遺跡,Shimoigosasagawaiseki,高岡市福岡町下老子,36.71241944,136.9435611,Toyama,Chubu,Rekihaku 14C Database,2006,富山県文化振興財団埋蔵文化財発掘調査報告第31集　下老子笹川遺跡発掘調査報告(第五分冊　自然科学分析･考察編),,
155,FALSE,TRUE,TRUE,,IAAA-40026,1910,40,AMS,-26.6,NA,Charred Seed,炭化米,carbonized rice (Oryza sativa),B5地区　SI6,下老子笹川遺跡,Shimoigosasagawaiseki,高岡市福岡町下老子,36.71241944,136.9435611,Toyama,Chubu,Rekihaku 14C Database,2006,富山県文化振興財団埋蔵文化財発掘調査報告第31集　下老子笹川遺跡発掘調査報告(第五分冊　自然科学分析･考察編),,
156,FALSE,TRUE,TRUE,,IAAA-40027,1840,40,AMS,-25.53,NA,Charred Seed,炭化米,carbonized rice (Oryza sativa),B6地区　SI12,下老子笹川遺跡,Shimoigosasagawaiseki,高岡市福岡町下老子,36.71241944,136.9435611,Toyama,Chubu,Rekihaku 14C Database,2006,富山県文化振興財団埋蔵文化財発掘調査報告第31集　下老子笹川遺跡発掘調査報告(第五分冊　自然科学分析･考察編),,
157,FALSE,TRUE,TRUE,,IAAA-40028,1870,40,AMS,-24.52,NA,Charred Seed,炭化米,carbonized rice (Oryza sativa),B6地区　SI15,下老子笹川遺跡,Shimoigosasagawaiseki,高岡市福岡町下老子,36.71241944,136.9435611,Toyama,Chubu,Rekihaku 14C Database,2006,富山県文化振興財団埋蔵文化財発掘調査報告第31集　下老子笹川遺跡発掘調査報告(第五分冊　自然科学分析･考察編),,
158,FALSE,TRUE,TRUE,,IAAA-40029,1910,40,AMS,-25.2,NA,Charred Seed,炭化米,carbonized rice (Oryza sativa),B6地区　SI23,下老子笹川遺跡,Shimoigosasagawaiseki,高岡市福岡町下老子,36.71241944,136.9435611,Toyama,Chubu,Rekihaku 14C Database,2006,富山県文化振興財団埋蔵文化財発掘調査報告第31集　下老子笹川遺跡発掘調査報告(第五分冊　自然科学分析･考察編),,
159,FALSE,TRUE,TRUE,,IAAA-40030,1890,40,AMS,-25.94,NA,Charred Seed,炭化米,carbonized rice (Oryza sativa),B6地区　SH31,下老子笹川遺跡,Shimoigosasagawaiseki,高岡市福岡町下老子,36.71241944,136.9435611,Toyama,Chubu,Rekihaku 14C Database,2006,富山県文化振興財団埋蔵文化財発掘調査報告第31集　下老子笹川遺跡発掘調査報告(第五分冊　自然科学分析･考察編),,
160,FALSE,TRUE,TRUE,,IAAA-40031,1890,40,AMS,-25.41,NA,Charred Seed,炭化米,carbonized rice (Oryza sativa),B7地区　SB2,下老子笹川遺跡,Shimoigosasagawaiseki,高岡市福岡町下老子,36.71241944,136.9435611,Toyama,Chubu,Rekihaku 14C Database,2006,富山県文化振興財団埋蔵文化財発掘調査報告第31集　下老子笹川遺跡発掘調査報告(第五分冊　自然科学分析･考察編),,
161,FALSE,TRUE,TRUE,,IAAA-40032,1920,40,AMS,-26.83,NA,Charred Seed,炭化米,carbonized rice (Oryza sativa),B7地区　SI19,下老子笹川遺跡,Shimoigosasagawaiseki,高岡市福岡町下老子,36.71241944,136.9435611,Toyama,Chubu,Rekihaku 14C Database,2006,富山県文化振興財団埋蔵文化財発掘調査報告第31集　下老子笹川遺跡発掘調査報告(第五分冊　自然科学分析･考察編),,
162,TRUE,FALSE,,,IAAA-40792,2410,40,AMS,-34.8,-25.664,Organic Residue from Pottery,"土器付着物,口縁外下",from pottery rim outside edge residue,第7次，溝S-66（新）水田S-80（古）,玉沢地区条里跡遺跡第7次調査,Tamazawachikujoriatoisekidai7jichosa,大分市大字玉沢字楠本743-2,33.18804028,131.5786347,Oita,Kyushu,Rekihaku 14C Database,2009,弥生農耕の起源と東アジア-炭素14年代測定による高精度編年体系の構築-平成16～20年文部科学省・科学研究費学術創成研究費　研究成果報告書,,
163,FALSE,TRUE,FALSE,ORA might have reservoir effect?,IAAA-40813,2160,40,AMS,-32.03,NA,Organic Residue from Pottery,"土器付着物,コメ,胴外上",from pottery residue outside rice (Oryza sativa),2原地区河川CD5ヤⅡP148 6,原の辻遺跡,Harunotsujiiseki,壱岐市芦辺町他,33.80116111,129.75995,Nagasaki,Kyushu,Rekihaku 14C Database,2009,弥生農耕の起源と東アジア-炭素14年代測定による高精度編年体系の構築-平成16～20年文部科学省・科学研究費学術創成研究費　研究成果報告書,,
164,FALSE,TRUE,TRUE,,IAAA-40823,2390,40,AMS,-30.31,-24.601,Charred Seed,"種実,コメ,",seed/nuts rice (Oryza sativa),SK171，1次,八ノ坪遺跡,Hachinotsuboiseki,熊本市護藤町・美登里町,32.74643056,130.6652194,Kumamoto,Kyushu,Rekihaku 14C Database,2009,弥生農耕の起源と東アジア-炭素14年代測定による高精度編年体系の構築-平成16～20年文部科学省・科学研究費学術創成研究費　研究成果報告書,,
165,FALSE,TRUE,FALSE,Duplicate of 164,IAAA-40823,2390,40,AMS,NA,-24.6,Charred Seed,炭化米,carbonized rice (Oryza sativa),試料番号:3　SK171　FJ583　,八ノ坪遺跡(第1調査区),Hachinotsuboiseki（Dai1jichosaku）,熊本市南区護藤町地内,32.74643056,130.6652194,Kumamoto,Kyushu,Rekihaku 14C Database,2006,八ノ坪遺跡Ⅰ　-東西屋敷地区経営体育成基盤整備事業に伴う埋蔵文化財発掘調査報告1-　分析･考察･図版編,,
166,FALSE,TRUE,TRUE,,IAAA-40833,2020,30,AMS,-25.89,-25.504,Charred Seed,"種実,コメ,3個",seed/nuts rice (Oryza sativa),Ｓ104住床面出土,古島榎崎遺跡,Kojimaenokizakiiseki,筑後市大字古島字榎崎４７０他,33.19718889,130.4709889,Fukuoka,Kyushu,Rekihaku 14C Database,2009,弥生農耕の起源と東アジア-炭素14年代測定による高精度編年体系の構築-平成16～20年文部科学省・科学研究費学術創成研究費　研究成果報告書,,
167,FALSE,TRUE,FALSE,Duplicate of 166,IAAA-40833,2020,30,AMS,NA,-25.5,Charred Seed,炭化米,carbonized rice (Oryza sativa),試料番号:FJ0601,古島榎崎遺跡(第1次調査),Kojimaenokizakiiseki（Dai1jichosa）,筑後市大字古島字榎崎470外,33.19718889,130.4709889,Fukuoka,Kyushu,Rekihaku 14C Database,2006,古島榎崎遺跡　筑後市文化財調査報告書　第72集　,,
168,FALSE,TRUE,FALSE,Possibly not on rice remain,IAAA-41524,348,33,AMS,-28.88,NA,Wood,植物遺体(イネ属),plant plant remains rice (Oryza sativa),一括出土銭　縄,楢館遺跡,Naradateiseki,八戸市大字是川字楢館,40.47586111,141.5089306,Aomori,Tohoku,Rekihaku 14C Database,2005,青森県埋蔵文化財調査報告書第388集　楢館遺跡Ⅱ,,
169,FALSE,TRUE,TRUE,,IAAA-41644,341,32,AMS,-24.65,NA,Charred Seed,炭化米,carbonized rice (Oryza sativa),E20　土層ベルト,脇本城跡,Wakimotojoato,男鹿市脇本脇本字七沢,39.90302778,139.8954976,Akita,Tohoku,Rekihaku 14C Database,2005,男鹿市文化財調査報告第29集　国指定史跡　脇本城跡,,
170,FALSE,TRUE,TRUE,,IAAA-42077,1212,40,AMS,-23.82,NA,Charred Seed,炭化種実(イネ胚乳),carbonized seed/nuts rice (Oryza sativa),試料番号:2　S-042　カマド左　北東,新南部遺跡群,Shinnabeisekigun,熊本市中央区渡鹿8丁目,32.80631111,130.7331111,Kumamoto,Kyushu,Rekihaku 14C Database,2015,熊本県文化財調査報告　第311集　新南部遺跡群3　白川河川改修事業に伴う埋蔵文化財発掘調査,,
171,FALSE,TRUE,TRUE,,IAAA-42112,902,36,AMS,-28.3,NA,Charred Seed,炭化種実(イネ胚乳･アワ-ヒエ･マメ類),carbonized seed/nuts foxtail millet (Setaria italica) rice (Oryza sativa) barnyard millet (Echinochloa) legume (Fabaceae),SB7090 P7,地蔵岱遺跡,Jizotaiiseki,北秋田市森吉字地蔵岱,40.04318889,140.5487194,Akita,Tohoku,Rekihaku 14C Database,2008,秋田県文化財調査報告書第434集　地蔵岱遺跡　本文篇,"this is not just rice but also foxtail millet, barnyard millet and ?azuki/soybean. The dC13 suggests the contribution of millets to the date is very low. [CJS]",
172,FALSE,TRUE,TRUE,,IAAA-51446,2204,37,AMS,-25.88,NA,Charred Seed,炭化米(イネ),carbonized rice (Oryza sativa),334号土坑　覆土,中里遺跡,Nakazatoiseki,小田原市中里,35.28303889,139.1855889,Kanagawa,Kanto,Rekihaku 14C Database,2015,中里遺跡発掘調査報告書　第Ⅰ分冊(本文編),,
173,FALSE,TRUE,TRUE,,IAAA-51465,1136,40,AMS,-22.77,NA,Charred Seed,炭化米,carbonized rice (Oryza sativa),第22次調査地点　C-C'2層,泉廃寺跡,Izumihaiji,南相馬市原町区字寺家前,37.60768889,140.8616,Fukushima,Tohoku,Rekihaku 14C Database,2007,南相馬市埋蔵文化財調査報告書第6集　泉廃寺跡,,
174,FALSE,TRUE,TRUE,,IAAA-52549,1737,38,AMS,-26.94,NA,Charred Seed,炭化米,carbonized rice (Oryza sativa),Ⅳ区　北半部Ⅵ層,花宴遺跡,Hananoeniseki,香南市香我美町徳王子字花宴,33.55416944,133.7429806,Kochi,Shikoku,Rekihaku 14C Database,2010,高知県埋蔵文化財センター発掘調査報告書　第115集　花宴遺跡　南国安芸道路建設工事に伴う発掘調査報告書Ⅱ(高知東部自動車道埋蔵文化財発掘調査報告書Ⅲ)　,,
175,FALSE,TRUE,TRUE,,IAAA-60677,387,28,AMS,-28.96,NA,Charred Seed,炭化米6粒,carbonized grain rice (Oryza sativa),AT203-205整地層,河村城跡,Kawamurajoato,足柄上郡山北町山北,35.36123889,139.08105,Kanagawa,Kanto,Rekihaku 14C Database,2007,神奈川県足柄上郡山北町文化財調査報告1　河村城跡,,
176,FALSE,TRUE,TRUE,,IAAA-60678,360,28,AMS,-27.03,NA,Charred Seed,炭化米8粒,carbonized grain rice (Oryza sativa),空堀1西側法面中段壁面密着,河村城跡,Kawamurajoato,足柄上郡山北町山北,35.36123889,139.08105,Kanagawa,Kanto,Rekihaku 14C Database,2007,神奈川県足柄上郡山北町文化財調査報告1　河村城跡,,
177,FALSE,TRUE,TRUE,,IAAA-60680,359,30,AMS,-31.07,NA,Charred Seed,炭化米3粒,carbonized grain rice (Oryza sativa),堀切3東側ピット第1硬化面,河村城跡,Kawamurajoato,足柄上郡山北町山北,35.36123889,139.08105,Kanagawa,Kanto,Rekihaku 14C Database,2007,神奈川県足柄上郡山北町文化財調査報告1　河村城跡,,
178,FALSE,TRUE,TRUE,,IAAA-60681,325,29,AMS,-29.39,NA,Charred Seed,炭化米3粒,carbonized grain rice (Oryza sativa),堀切3西側ピット第1硬化面,河村城跡,Kawamurajoato,足柄上郡山北町山北,35.36123889,139.08105,Kanagawa,Kanto,Rekihaku 14C Database,2007,神奈川県足柄上郡山北町文化財調査報告1　河村城跡,,
179,FALSE,TRUE,TRUE,,IAAA-60683,370,29,AMS,-27.29,NA,Charred Seed,炭化米3粒,carbonized grain rice (Oryza sativa),No.33北トレンチ竪穴状遺構,河村城跡,Kawamurajoato,足柄上郡山北町山北,35.36123889,139.08105,Kanagawa,Kanto,Rekihaku 14C Database,2007,神奈川県足柄上郡山北町文化財調査報告1　河村城跡,,
180,FALSE,TRUE,TRUE,,IAAA-60684,350,30,AMS,-31.33,NA,Charred Seed,炭化米4粒,carbonized grain rice (Oryza sativa),No.32南トレンチ竪穴状遺構,河村城跡,Kawamurajoato,足柄上郡山北町山北,35.36123889,139.08105,Kanagawa,Kanto,Rekihaku 14C Database,2007,神奈川県足柄上郡山北町文化財調査報告1　河村城跡,,
181,FALSE,TRUE,TRUE,,IAAA-61083,1262,39,AMS,-26.17,NA,Charred Seed,炭化米(イネ胚乳),carbonized rice (Oryza sativa),第3次調査区　SB-86B南東隅抜き取り痕跡埋土,長者ヶ平遺跡,Chojagadairaiseki,那須烏山市鴻野山,36.67843056,140.0428,Tochigi,Kanto,Rekihaku 14C Database,2007,栃木県埋蔵文化財調査報告第300集　長者ヶ平遺跡,,
182,FALSE,TRUE,TRUE,,IAAA-61084,1066,37,AMS,-24.45,NA,Charred Seed,炭化米(イネ胚乳),carbonized rice (Oryza sativa),第6次調査区　SB-113西第2列南第2柱堀方埋土,長者ヶ平遺跡,Chojagadairaiseki,那須烏山市鴻野山,36.67843056,140.0428,Tochigi,Kanto,Rekihaku 14C Database,2007,栃木県埋蔵文化財調査報告第300集　長者ヶ平遺跡,,
183,FALSE,TRUE,TRUE,,IAAA-61085,1335,41,AMS,-24.41,NA,Charred Seed,炭化米(イネ胚乳),carbonized rice (Oryza sativa),第12次調査区 SB-201B東側柱列南第2柱抜き取り痕跡埋土,長者ヶ平遺跡,Chojagadairaiseki,那須烏山市鴻野山,36.67843056,140.0428,Tochigi,Kanto,Rekihaku 14C Database,2007,栃木県埋蔵文化財調査報告第300集　長者ヶ平遺跡,,
184,TRUE,FALSE,,,IAAA-61144,6419,39,AMS,-25.94,NA,Humic substances ,腐植,humus,水田状遺構の下位約40cmの層準から採取した黒色泥層を構成する,三疋田遺跡,Sambikidaiseki,多気町大字三疋田,34.49433889,136.5230389,Mie,Kansai,Rekihaku 14C Database,2008,三重県埋蔵文化財調査報告292　三疋田遺跡発掘調査報告,,
185,FALSE,TRUE,FALSE,No date,IAAA-61213,NA,NA,AMS,-24.67,NA,Charred Seed,炭化種実(イネ),carbonized seed/nuts rice (Oryza sativa),B区小礫下,荒谷遺跡,Arayaiseki,八戸市南郷区大字島守字下荒谷,40.44321111,141.4702611,Aomori,Tohoku,Rekihaku 14C Database,2007,荒谷遺跡,Missing Date; Recorded as 'Modern'.,No
186,FALSE,TRUE,TRUE,,IAAA-62068,318,29,AMS,-23.34,NA,Charred Seed,炭化米(イネ胚乳),carbonized rice (Oryza sativa),堀立柱建物跡柱穴跡底面,田光遺跡,Takoiseki,花巻市東和町落合2区,39.36683056,141.2307694,Iwate,Tohoku,Rekihaku 14C Database,2006,花巻市東和町内遺跡発掘調査報告書　倉沢10区Ⅰ遺跡･田光遺跡･押蕪遺跡･長森遺跡,,
187,FALSE,TRUE,TRUE,,IAAA-70350,1682,33,AMS,-22.75,NA,Charred Seed,炭化種実(イネ),carbonized seed/nuts rice (Oryza sativa),3区　第40号住居跡,下土師東遺跡,Shimohajihigashiiseki,東茨城郡茨城町大字下土師字東山,36.28648056,140.3978389,Ibaraki,Kanto,Rekihaku 14C Database,2009,茨城県教育財団文化財調査報告書第315集　下土師東遺跡2,,
188,TRUE,FALSE,,,IAAA-71124,1871,31,AMS,-27.08,NA,Wood,木材,material wood,水田畦畔SK422,寺家前遺跡,Jikemaeiseki,藤枝市中ノ合,34.90523056,138.2478306,Shizuoka,Chubu,Rekihaku 14C Database,2012,静岡県埋蔵文化財センター調査報告第19集　寺家前遺跡Ⅰ　第二東名No.81地点　第二東名建設事業に伴う埋蔵文化財発掘調査報告書　藤枝市-4(古代･中世〜近世編),,
189,TRUE,FALSE,,,IAAA-71125,1851,38,AMS,-23.41,NA,Wood,木材,material wood,水田畦畔SK422,寺家前遺跡,Jikemaeiseki,藤枝市中ノ合,34.90523056,138.2478306,Shizuoka,Chubu,Rekihaku 14C Database,2012,静岡県埋蔵文化財センター調査報告第19集　寺家前遺跡Ⅰ　第二東名No.81地点　第二東名建設事業に伴う埋蔵文化財発掘調査報告書　藤枝市-4(古代･中世〜近世編),,
190,FALSE,TRUE,FALSE,ORA might have reservoir effect?,IAAA-71137,1860,30,AMS,-25.54,-26.3,Organic Residue from Pottery,"土器付着物,焦：米粒痕,胴内",grain from pottery residue inside fabric? rice (Oryza sativa),18号井戸（SE18）,大友西遺跡,Otomonishiiseki,金沢市大友町,36.60446111,136.6272,Ishikawa,Chubu,Rekihaku 14C Database,2009,弥生農耕の起源と東アジア-炭素14年代測定による高精度編年体系の構築-平成16～20年文部科学省・科学研究費学術創成研究費　研究成果報告書,,
191,FALSE,TRUE,FALSE,ORA might have reservoir effect?,IAAA-71140,1900,30,AMS,-25.23,NA,Organic Residue from Pottery,"土器付着物,焦：米粒,胴内",grain from pottery residue inside fabric? rice (Oryza sativa),18号井戸（SE18）,大友西遺跡,Otomonishiiseki,金沢市大友町,36.60446111,136.6272,Ishikawa,Chubu,Rekihaku 14C Database,2009,弥生農耕の起源と東アジア-炭素14年代測定による高精度編年体系の構築-平成16～20年文部科学省・科学研究費学術創成研究費　研究成果報告書,,
192,FALSE,TRUE,TRUE,,IAAA-71153,2540,30,AMS,-26.29,NA,Charred Seed,"種実,コメ,",seed/nuts rice (Oryza sativa),6-152号土坑,讃良郡条里遺跡,Saragunjoriiseki,寝屋川市・四条畷市,34.75516528,135.6330833,Osaka,Kansai,Rekihaku 14C Database,2009,弥生農耕の起源と東アジア-炭素14年代測定による高精度編年体系の構築-平成16～20年文部科学省・科学研究費学術創成研究費　研究成果報告書,Updated coordinates,
193,FALSE,TRUE,TRUE,,IAAA-71592,2200,40,AMS,-27.34,NA,Charred Remain,"種実,コメ,",seed/nuts rice (Oryza sativa),NA,朝日遺跡,Asahiiseki,名古屋市西区中沼町・浮野町他,35.21685247,136.8523623,Aichi,Chubu,Rekihaku 14C Database,2009,弥生農耕の起源と東アジア-炭素14年代測定による高精度編年体系の構築-平成16～20年文部科学省・科学研究費学術創成研究費　研究成果報告書,,
194,TRUE,FALSE,,,IAAA-71804,155,26,AMS,-23.05,NA,Wood,木片,wood frag,第3号水田跡　第4層(床土),新田(1)遺跡,Niida(1)Iseki,青森市大字新田字忍,40.83298056,140.6922111,Aomori,Tohoku,Rekihaku 14C Database,2009,青森県埋蔵文化財調査報告書第472集　新田(1)遺跡　(第2分冊),,
195,TRUE,FALSE,,,IAAA-71829,2178,31,AMS,-25.06,NA,Charred Remain,木炭,charcoal,C区基本土層C1Ⅶ層水田跡第1号水路跡,前川遺跡,Maekawaiseki,南津軽郡田舎館村大字田舎館字前川,40.62835,140.5480306,Aomori,Tohoku,Rekihaku 14C Database,2009,青森県埋蔵文化財調査報告書第475集　前川遺跡(第二分冊),Site reports mention presence of both Yayoi and Heian Paddy field so could be ok,
196,TRUE,FALSE,,,IAAA-71830,2207,29,AMS,-22.84,NA,Charred Remain,木炭,charcoal,C区基本土層C1Ⅶ層水田跡第1号水路跡,前川遺跡,Maekawaiseki,南津軽郡田舎館村大字田舎館字前川,40.62835,140.5480306,Aomori,Tohoku,Rekihaku 14C Database,2009,青森県埋蔵文化財調査報告書第475集　前川遺跡(第二分冊),Site reports mention presence of both Yayoi and Heian Paddy field so could be ok,
197,TRUE,FALSE,,,IAAA-71831,2165,31,AMS,-25.94,NA,Charred Remain,木炭,charcoal,C区基本土層C1Ⅶ層水田跡第1号水路跡,前川遺跡,Maekawaiseki,南津軽郡田舎館村大字田舎館字前川,40.62835,140.5480306,Aomori,Tohoku,Rekihaku 14C Database,2009,青森県埋蔵文化財調査報告書第475集　前川遺跡(第二分冊),Site reports mention presence of both Yayoi and Heian Paddy field so could be ok,
198,TRUE,FALSE,,,IAAA-71833,1315,30,AMS,-26.28,NA,Charred Remain,木炭,charcoal,C区BⅣ層水田跡大畦,前川遺跡,Maekawaiseki,南津軽郡田舎館村大字田舎館字前川,40.62835,140.5480306,Aomori,Tohoku,Rekihaku 14C Database,2009,青森県埋蔵文化財調査報告書第475集　前川遺跡(第二分冊),Site reports mention presence of both Yayoi and Heian Paddy field so could be ok,
199,FALSE,TRUE,TRUE,,IAAA-71859,412,28,AMS,-21.34,NA,Wood,炭化イネ,carbonized rice (Oryza sativa),SC-12　炭層,米山(2)遺跡,Yoneyama(2)Iseki,青森市大字宮田字米山,40.8354,140.8396111,Aomori,Tohoku,Rekihaku 14C Database,2009,青森県埋蔵文化財調査報告書第473集　米山(2)遺跡Ⅵ･宮田館遺跡Ⅶ,,
200,FALSE,TRUE,TRUE,,IAAA-71927,2400,30,AMS,-10.21,NA,Charred Seed,"?種実,コメ,  ?キビ",seed/nuts rice (Oryza sativa) ?Panicum miliaceum,SD312焼土070228,庄・蔵本６次,Sho・Kuramoto6ji,徳島市蔵本町２－５０－１他,34.07518056,134.5184194,Tokushima,Shikoku,Rekihaku 14C Database,2009,弥生農耕の起源と東アジア-炭素14年代測定による高精度編年体系の構築-平成16～20年文部科学省・科学研究費学術創成研究費　研究成果報告書,Is listed as  キビ in 西日本の弥生稲作開始年代 When did the Wet Rice Cultivation with the Irrigation System Begin in the Western Japan 藤尾慎一郎 FUJIO Shin’ichiro,
201,FALSE,TRUE,TRUE,,IAAA-71930,2540,30,AMS,-24.11,NA,Charred Seed,"種実,コメ,",seed/nuts rice (Oryza sativa),SD315下層、炭化物層,庄・蔵本６次,Sho・Kuramoto6ji,徳島市蔵本町２－５０－１他,34.07518056,134.5184194,Tokushima,Shikoku,Rekihaku 14C Database,2009,弥生農耕の起源と東アジア-炭素14年代測定による高精度編年体系の構築-平成16～20年文部科学省・科学研究費学術創成研究費　研究成果報告書,,
202,FALSE,TRUE,TRUE,,IAAA-72660,1348,29,AMS,-20.88,NA,Charred Seed,炭化種実(イネ胚乳),carbonized seed/nuts rice (Oryza sativa),YKS3454-5 36次調査区,恒川遺跡群,Gongaisekigun,飯田市座光寺,35.5438,137.8427111,Nagano,Chubu,Rekihaku 14C Database,2013,恒川遺跡群総括編,,
203,FALSE,TRUE,TRUE,,IAAA-72661,1231,25,AMS,-18.5,NA,Charred Seed,炭化種実(イネ胚乳),carbonized seed/nuts rice (Oryza sativa),YKS4754　32次調査区,恒川遺跡群,Gongaisekigun,飯田市座光寺,35.5438,137.8427111,Nagano,Chubu,Rekihaku 14C Database,2013,恒川遺跡群総括編,,
204,FALSE,TRUE,TRUE,,IAAA-72878,1093,37,AMS,-25.43,NA,Charred Seed,炭化種実(イネ胚乳),carbonized seed/nuts rice (Oryza sativa),SC002　1層,西部遺跡,Seibuiseki,村上市牛屋字西部,38.15261111,139.4423111,Niigata,Chubu,Rekihaku 14C Database,2009,新潟県埋蔵文化財調査報告書第194集　日本海沿岸東北自動車道関係発掘調査報告書ⅩⅩⅩ　西部遺跡Ⅳ･桜林遺跡Ⅲ,,
205,TRUE,FALSE,,,IAAA-80672,1272,29,AMS,-26.17,NA,Other Charred Remains,炭化物,carbonized material,BⅣ層水田(大畦)　BⅣ層,前川遺跡,Maekawaiseki,南津軽郡田舎館村大字田舎館字前川,40.62835,140.5480306,Aomori,Tohoku,Rekihaku 14C Database,2009,青森県埋蔵文化財調査報告書第475集　前川遺跡(第二分冊),Site reports mention presence of both Yayoi and Heian Paddy field so could be ok,
206,FALSE,TRUE,FALSE,No date,IAAA-80675,NA,NA,AMS,-26.82,NA,Seed,もみがら,rice husk (Oryza sativa),火山灰範囲12　Ⅱa層,宮田館遺跡,Miyatadateiseki,青森市大字宮田字玉水,40.8354,140.8396111,Aomori,Tohoku,Rekihaku 14C Database,2009,青森県埋蔵文化財調査報告書第473集　米山(2)遺跡Ⅵ･宮田館遺跡Ⅶ,Missing Date,Yes
207,FALSE,TRUE,TRUE,,IAAA-81401,1962,27,AMS,-21.42,NA,Charred Seed,炭化米,carbonized rice (Oryza sativa),YH2号方形周溝墓,河原口坊中遺跡,Kawaraguchibojoiseki,海老名市河原口,35.4495,139.3822806,Kanagawa,Kanto,Rekihaku 14C Database,2015,かながわ考古学財団調査報告307　河原口坊中遺跡第2次調査　第4分冊,,
208,FALSE,TRUE,TRUE,,IAAA-81495,618,26,AMS,-23.34,NA,Wood,炭化イネ,carbonized rice (Oryza sativa),SK-259　最下層,米山(2)遺跡,Yoneyama(2)Iseki,青森市大字宮田字米山,40.8354,140.8396111,Aomori,Tohoku,Rekihaku 14C Database,2009,青森県埋蔵文化財調査報告書第473集　米山(2)遺跡Ⅵ･宮田館遺跡Ⅶ,,
209,FALSE,TRUE,TRUE,,IAAA-81496,454,27,AMS,-26.11,NA,Wood,炭化イネ,carbonized rice (Oryza sativa),SK-266　3層下位,米山(2)遺跡,Yoneyama(2)Iseki,青森市大字宮田字米山,40.8354,140.8396111,Aomori,Tohoku,Rekihaku 14C Database,2009,青森県埋蔵文化財調査報告書第473集　米山(2)遺跡Ⅵ･宮田館遺跡Ⅶ,,
210,FALSE,TRUE,TRUE,,IAAA-81497,729,25,AMS,-23.93,NA,Wood,炭化イネ,carbonized rice (Oryza sativa),SK-303　2層上部,米山(2)遺跡,Yoneyama(2)Iseki,青森市大字宮田字米山,40.8354,140.8396111,Aomori,Tohoku,Rekihaku 14C Database,2009,青森県埋蔵文化財調査報告書第473集　米山(2)遺跡Ⅵ･宮田館遺跡Ⅶ,,
211,FALSE,TRUE,TRUE,,IAAA-81499,384,27,AMS,-24.53,NA,Wood,炭化イネ,carbonized rice (Oryza sativa),SF-133　火床面付近,米山(2)遺跡,Yoneyama(2)Iseki,青森市大字宮田字米山,40.8354,140.8396111,Aomori,Tohoku,Rekihaku 14C Database,2009,青森県埋蔵文化財調査報告書第473集　米山(2)遺跡Ⅵ･宮田館遺跡Ⅶ,,
212,FALSE,TRUE,TRUE,,IAAA-81500,569,25,AMS,-26.09,NA,Wood,炭化イネ,carbonized rice (Oryza sativa),SF-134　底面炭範囲,米山(2)遺跡,Yoneyama(2)Iseki,青森市大字宮田字米山,40.8354,140.8396111,Aomori,Tohoku,Rekihaku 14C Database,2009,青森県埋蔵文化財調査報告書第473集　米山(2)遺跡Ⅵ･宮田館遺跡Ⅶ,,
213,TRUE,FALSE,,,IAAA-81941,2486,30,AMS,-25.45,NA,Other Charred Remains,炭化物,carbonized material,試料名:№3　八反2区水田様落ち込み　①層,原の辻遺跡,Harunotsujiiseki,壱岐市芦辺町深江鶴亀触,33.76976111,129.7571611,Nagasaki,Kyushu,Rekihaku 14C Database,2009,原の辻遺跡調査事務所調査報告書　第40集　原の辻遺跡,,
214,FALSE,TRUE,TRUE,,IAAA-82019,1109,31,AMS,-25.07,NA,Charred Seed,炭化種実(イネ胚乳),carbonized seed/nuts rice (Oryza sativa),SK100,太田遺跡,Otaiseki,加茂市大字下条字太田,37.63723889,139.0557389,Niigata,Chubu,Rekihaku 14C Database,2011,加茂市文化財調査報告(21)　荒又遺跡･太田遺跡,,
215,FALSE,TRUE,TRUE,,IAAA-82020,1165,31,AMS,-26.58,NA,Charred Seed,炭化種実(イネ胚乳),carbonized seed/nuts rice (Oryza sativa),SK100,太田遺跡,Otaiseki,加茂市大字下条字太田,37.63723889,139.0557389,Niigata,Chubu,Rekihaku 14C Database,2011,加茂市文化財調査報告(21)　荒又遺跡･太田遺跡,,
216,FALSE,TRUE,TRUE,,IAAA-82021,1251,27,AMS,-30.33,NA,Charred Seed,炭化種実(イネ胚乳),carbonized seed/nuts rice (Oryza sativa),SK63,太田遺跡,Otaiseki,加茂市大字下条字太田,37.63723889,139.0557389,Niigata,Chubu,Rekihaku 14C Database,2011,加茂市文化財調査報告(21)　荒又遺跡･太田遺跡,,
217,FALSE,TRUE,TRUE,,IAAA-82581,317,30,AMS,-24.24,NA,Charred Seed,炭化種実(イネ胚乳),carbonized seed/nuts rice (Oryza sativa),S-54　下層黒色,坂田仲沢遺跡,Sakatanakazawaiseki,柏崎市西山町坂田字仲沢,37.44488889,138.6739194,Niigata,Chubu,Rekihaku 14C Database,2010,柏崎市埋蔵文化財調査報告書第58集　坂田遺跡群Ⅲ,,
218,FALSE,TRUE,TRUE,,IAAA-82633,316,20,AMS,-27.72,NA,Charred Seed,炭化種実(イネ),carbonized seed/nuts rice (Oryza sativa),第1号性格不明遺構　9層,西高校遺跡,Nishikokoiseki,青森市大字新城字平岡,40.82471111,140.6787389,Aomori,Tohoku,Rekihaku 14C Database,2009,青森県埋蔵文化財調査報告書第477集　西高校遺跡,,
219,FALSE,TRUE,TRUE,,IAAA-82880,1870,30,AMS,-24.24,NA,Charred Seed,炭化米,carbonized rice (Oryza sativa),B2地区　SI01　土器内,下佐野遺跡,Shimosanoiseki,高岡市佐野,36.72391111,136.9924611,Toyama,Chubu,Rekihaku 14C Database,2011,下佐野遺跡発掘調査報告書,,
220,FALSE,TRUE,TRUE,,IAAA-82881,1906,30,AMS,-28.61,NA,Charred Seed,炭化米,carbonized rice (Oryza sativa),B2地区　SI02,下佐野遺跡,Shimosanoiseki,高岡市佐野,36.72391111,136.9924611,Toyama,Chubu,Rekihaku 14C Database,2011,下佐野遺跡発掘調査報告書,,
221,FALSE,TRUE,TRUE,,IAAA-82883,1930,33,AMS,-23.99,NA,Charred Seed,炭化米,carbonized rice (Oryza sativa),B2地区　SK05　覆土,下佐野遺跡,Shimosanoiseki,高岡市佐野,36.72391111,136.9924611,Toyama,Chubu,Rekihaku 14C Database,2011,下佐野遺跡発掘調査報告書,,
222,FALSE,TRUE,TRUE,,IAAA-82884,1878,31,AMS,-25.87,NA,Charred Seed,炭化米,carbonized rice (Oryza sativa),B2地区　SK06　覆土,下佐野遺跡,Shimosanoiseki,高岡市佐野,36.72391111,136.9924611,Toyama,Chubu,Rekihaku 14C Database,2011,下佐野遺跡発掘調査報告書,,
223,FALSE,TRUE,TRUE,,IAAA-83082,2494,29,AMS,-25.64,NA,Charred Seed,炭化米,carbonized rice (Oryza sativa),SK138　埋土,力石条里遺跡群,Chikaraishijoriisekigun,千曲市上山田字薬師堂,36.46926111,138.1443806,Nagano,Chubu,Rekihaku 14C Database,2011,長野県埋蔵文化財センター発掘調査報告書96　主要地方道長野上田線力石バイパス建設事業埋蔵文化財発掘調査報告書1　千曲市内　力石条里遺跡群,,
224,FALSE,TRUE,TRUE,,IAAA-83083,2147,28,AMS,-25.18,NA,Charred Seed,炭化米,carbonized rice (Oryza sativa),SK176　最下層,力石条里遺跡群,Chikaraishijoriisekigun,千曲市上山田字薬師堂,36.46926111,138.1443806,Nagano,Chubu,Rekihaku 14C Database,2011,長野県埋蔵文化財センター発掘調査報告書96　主要地方道長野上田線力石バイパス建設事業埋蔵文化財発掘調査報告書1　千曲市内　力石条里遺跡群,,
225,FALSE,TRUE,TRUE,,IAAA-83084,2385,27,AMS,-28.04,NA,Charred Seed,炭化米,carbonized rice (Oryza sativa),SK210　埋土,力石条里遺跡群,Chikaraishijoriisekigun,千曲市上山田字薬師堂,36.46926111,138.1443806,Nagano,Chubu,Rekihaku 14C Database,2011,長野県埋蔵文化財センター発掘調査報告書96　主要地方道長野上田線力石バイパス建設事業埋蔵文化財発掘調査報告書1　千曲市内　力石条里遺跡群,,
226,FALSE,TRUE,TRUE,,IAAA-83085,2359,28,AMS,-22.28,NA,Charred Seed,炭化米,carbonized rice (Oryza sativa),SK1292　埋土,力石条里遺跡群,Chikaraishijoriisekigun,千曲市上山田字薬師堂,36.46926111,138.1443806,Nagano,Chubu,Rekihaku 14C Database,2011,長野県埋蔵文化財センター発掘調査報告書96　主要地方道長野上田線力石バイパス建設事業埋蔵文化財発掘調査報告書1　千曲市内　力石条里遺跡群,,
227,FALSE,TRUE,TRUE,,IAAA-83086,2354,29,AMS,-22.87,NA,Charred Seed,炭化米,carbonized rice (Oryza sativa),SK1293　埋土,力石条里遺跡群,Chikaraishijoriisekigun,千曲市上山田字薬師堂,36.46926111,138.1443806,Nagano,Chubu,Rekihaku 14C Database,2011,長野県埋蔵文化財センター発掘調査報告書96　主要地方道長野上田線力石バイパス建設事業埋蔵文化財発掘調査報告書1　千曲市内　力石条里遺跡群,,
228,FALSE,TRUE,TRUE,,IAAA-83089,2356,26,AMS,-25.69,NA,Charred Seed,炭化米,carbonized rice (Oryza sativa),SK1303　3層,力石条里遺跡群,Chikaraishijoriisekigun,千曲市上山田字薬師堂,36.46926111,138.1443806,Nagano,Chubu,Rekihaku 14C Database,2011,長野県埋蔵文化財センター発掘調査報告書96　主要地方道長野上田線力石バイパス建設事業埋蔵文化財発掘調査報告書1　千曲市内　力石条里遺跡群,,
229,FALSE,TRUE,TRUE,,IAAA-83090,2480,27,AMS,-25.93,NA,Charred Seed,炭化米,carbonized rice (Oryza sativa),SK1387　埋土,力石条里遺跡群,Chikaraishijoriisekigun,千曲市上山田字薬師堂,36.46926111,138.1443806,Nagano,Chubu,Rekihaku 14C Database,2011,長野県埋蔵文化財センター発掘調査報告書96　主要地方道長野上田線力石バイパス建設事業埋蔵文化財発掘調査報告書1　千曲市内　力石条里遺跡群,,
230,FALSE,TRUE,TRUE,,IAAA-83091,2481,30,AMS,-24.71,NA,Charred Seed,炭化米,carbonized rice (Oryza sativa),SK1393　埋土,力石条里遺跡群,Chikaraishijoriisekigun,千曲市上山田字薬師堂,36.46926111,138.1443806,Nagano,Chubu,Rekihaku 14C Database,2011,長野県埋蔵文化財センター発掘調査報告書96　主要地方道長野上田線力石バイパス建設事業埋蔵文化財発掘調査報告書1　千曲市内　力石条里遺跡群,,
231,FALSE,TRUE,FALSE,See Leipe et al 2020 / No Image of the dated remain,IAAA-83092,2889,29,AMS,-24.22,NA,Charred Seed,炭化米,carbonized rice (Oryza sativa),SK1405　3層,力石条里遺跡群,Chikaraishijoriisekigun,千曲市上山田字薬師堂,36.46926111,138.1443806,Nagano,Chubu,Rekihaku 14C Database,2011,長野県埋蔵文化財センター発掘調査報告書96　主要地方道長野上田線力石バイパス建設事業埋蔵文化財発掘調査報告書1　千曲市内　力石条里遺跡群,,
232,FALSE,TRUE,TRUE,,IAAA-83141,1217,32,AMS,-24.88,NA,Charred Seed,炭化米,carbonized rice (Oryza sativa),西側正倉城　7号礎石建物跡西側,天良七堂遺跡,Tenrashichidoiseki,太田市新田小金井町,36.31816111,139.3263111,Gunma,Kanto,Rekihaku 14C Database,2010,天良七堂遺跡２,,
233,FALSE,TRUE,TRUE,,IAAA-83142,1226,32,AMS,-27.73,NA,Charred Seed,炭化米,carbonized rice (Oryza sativa),西側正倉状　8号礎石建物跡雨落ち溝,天良七堂遺跡,Tenrashichidoiseki,太田市新田小金井町,36.31816111,139.3263111,Gunma,Kanto,Rekihaku 14C Database,2010,天良七堂遺跡２,,
234,FALSE,TRUE,TRUE,,IAAA-83143,1118,34,AMS,-30.52,NA,Charred Seed,炭化米,carbonized rice (Oryza sativa),1号礎石建物跡東側,上野国新田郡庁跡,Kozukenokuninittagunchoato,太田市天良町,36.33218056,139.3344611,Gunma,Kanto,Rekihaku 14C Database,2010,天良七堂遺跡２,,
235,FALSE,TRUE,TRUE,,IAAA-83266,2098,36,AMS,-22,NA,Charred Seed,炭化米,carbonized rice (Oryza sativa),試料名:1　,早水町遺跡,Hayamizumachiiseki,八女市津江,33.21188889,130.57855,Fukuoka,Kyushu,Rekihaku 14C Database,2013,経営体育成基盤整備事業(八女東部第2地区)圃場整備事業地内　埋蔵文化財発掘調査報告書　八女市文化財調査報告書　第96集　,,
236,FALSE,TRUE,TRUE,,IAAA-83267,2086,36,AMS,-22.92,NA,Charred Seed,炭化米,carbonized rice (Oryza sativa),試料名:2　,早水町遺跡,Hayamizumachiiseki,八女市津江,33.21188889,130.57855,Fukuoka,Kyushu,Rekihaku 14C Database,2013,経営体育成基盤整備事業(八女東部第2地区)圃場整備事業地内　埋蔵文化財発掘調査報告書　八女市文化財調査報告書　第96集　,,
237,FALSE,TRUE,TRUE,,IAAA-90390,371,28,AMS,-28.23,NA,Wood,植物遺体(イネ),plant plant remains rice (Oryza sativa),SD003,米田大覚遺跡,Yonedadaikakuiseki,富山市米田町1丁目,36.73846111,137.2412889,Toyama,Chubu,Rekihaku 14C Database,2009,富山市埋蔵文化財調査報告38　米田大覚遺跡発掘調査報告書,,
238,FALSE,TRUE,TRUE,,IAAA-92250,473,16,AMS,-26.63,NA,Charred Seed,炭化米,carbonized rice (Oryza sativa),A区　第84号土坑　覆土,乳井茶臼館,Nyoichausudate,弘前市大字乳井字岩ノ上,40.54726111,140.5616306,Aomori,Tohoku,Rekihaku 14C Database,2011,青森県埋蔵文化財調査報告書第507集　乳井茶臼館,,
239,FALSE,TRUE,TRUE,,IAAA-92741,324,26,AMS,-25.65,NA,Charred Seed,イネ炭化胚乳,carbonized rice (Oryza sativa),整地面(生活面)直上　炭化物層　1号焼土遺構,堀越城跡,Horikoshijoato,弘前市大字堀越字柏田,40.57088056,140.5199611,Aomori,Tohoku,Rekihaku 14C Database,2010,史跡津軽氏城跡　堀越城跡発掘調査報告書11,,
240,FALSE,TRUE,TRUE,,IAAA-93077,1890,30,AMS,-25.18,NA,Charred Seed,炭化イネ胚乳,carbonized rice (Oryza sativa),SX83　CW6層,釜蓋遺跡,Kamabutaiseki,上越市大和5丁目,37.07649907,138.2455463,Niigata,Chubu,Rekihaku 14C Database,2013,史跡斐太遺跡群　釜蓋遺跡確認調査概要報告書1,,
241,FALSE,TRUE,TRUE,,IAAA-93254,329,24,AMS,-26.39,NA,Charred Seed,炭化米,carbonized rice (Oryza sativa),竪穴遺構ST8　遺構基底直上炭化物集中部,松本遺跡,Matsumotoiseki,弘前市大字横町字豊田,40.62243056,140.42735,Aomori,Tohoku,Rekihaku 14C Database,2011,松本遺跡発掘調査報告書,,
242,FALSE,TRUE,TRUE,,JAT-9673,377,39,AMS,NA,-26.08,Seed,イネの果実類,fruit /achenes etc rice (Oryza sativa),Ⅳb層,江門遺跡,Emoniseki,土岐市肥田町肥田字田中,35.34593056,137.2185389,Gifu,Chubu,Rekihaku 14C Database,2014,平成24年度土岐市市内遺跡発掘調査報告書,,
243,FALSE,TRUE,TRUE,,JAT-9674,245,41,AMS,NA,-28.68,Seed,イネの果実類,fruit /achenes etc rice (Oryza sativa),Ⅳb層,江門遺跡,Emoniseki,土岐市肥田町肥田字田中,35.34593056,137.2185389,Gifu,Chubu,Rekihaku 14C Database,2014,平成24年度土岐市市内遺跡発掘調査報告書,,
244,FALSE,TRUE,TRUE,,JAT-9675,666,37,AMS,NA,-27.24,Seed,イネの果実類,fruit /achenes etc rice (Oryza sativa),Ⅴb層,江門遺跡,Emoniseki,土岐市肥田町肥田字田中,35.34593056,137.2185389,Gifu,Chubu,Rekihaku 14C Database,2014,平成24年度土岐市市内遺跡発掘調査報告書,,
245,FALSE,TRUE,TRUE,,JAT-9676,639,41,AMS,NA,-26.9,Seed,イネの果実類,fruit /achenes etc rice (Oryza sativa),Ⅴb層,江門遺跡,Emoniseki,土岐市肥田町肥田字田中,35.34593056,137.2185389,Gifu,Chubu,Rekihaku 14C Database,2014,平成24年度土岐市市内遺跡発掘調査報告書,,
246,FALSE,TRUE,TRUE,,KSU-2220,1000,15,Beta Counting,NA,NA,Charred Seed,炭化米,carbonized rice (Oryza sativa),南側八角形建築址の掘形埋土を切る柱穴より出土,鞠智城跡,Kikuchijoato,鹿本郡菊花町,33.02808056,130.7596694,Kumamoto,Kyushu,Rekihaku 14C Database,1992,熊本県文化財調査報告　第124集　鞠智城跡　-第13次調査報告-,Updated coordinate and changed site name,
247,FALSE,TRUE,TRUE,,KSU-2221,1450,15,Beta Counting,NA,NA,Charred Seed,炭化米,carbonized rice (Oryza sativa),17調査区の北東隅から検出された炭化米層の一部,鞠智城跡,Kikuchijoato,鹿本郡菊花町,33.02808056,130.7596694,Kumamoto,Kyushu,Rekihaku 14C Database,1992,熊本県文化財調査報告　第124集　鞠智城跡　-第13次調査報告-,Updated coordinate and changed site name,
248,FALSE,TRUE,TRUE,,KSU-511,2210,30,Beta Counting,NA,NA,Charred Seed,炭化米,carbonized rice (Oryza sativa),第Ⅲ次調査近江工業内第5トレンチ2号溝底部出土,方保田東原遺跡,Katodahigashibaruiseki,山鹿市方保田字東原,33.00266944,130.7184389,Kumamoto,Kyushu,Rekihaku 14C Database,1982,山鹿市立博物館調査報告書　第2集　方保田東原遺跡　,,
249,FALSE,TRUE,TRUE,,KURI-0053,2370,50,Beta Counting,NA,NA,Charred Seed,炭化米,carbonized rice (Oryza sativa),NA,宇木汲田貝塚,Ukikundenkaizuka,唐津市宇木汲田,33.411,130.0087,Saga,Kyushu,Rekihaku 14C Database,1982,唐津市文化財調査報告　第5集　菜畑遺跡,Updated site coordinate,
250,FALSE,TRUE,TRUE,,KURI-0054,2240,50,Beta Counting,NA,NA,Charred Seed,炭化米,carbonized rice (Oryza sativa),NA,宇木汲田貝塚,Ukikundenkaizuka,唐津市宇木汲田,33.411,130.0087,Saga,Kyushu,Rekihaku 14C Database,1982,唐津市文化財調査報告　第5集　菜畑遺跡,Updated site coordinate,
251,FALSE,TRUE,TRUE,,MTC-03614,2445,30,AMS,-28.1,NA,Charred Seed,"種実,コメ,焼米",seed/nuts rice (Oryza sativa) rice (Oryza sativa),"20次,SK215土坑,2層,707",唐古=鍵遺跡,Karako・Kagiiseki,磯城郡田原本町大字唐子および鍵,34.573,135.7973194,Nara,Kansai,Rekihaku 14C Database,2009,弥生農耕の起源と東アジア-炭素14年代測定による高精度編年体系の構築-平成16～20年文部科学省・科学研究費学術創成研究費　研究成果報告書,,
252,FALSE,TRUE,TRUE,,MTC-04907,2315,35,AMS,-33.7,NA,Charred Seed,"種実,コメ,",seed/nuts rice (Oryza sativa),東区5号墓内,堀部第1遺跡,Horibedai1iseki,八束郡鹿島町大字南講武字堀部752-1他,35.51956944,133.0290389,Shimane,Chugoku,Rekihaku 14C Database,2009,弥生農耕の起源と東アジア-炭素14年代測定による高精度編年体系の構築-平成16～20年文部科学省・科学研究費学術創成研究費　研究成果報告書,,
253,TRUE,FALSE,,,MTC-05946,2595,35,AMS,-25.4,NA,Organic Residue from Pottery,"土器付着物,煤,口縁外・胴外",from pottery soot rim outside edge residue outside,水田,牟礼遺跡,Mureiseki,茨木市,34.8164,135.56885,Osaka,Kansai,Rekihaku 14C Database,2009,弥生農耕の起源と東アジア-炭素14年代測定による高精度編年体系の構築-平成16～20年文部科学省・科学研究費学術創成研究費　研究成果報告書,,
254,TRUE,FALSE,,,MTC-05947,2495,35,AMS,-26.4,NA,Organic Residue from Pottery,"土器付着物,焦,底部内面",from pottery interior residue bottom,水田,牟礼遺跡,Mureiseki,茨木市,34.8164,135.56885,Osaka,Kansai,Rekihaku 14C Database,2009,弥生農耕の起源と東アジア-炭素14年代測定による高精度編年体系の構築-平成16～20年文部科学省・科学研究費学術創成研究費　研究成果報告書,,
255,TRUE,FALSE,,,MTC-05948,2555,35,AMS,-25,NA,Organic Residue from Pottery,"土器付着物,煤,胴外",from pottery soot residue outside,水田,牟礼遺跡,Mureiseki,茨木市,34.8164,135.56885,Osaka,Kansai,Rekihaku 14C Database,2009,弥生農耕の起源と東アジア-炭素14年代測定による高精度編年体系の構築-平成16～20年文部科学省・科学研究費学術創成研究費　研究成果報告書,,
256,FALSE,TRUE,TRUE,,MTC-06969,1915,30,AMS,-26.1,NA,Charred Seed,"種実,コメ,",seed/nuts rice (Oryza sativa),"11次,3B住居跡,4区,覆土下",赤坂遺跡,Akasakaiseki,三浦市三戸他,35.14241111,139.6207694,Kanagawa,Kanto,Rekihaku 14C Database,2009,弥生農耕の起源と東アジア-炭素14年代測定による高精度編年体系の構築-平成16～20年文部科学省・科学研究費学術創成研究費　研究成果報告書,,
257,FALSE,TRUE,TRUE,,MTC-06970,1870,30,AMS,-26.6,NA,Charred Seed,"種実,コメ,",seed/nuts rice (Oryza sativa),"11次,3B住居跡,4区,覆土下",赤坂遺跡,Akasakaiseki,三浦市三戸他,35.14241111,139.6207694,Kanagawa,Kanto,Rekihaku 14C Database,2009,弥生農耕の起源と東アジア-炭素14年代測定による高精度編年体系の構築-平成16～20年文部科学省・科学研究費学術創成研究費　研究成果報告書,,
258,FALSE,TRUE,TRUE,,MTC-06971,1875,30,AMS,-26.9,NA,Charred Seed,"種実,コメ,",seed/nuts rice (Oryza sativa),"11次,3B住居跡,4区,覆土下",赤坂遺跡,Akasakaiseki,三浦市三戸他,35.14241111,139.6207694,Kanagawa,Kanto,Rekihaku 14C Database,2009,弥生農耕の起源と東アジア-炭素14年代測定による高精度編年体系の構築-平成16～20年文部科学省・科学研究費学術創成研究費　研究成果報告書,,
259,FALSE,TRUE,TRUE,,MTC-06972,2050,35,AMS,-27,NA,Charred Seed,"種実,コメ,焼米",seed/nuts rice (Oryza sativa) rice (Oryza sativa),"22次,SK102土坑,2層,№355",唐古=鍵遺跡,Karako・Kagiiseki,磯城郡田原本町大字唐子および鍵,34.573,135.7973194,Nara,Kansai,Rekihaku 14C Database,2009,弥生農耕の起源と東アジア-炭素14年代測定による高精度編年体系の構築-平成16～20年文部科学省・科学研究費学術創成研究費　研究成果報告書,,
260,FALSE,TRUE,TRUE,,MTC-06973,2070,35,AMS,-28.1,NA,Charred Seed,"種実,コメ,焼米",seed/nuts rice (Oryza sativa) rice (Oryza sativa),"22次,SK102土坑,2層,№355",唐古=鍵遺跡,Karako・Kagiiseki,磯城郡田原本町大字唐子および鍵,34.573,135.7973194,Nara,Kansai,Rekihaku 14C Database,2009,弥生農耕の起源と東アジア-炭素14年代測定による高精度編年体系の構築-平成16～20年文部科学省・科学研究費学術創成研究費　研究成果報告書,,
261,FALSE,TRUE,TRUE,,MTC-06974,2065,30,AMS,-27.2,NA,Charred Seed,"種実,コメ,焼米",seed/nuts rice (Oryza sativa) rice (Oryza sativa),"22次,SK102土坑,2層,№355",唐古=鍵遺跡,Karako・Kagiiseki,磯城郡田原本町大字唐子および鍵,34.573,135.7973194,Nara,Kansai,Rekihaku 14C Database,2009,弥生農耕の起源と東アジア-炭素14年代測定による高精度編年体系の構築-平成16～20年文部科学省・科学研究費学術創成研究費　研究成果報告書,,
262,FALSE,TRUE,TRUE,,MTC-06975,2070,30,AMS,-26.2,NA,Charred Seed,"種実,コメ,焼米",seed/nuts rice (Oryza sativa) rice (Oryza sativa),"22次,SK102土坑,2層,№355",唐古=鍵遺跡,Karako・Kagiiseki,磯城郡田原本町大字唐子および鍵,34.573,135.7973194,Nara,Kansai,Rekihaku 14C Database,2009,弥生農耕の起源と東アジア-炭素14年代測定による高精度編年体系の構築-平成16～20年文部科学省・科学研究費学術創成研究費　研究成果報告書,,
263,FALSE,TRUE,TRUE,,MTC-06976,2080,30,AMS,-27.5,NA,Charred Seed,"種実,コメ,焼米",seed/nuts rice (Oryza sativa) rice (Oryza sativa),"22次,SK102土坑,2層,№355",唐古=鍵遺跡,Karako・Kagiiseki,磯城郡田原本町大字唐子および鍵,34.573,135.7973194,Nara,Kansai,Rekihaku 14C Database,2009,弥生農耕の起源と東アジア-炭素14年代測定による高精度編年体系の構築-平成16～20年文部科学省・科学研究費学術創成研究費　研究成果報告書,,
264,FALSE,TRUE,TRUE,,MTC-06977,2065,30,AMS,-26.6,NA,Charred Seed,"種実,コメ,焼米",seed/nuts rice (Oryza sativa) rice (Oryza sativa),"22次,SK102土坑,2層,№355",唐古=鍵遺跡,Karako・Kagiiseki,磯城郡田原本町大字唐子および鍵,34.573,135.7973194,Nara,Kansai,Rekihaku 14C Database,2009,弥生農耕の起源と東アジア-炭素14年代測定による高精度編年体系の構築-平成16～20年文部科学省・科学研究費学術創成研究費　研究成果報告書,,
265,FALSE,TRUE,TRUE,,MTC-06978,2025,30,AMS,-23.3,NA,Charred Seed,"種実,コメ,焼米",seed/nuts rice (Oryza sativa) rice (Oryza sativa),"22次,SK102土坑,2層,№355",唐古=鍵遺跡,Karako・Kagiiseki,磯城郡田原本町大字唐子および鍵,34.573,135.7973194,Nara,Kansai,Rekihaku 14C Database,2009,弥生農耕の起源と東アジア-炭素14年代測定による高精度編年体系の構築-平成16～20年文部科学省・科学研究費学術創成研究費　研究成果報告書,,
266,FALSE,TRUE,TRUE,,MTC-06979,2090,30,AMS,-27.3,NA,Charred Seed,"種実,コメ,焼米",seed/nuts rice (Oryza sativa) rice (Oryza sativa),"22次,SK102土坑,2層,№355",唐古=鍵遺跡,Karako・Kagiiseki,磯城郡田原本町大字唐子および鍵,34.573,135.7973194,Nara,Kansai,Rekihaku 14C Database,2009,弥生農耕の起源と東アジア-炭素14年代測定による高精度編年体系の構築-平成16～20年文部科学省・科学研究費学術創成研究費　研究成果報告書,,
267,FALSE,TRUE,TRUE,,MTC-08498,240,35,AMS,-25.7,NA,Charred Seed,"種実,コメ,",seed/nuts rice (Oryza sativa),NA,荒海貝塚,Aramikaizuka,成田市荒海,35.83426944,140.3242194,Chiba,Kanto,Rekihaku 14C Database,2009,弥生農耕の起源と東アジア-炭素14年代測定による高精度編年体系の構築-平成16～20年文部科学省・科学研究費学術創成研究費　研究成果報告書,,
268,FALSE,TRUE,TRUE,,MTC-08502,2415,40,AMS,-24.5,NA,Charred Seed,"種実,コメ,",seed/nuts rice (Oryza sativa),不明　貯蔵穴,横隈山遺跡,Yokokumayamaiseki,小郡市三国が丘７丁目,33.43281111,130.5669111,Fukuoka,Kyushu,Rekihaku 14C Database,2009,弥生農耕の起源と東アジア-炭素14年代測定による高精度編年体系の構築-平成16～20年文部科学省・科学研究費学術創成研究費　研究成果報告書,,
269,FALSE,TRUE,TRUE,,MTC-08503,2450,90,AMS,-26.8,NA,Charred Seed,"種実,コメ,",seed/nuts rice (Oryza sativa),不明　貯蔵穴,横隈山遺跡,Yokokumayamaiseki,小郡市三国が丘７丁目,33.43281111,130.5669111,Fukuoka,Kyushu,Rekihaku 14C Database,2009,弥生農耕の起源と東アジア-炭素14年代測定による高精度編年体系の構築-平成16～20年文部科学省・科学研究費学術創成研究費　研究成果報告書,,
270,FALSE,TRUE,TRUE,,MTC-08504,2425,40,AMS,-27.7,NA,Charred Seed,"種実,コメ,",seed/nuts rice (Oryza sativa),不明　貯蔵穴,横隈山遺跡,Yokokumayamaiseki,小郡市三国が丘７丁目,33.43281111,130.5669111,Fukuoka,Kyushu,Rekihaku 14C Database,2009,弥生農耕の起源と東アジア-炭素14年代測定による高精度編年体系の構築-平成16～20年文部科学省・科学研究費学術創成研究費　研究成果報告書,,
271,FALSE,TRUE,TRUE,,MTC-08959,2515,50,AMS,-23.8,NA,Charred Seed,"種実,コメ,",seed/nuts rice (Oryza sativa),岡崎先生調査資料（夜臼～板付Ⅰの貯蔵穴があるところか？）,板付遺跡34次（板付会館）,Itazukeiseki34ji（Itazukekaikan）,福岡市博多区板付2丁目13-13,33.56601944,130.4540694,Fukuoka,Kyushu,Rekihaku 14C Database,2009,弥生農耕の起源と東アジア-炭素14年代測定による高精度編年体系の構築-平成16～20年文部科学省・科学研究費学術創成研究費　研究成果報告書,,
272,FALSE,TRUE,TRUE,,MTC-10018,230,30,AMS,NA,NA,Charred Seed,"種実,コメ,",seed/nuts rice (Oryza sativa),NA,羽黒館グランド遺跡,Hagurokangurandoiseki,南津軽郡大鰐町,40.51788056,140.5665306,Aomori,Tohoku,Rekihaku 14C Database,2009,弥生農耕の起源と東アジア-炭素14年代測定による高精度編年体系の構築-平成16～20年文部科学省・科学研究費学術創成研究費　研究成果報告書,,
273,FALSE,TRUE,TRUE,,MTC-10670,2335,30,AMS,-29.5,NA,Charred Seed,"種実,コメ,",seed/nuts rice (Oryza sativa),"20次SK215土坑2,No.2",唐古=鍵遺跡,Karako・Kagiiseki,磯城郡田原本町大字唐子および鍵,34.573,135.7973194,Nara,Kansai,Rekihaku 14C Database,2009,弥生農耕の起源と東アジア-炭素14年代測定による高精度編年体系の構築-平成16～20年文部科学省・科学研究費学術創成研究費　研究成果報告書,,
274,FALSE,TRUE,TRUE,,MTC-10672,2320,60,AMS,-28.1,NA,Charred Seed,"種実,コメ,",seed/nuts rice (Oryza sativa),"20次SK215土坑2,No.2",唐古=鍵遺跡,Karako・Kagiiseki,磯城郡田原本町大字唐子および鍵,34.573,135.7973194,Nara,Kansai,Rekihaku 14C Database,2009,弥生農耕の起源と東アジア-炭素14年代測定による高精度編年体系の構築-平成16～20年文部科学省・科学研究費学術創成研究費　研究成果報告書,,
275,FALSE,TRUE,TRUE,,MTC-10944,1820,40,AMS,-28.6,NA,Charred Seed,"種実,コメ,",seed/nuts rice (Oryza sativa),SB27住居跡,力石条里遺跡群,Chikaraishijoriisekigun,千曲市上山田字薬師堂９７他,36.46926111,138.1443806,Nagano,Chubu,Rekihaku 14C Database,2009,弥生農耕の起源と東アジア-炭素14年代測定による高精度編年体系の構築-平成16～20年文部科学省・科学研究費学術創成研究費　研究成果報告書,,
276,FALSE,TRUE,FALSE,,MTC-10944,1820,40,AMS,-28.6,NA,Charred Seed,炭化米,carbonized rice (Oryza sativa),6区　SB27,力石条里遺跡群,Chikaraishijoriisekigun,千曲市上山田字薬師堂,36.46926111,138.1443806,Nagano,Chubu,Rekihaku 14C Database,2011,長野県埋蔵文化財センター発掘調査報告書96　主要地方道長野上田線力石バイパス建設事業埋蔵文化財発掘調査報告書1　千曲市内　力石条里遺跡群,Duplicate of 275,
277,FALSE,TRUE,TRUE,,MTC-10948,2300,35,AMS,-28.7,NA,Charred Seed,"種実,コメ,",seed/nuts rice (Oryza sativa),SK115土坑,力石条里遺跡群,Chikaraishijoriisekigun,千曲市上山田字薬師堂９７他,36.46926111,138.1443806,Nagano,Chubu,Rekihaku 14C Database,2009,弥生農耕の起源と東アジア-炭素14年代測定による高精度編年体系の構築-平成16～20年文部科学省・科学研究費学術創成研究費　研究成果報告書,,
278,FALSE,TRUE,FALSE,Duplicate of 277,MTC-10948,2300,35,AMS,-28.7,NA,Charred Seed,炭化米,carbonized rice (Oryza sativa),10区　SK115　墓壙,力石条里遺跡群,Chikaraishijoriisekigun,千曲市上山田字薬師堂,36.46926111,138.1443806,Nagano,Chubu,Rekihaku 14C Database,2011,長野県埋蔵文化財センター発掘調査報告書96　主要地方道長野上田線力石バイパス建設事業埋蔵文化財発掘調査報告書1　千曲市内　力石条里遺跡群,,
279,FALSE,TRUE,TRUE,,MTC-10949,2320,40,AMS,-21.1,NA,Charred Seed,"種実,コメ,",seed/nuts rice (Oryza sativa),SK115土坑,力石条里遺跡群,Chikaraishijoriisekigun,千曲市上山田字薬師堂９７他,36.46926111,138.1443806,Nagano,Chubu,Rekihaku 14C Database,2009,弥生農耕の起源と東アジア-炭素14年代測定による高精度編年体系の構築-平成16～20年文部科学省・科学研究費学術創成研究費　研究成果報告書,,
280,FALSE,TRUE,FALSE,Duplicate of 279,MTC-10949,2320,40,AMS,-21.1,NA,Charred Seed,炭化米,carbonized rice (Oryza sativa),10区　SK115　墓壙,力石条里遺跡群,Chikaraishijoriisekigun,千曲市上山田字薬師堂,36.46926111,138.1443806,Nagano,Chubu,Rekihaku 14C Database,2011,長野県埋蔵文化財センター発掘調査報告書96　主要地方道長野上田線力石バイパス建設事業埋蔵文化財発掘調査報告書1　千曲市内　力石条里遺跡群,,
281,FALSE,TRUE,TRUE,,MTC-10974,1820,35,AMS,-30,NA,Charred Seed,"種実,コメ,",seed/nuts rice (Oryza sativa),"Y13号住居跡,旧16住居跡,ピット9,土壌サンプル1層",新井三丁目遺跡,Araisanchomeiseki,中野区新井三丁目,35.71583056,139.6619611,Tokyo,Kanto,Rekihaku 14C Database,2009,弥生農耕の起源と東アジア-炭素14年代測定による高精度編年体系の構築-平成16～20年文部科学省・科学研究費学術創成研究費　研究成果報告書,,
282,FALSE,TRUE,TRUE,,MTC-10975,1775,30,AMS,-32.7,NA,Charred Seed,"種実,コメ,",seed/nuts rice (Oryza sativa),"Y43号住居跡,旧31住居跡,炉No1,燃焼面,覆土",新井三丁目遺跡,Araisanchomeiseki,中野区新井三丁目,35.71583056,139.6619611,Tokyo,Kanto,Rekihaku 14C Database,2009,弥生農耕の起源と東アジア-炭素14年代測定による高精度編年体系の構築-平成16～20年文部科学省・科学研究費学術創成研究費　研究成果報告書,,
283,FALSE,TRUE,TRUE,,MTC-10978,1885,45,AMS,-21.3,NA,Charred Seed,"種実,コメ,",seed/nuts rice (Oryza sativa),"Y147号住居跡,旧59住居跡",新井三丁目遺跡,Araisanchomeiseki,中野区新井三丁目,35.71583056,139.6619611,Tokyo,Kanto,Rekihaku 14C Database,2009,弥生農耕の起源と東アジア-炭素14年代測定による高精度編年体系の構築-平成16～20年文部科学省・科学研究費学術創成研究費　研究成果報告書,,
284,FALSE,TRUE,TRUE,,MTC-10979,1915,45,AMS,-22,NA,Charred Seed,"種実,コメ,",seed/nuts rice (Oryza sativa),"Y126号住居跡,旧65住居跡,ピット5(柱穴),上層",新井三丁目遺跡,Araisanchomeiseki,中野区新井三丁目,35.71583056,139.6619611,Tokyo,Kanto,Rekihaku 14C Database,2009,弥生農耕の起源と東アジア-炭素14年代測定による高精度編年体系の構築-平成16～20年文部科学省・科学研究費学術創成研究費　研究成果報告書,,
285,FALSE,TRUE,TRUE,,MTC-10980,1830,40,AMS,-25.9,NA,Charred Seed,"種実,コメ,",seed/nuts rice (Oryza sativa),"Y32号住居跡,旧65住居跡,炉址内",新井三丁目遺跡,Araisanchomeiseki,中野区新井三丁目,35.71583056,139.6619611,Tokyo,Kanto,Rekihaku 14C Database,2009,弥生農耕の起源と東アジア-炭素14年代測定による高精度編年体系の構築-平成16～20年文部科学省・科学研究費学術創成研究費　研究成果報告書,,
286,FALSE,TRUE,TRUE,,MTC-10981,1880,35,AMS,-28.2,NA,Charred Seed,"種実,コメ,",seed/nuts rice (Oryza sativa),"Y34号住居跡,旧68住居跡,炉址セクション",新井三丁目遺跡,Araisanchomeiseki,中野区新井三丁目,35.71583056,139.6619611,Tokyo,Kanto,Rekihaku 14C Database,2009,弥生農耕の起源と東アジア-炭素14年代測定による高精度編年体系の構築-平成16～20年文部科学省・科学研究費学術創成研究費　研究成果報告書,,
287,FALSE,TRUE,TRUE,,MTC-10982,1885,40,AMS,-23.1,NA,Charred Seed,"種実,コメ,",seed/nuts rice (Oryza sativa),"Y124号住居跡,旧16住居跡,炉址覆土",新井三丁目遺跡,Araisanchomeiseki,中野区新井三丁目,35.71583056,139.6619611,Tokyo,Kanto,Rekihaku 14C Database,2009,弥生農耕の起源と東アジア-炭素14年代測定による高精度編年体系の構築-平成16～20年文部科学省・科学研究費学術創成研究費　研究成果報告書,,
288,FALSE,TRUE,TRUE,,MTC-10983,1920,35,AMS,-26.8,NA,Charred Seed,"種実,コメ,",seed/nuts rice (Oryza sativa),"Y121号住居跡,旧119住居跡,ピット1,2",新井三丁目遺跡,Araisanchomeiseki,中野区新井三丁目,35.71583056,139.6619611,Tokyo,Kanto,Rekihaku 14C Database,2009,弥生農耕の起源と東アジア-炭素14年代測定による高精度編年体系の構築-平成16～20年文部科学省・科学研究費学術創成研究費　研究成果報告書,,
289,FALSE,TRUE,TRUE,,MTC-10984,1880,35,AMS,-31.7,NA,Charred Seed,"種実,コメ,",seed/nuts rice (Oryza sativa),"Y57号住居跡,旧120住居跡,ピット8",新井三丁目遺跡,Araisanchomeiseki,中野区新井三丁目,35.71583056,139.6619611,Tokyo,Kanto,Rekihaku 14C Database,2009,弥生農耕の起源と東アジア-炭素14年代測定による高精度編年体系の構築-平成16～20年文部科学省・科学研究費学術創成研究費　研究成果報告書,,
290,FALSE,TRUE,TRUE,,MTC-10985,1900,40,AMS,-22.8,NA,Charred Seed,"種実,コメ,",seed/nuts rice (Oryza sativa),"Y62号住居跡,旧149住居跡,炉址",新井三丁目遺跡,Araisanchomeiseki,中野区新井三丁目,35.71583056,139.6619611,Tokyo,Kanto,Rekihaku 14C Database,2009,弥生農耕の起源と東アジア-炭素14年代測定による高精度編年体系の構築-平成16～20年文部科学省・科学研究費学術創成研究費　研究成果報告書,,
291,FALSE,TRUE,TRUE,,MTC-10987,70,60,AMS,-24.7,NA,Charred Seed,"種実,コメ,",seed/nuts rice (Oryza sativa),"1号方形周溝,主体部",新井三丁目遺跡,Araisanchomeiseki,中野区新井三丁目,35.71583056,139.6619611,Tokyo,Kanto,Rekihaku 14C Database,2009,弥生農耕の起源と東アジア-炭素14年代測定による高精度編年体系の構築-平成16～20年文部科学省・科学研究費学術創成研究費　研究成果報告書,,
292,FALSE,TRUE,TRUE,,MTC-11002,440,60,AMS,-22.1,NA,Charred Seed,"種実,コメ,",seed/nuts rice (Oryza sativa),NA,野尻遺跡,Nojiriiseki,銚子市,35.73471111,140.8267694,Chiba,Kanto,Rekihaku 14C Database,2009,弥生農耕の起源と東アジア-炭素14年代測定による高精度編年体系の構築-平成16～20年文部科学省・科学研究費学術創成研究費　研究成果報告書,,
293,FALSE,TRUE,TRUE,,MTC-11507,2530,50,AMS,-16.4,NA,Charred Seed,"種実,コメ,",seed/nuts rice (Oryza sativa),土坑,中屋敷遺跡,Nakayashikiiseki,足柄上郡大井町山田643,35.3347463,139.1673167,Kanagawa,Kanto,Rekihaku 14C Database,2009,弥生農耕の起源と東アジア-炭素14年代測定による高精度編年体系の構築-平成16～20年文部科学省・科学研究費学術創成研究費　研究成果報告書,,
294,FALSE,TRUE,TRUE,,MTC-11508,2400,60,AMS,-26.4,NA,Charred Seed,"種実,コメ,",seed/nuts rice (Oryza sativa),土坑,中屋敷遺跡,Nakayashikiiseki,足柄上郡大井町山田643,35.3347463,139.1673167,Kanagawa,Kanto,Rekihaku 14C Database,2009,弥生農耕の起源と東アジア-炭素14年代測定による高精度編年体系の構築-平成16～20年文部科学省・科学研究費学術創成研究費　研究成果報告書,,
295,FALSE,TRUE,TRUE,,MTC-12210,1985,35,AMS,-25.3,NA,Charred Seed,"種実,コメ,",seed/nuts rice (Oryza sativa),"31住居跡,焼失住居,多量遺存の焼米（中国自動車道5（岡山県8,1975年-392頁）",領家遺跡,Ryokeiseki,津山市領家,35.06276111,133.9116389,Okayama,Chugoku,Rekihaku 14C Database,2009,弥生農耕の起源と東アジア-炭素14年代測定による高精度編年体系の構築-平成16～20年文部科学省・科学研究費学術創成研究費　研究成果報告書,,
296,FALSE,TRUE,TRUE,,N-4229,2620,60,Beta Counting,NA,NA,Charred Seed,炭化米,carbonized rice (Oryza sativa),"C-I-④区　第8層,夜臼単純層期",菜畑遺跡,Nabatakeiseki,唐津市菜畑字松山寺山,33.45073056,129.9545889,Saga,Kyushu,Rekihaku 14C Database,1982,唐津市文化財調査報告　第5集　菜畑遺跡,,
297,FALSE,TRUE,TRUE,,N-4230,2680,80,Beta Counting,NA,NA,Charred Seed,炭化米,carbonized rice (Oryza sativa),"C-I-④区　第10〜11層,山ノ寺式",菜畑遺跡,Nabatakeiseki,唐津市菜畑字松山寺山,33.45073056,129.9545889,Saga,Kyushu,Rekihaku 14C Database,1982,唐津市文化財調査報告　第5集　菜畑遺跡,,
298,FALSE,TRUE,TRUE,,N-4449,400,60,Beta Counting,NA,NA,Seed,炭化米,carbonized rice (Oryza sativa),SI003,妻の神Ⅰ遺跡,Sainokami1iseki,鹿角市花輪字妻の神,40.20845,140.8047806,Akita,Tohoku,Rekihaku 14C Database,1984,秋田県文化財調査報告書第107集　東北縦貫自動車道発掘調査報告書Ⅷ,,
299,FALSE,TRUE,FALSE,Too Old? Needs Checking,N-4598,4030,65,Beta Counting,NA,NA,Charred Seed,炭化米,carbonized rice (Oryza sativa),H-I-4　12層,菜畑遺跡,Nabatakeiseki,唐津市菜畑字松山寺山,33.45073056,129.9545889,Saga,Kyushu,Rekihaku 14C Database,1982,唐津市文化財調査報告　第5集　菜畑遺跡,,
300,FALSE,TRUE,FALSE,Needs to be checked but looks too old,N-4599,2960,90,Beta Counting,NA,NA,Charred Seed,炭化米,carbonized rice (Oryza sativa),H-I-4　8上層,菜畑遺跡,Nabatakeiseki,唐津市菜畑字松山寺山,33.45073056,129.9545889,Saga,Kyushu,Rekihaku 14C Database,1982,唐津市文化財調査報告　第5集　菜畑遺跡,,
301,FALSE,TRUE,FALSE,Too Old? Needs Checking,N-4600,3230,100,Beta Counting,NA,NA,Charred Seed,炭化米,carbonized rice (Oryza sativa),H-I-4　8下層,菜畑遺跡,Nabatakeiseki,唐津市菜畑字松山寺山,33.45073056,129.9545889,Saga,Kyushu,Rekihaku 14C Database,1982,唐津市文化財調査報告　第5集　菜畑遺跡,,
302,FALSE,TRUE,FALSE,Too Old? Needs Checking,N-4601,15100,215,Beta Counting,NA,NA,Charred Seed,炭化米,carbonized rice (Oryza sativa),H-I-1　16層,菜畑遺跡,Nabatakeiseki,唐津市菜畑字松山寺山,33.45073056,129.9545889,Saga,Kyushu,Rekihaku 14C Database,1982,唐津市文化財調査報告　第5集　菜畑遺跡,,
303,FALSE,TRUE,FALSE,Too Old? Needs Checking,N-4602,5210,65,Beta Counting,NA,NA,Charred Seed,炭化米,carbonized rice (Oryza sativa),H-I-1　14上層,菜畑遺跡,Nabatakeiseki,唐津市菜畑字松山寺山,33.45073056,129.9545889,Saga,Kyushu,Rekihaku 14C Database,1982,唐津市文化財調査報告　第5集　菜畑遺跡,,
304,TRUE,FALSE,,,N-5747,2670,80,Beta Counting,NA,NA,Soil,土壌,soil,2号水田址　水田層19a層,宮ノ前遺跡,Miyanomaeiseki,韮崎市藤井町駒井字宮ノ前,35.73478889,138.4419111,Yamanashi,Chubu,Rekihaku 14C Database,1992,宮ノ前遺跡(本文編),,
305,TRUE,FALSE,,,N-5748,2190,80,Beta Counting,NA,NA,Soil,土壌,soil,2号水田址　水田層19a層と同層準址考えられる西側の地層,宮ノ前遺跡,Miyanomaeiseki,韮崎市藤井町駒井字宮ノ前,35.73478889,138.4419111,Yamanashi,Chubu,Rekihaku 14C Database,1992,宮ノ前遺跡(本文編),,
306,FALSE,TRUE,TRUE,,N-934,1850,115,Beta Counting,NA,NA,Charred Seed,炭化米,carbonized rice (Oryza sativa),4号址,外原遺跡,Sotobaruiseki,船橋市,35.69491944,139.9821,Chiba,Kanto,Rekihaku 14C Database,1972,外原,,
307,FALSE,TRUE,TRUE,,NUTA-6589,458,89,AMS,NA,-27,Seed,イネ,rice (Oryza sativa),第1植物遺体層,里浜貝塚,Satohamakaizuka,桃生郡鳴瀬町宮戸,38.33573611,141.1437097,Miyagi,Tohoku,Rekihaku 14C Database,1999,鳴瀬町文化財調査報告書第5集　里浜貝塚　平成10年度発掘調査概報,,
308,FALSE,TRUE,TRUE,,NUTA2-7470,2069,28,AMS,-25.2,NA,Charred Seed,"種実,コメ,焼米",seed/nuts rice (Oryza sativa) rice (Oryza sativa),"22次,SK102土坑,2層,№355",唐古=鍵遺跡,Karako・Kagiiseki,磯城郡田原本町大字唐子および鍵,34.573,135.7973194,Nara,Kansai,Rekihaku 14C Database,2009,弥生農耕の起源と東アジア-炭素14年代測定による高精度編年体系の構築-平成16～20年文部科学省・科学研究費学術創成研究費　研究成果報告書,,
309,TRUE,FALSE,,,PAL-10826･YU-6966,1252,20,AMS,-28.31,NA,Wood,木材(モミ属),material wood fir (Abies sp.),測定№:5　SS03(1面西側水田)　取上№:R-12　器種:曲物底板　採取箇所:外側3〜4年分　最外部欠損,雀居遺跡(第19次調査区),Sasaiiseki（Dai19jichosaku）,福岡市博多区大字雀居,33.58088889,130.4462111,Fukuoka,Kyushu,Rekihaku 14C Database,2018,福岡空港滑走路増設事業に伴う埋蔵文化財調査報告(1)　雀居11　-雀居遺跡第19次調査報告-　福岡市埋蔵文化財調査報告書　第1332集,,
310,TRUE,FALSE,,,PAL-10827･YU-6967,1335,20,AMS,-25.61,NA,Wood,木材(スギ),material wood Japanese cedar (Cryptomeria japonica),測定№:6　SS03(1面西側水田)　取上№:R-14　器種:曲物底板　採取箇所:外側3〜4年分　最外部欠損,雀居遺跡(第19次調査区),Sasaiiseki（Dai19jichosaku）,福岡市博多区大字雀居,33.58088889,130.4462111,Fukuoka,Kyushu,Rekihaku 14C Database,2018,福岡空港滑走路増設事業に伴う埋蔵文化財調査報告(1)　雀居11　-雀居遺跡第19次調査報告-　福岡市埋蔵文化財調査報告書　第1332集,,
311,FALSE,TRUE,TRUE,,PED-10198,345,20,AMS,-27.59,NA,Charred Seed,炭化種実（イネ）,carbonized seed/nuts rice (Oryza sativa),３a層,川嶺辻遺跡,Kawaminetsujiiseki,大島郡伊仙町目手久,27.69315,128.9751611,Kagoshima,Kyushu,Rekihaku 14C Database,2010,伊仙町埋蔵文化財発掘調査報告書(13)　川嶺辻遺跡,,
312,FALSE,TRUE,TRUE,,PED-16244,1499,17,AMS,-23.38,NA,Charred Seed,炭化米,carbonized rice (Oryza sativa),"試料№:1　廃棄住居跡(H14),土坑内",玉名平野条里跡(古閑前地区),Tamanaheiyajoriato（Kogamaechiku）,玉名市両迫間158-2ほか9筆,32.93986111,130.5773806,Kumamoto,Kyushu,Rekihaku 14C Database,2011,熊本県文化財調査報告　第261集　玉名平野条里跡(古閑前地区),,
313,FALSE,TRUE,TRUE,,PED-16245,1526,17,AMS,-23.2,NA,Charred Seed,炭化米,carbonized rice (Oryza sativa),"試料№:2　廃棄住居跡(H14),土坑内",玉名平野条里跡(古閑前地区),Tamanaheiyajoriato（Kogamaechiku）,玉名市両迫間158-2ほか9筆,32.93986111,130.5773806,Kumamoto,Kyushu,Rekihaku 14C Database,2011,熊本県文化財調査報告　第261集　玉名平野条里跡(古閑前地区),,
314,FALSE,TRUE,TRUE,,PED-16246,1499,16,AMS,-20.48,NA,Charred Seed,炭化米,carbonized rice (Oryza sativa),"試料№:3　廃棄住居跡(H14),土坑内",玉名平野条里跡(古閑前地区),Tamanaheiyajoriato（Kogamaechiku）,玉名市両迫間158-2ほか9筆,32.93986111,130.5773806,Kumamoto,Kyushu,Rekihaku 14C Database,2011,熊本県文化財調査報告　第261集　玉名平野条里跡(古閑前地区),,
315,FALSE,TRUE,TRUE,,PED-17363,2102,21,AMS,-21.55,NA,Charred Seed,炭化米,carbonized rice (Oryza sativa),試料名:№1　焼失竪穴住居(305号住居),上岩田遺跡,Kamiiwataiseki,小郡市上岩田他,33.3998,130.5762611,Fukuoka,Kyushu,Rekihaku 14C Database,2014,上岩田工業団地造成事業関係埋蔵文化財調査報告書-(6)-　福岡県小郡市所在　上岩田遺跡Ⅴ　小郡市埋蔵文化財調査報告書　第277集　　,,
316,FALSE,TRUE,TRUE,,PED-17364,2103,23,AMS,-25.27,NA,Charred Seed,炭化米,carbonized rice (Oryza sativa),試料名:№2　焼失竪穴住居(305号住居),上岩田遺跡,Kamiiwataiseki,小郡市上岩田他,33.3998,130.5762611,Fukuoka,Kyushu,Rekihaku 14C Database,2014,上岩田工業団地造成事業関係埋蔵文化財調査報告書-(6)-　福岡県小郡市所在　上岩田遺跡Ⅴ　小郡市埋蔵文化財調査報告書　第277集　　,,
317,FALSE,TRUE,TRUE,,PED-8206,1540,15,AMS,-24.98,NA,Charred Seed,炭化種実(イネ),carbonized seed/nuts rice (Oryza sativa),試料名:8　　,宮ノ東遺跡,Miyanohigashiiseki,西都市大字岡富字宮ノ東他,32.08108889,131.4152694,Miyazaki,Kyushu,Rekihaku 14C Database,2008,宮崎県埋蔵文化財センター発掘調査報告書　第173集　宮ノ東遺跡　東九州自動車道(都農〜西都間)建設に伴う埋蔵文化財発掘調査報告書60　,,
318,FALSE,TRUE,TRUE,,PED-8215,1310,20,AMS,-27.79,NA,Charred Seed,炭化種実(イネ),carbonized seed/nuts rice (Oryza sativa),試料名:48,宮ノ東遺跡,Miyanohigashiiseki,西都市大字岡富字宮ノ東他,32.08108889,131.4152694,Miyazaki,Kyushu,Rekihaku 14C Database,2008,宮崎県埋蔵文化財センター発掘調査報告書　第173集　宮ノ東遺跡　東九州自動車道(都農〜西都間)建設に伴う埋蔵文化財発掘調査報告書60　,,
319,FALSE,TRUE,TRUE,,PED-8219,1260,20,AMS,-24.86,NA,Charred Seed,炭化種実(イネ),carbonized seed/nuts rice (Oryza sativa),試料名:99,宮ノ東遺跡,Miyanohigashiiseki,西都市大字岡富字宮ノ東他,32.08108889,131.4152694,Miyazaki,Kyushu,Rekihaku 14C Database,2008,宮崎県埋蔵文化財センター発掘調査報告書　第173集　宮ノ東遺跡　東九州自動車道(都農〜西都間)建設に伴う埋蔵文化財発掘調査報告書60　,,
320,FALSE,TRUE,TRUE,,PED-8222,1205,20,AMS,-26.56,NA,Charred Seed,炭化種実(イネ),carbonized seed/nuts rice (Oryza sativa),試料名:116,宮ノ東遺跡,Miyanohigashiiseki,西都市大字岡富字宮ノ東他,32.08108889,131.4152694,Miyazaki,Kyushu,Rekihaku 14C Database,2008,宮崎県埋蔵文化財センター発掘調査報告書　第173集　宮ノ東遺跡　東九州自動車道(都農〜西都間)建設に伴う埋蔵文化財発掘調査報告書60　,,
321,FALSE,TRUE,TRUE,,PED-9497,1845,25,AMS,-23.96,NA,Charred Seed,炭化種実(イネ),carbonized seed/nuts rice (Oryza sativa),試料№:5　S404-焼土 竪穴住居,尾花A遺跡,Obanaaiseki,児湯郡川南町,32.19176111,131.5254694,Miyazaki,Kyushu,Rekihaku 14C Database,2009,宮崎県埋蔵文化財センター発掘調査報告書　第195集　尾花A遺跡Ⅱ　弥生時代以降編　東九州自動車道(都農〜西都間)建設に伴う埋蔵文化財発掘調査報告書65　本文編(1/3),,
322,FALSE,TRUE,TRUE,,PED-9509,1720,25,AMS,-25.12,NA,Charred Seed,炭化種実(イネ),carbonized seed/nuts rice (Oryza sativa),試料№:89　SA18-SC1埋土　住居内土坑,尾花A遺跡,Obanaaiseki,児湯郡川南町,32.19176111,131.5254694,Miyazaki,Kyushu,Rekihaku 14C Database,2009,宮崎県埋蔵文化財センター発掘調査報告書　第195集　尾花A遺跡Ⅱ　弥生時代以降編　東九州自動車道(都農〜西都間)建設に伴う埋蔵文化財発掘調査報告書65　本文編(1/3),,
323,FALSE,TRUE,TRUE,,PED-9519,760,25,AMS,-24.96,NA,Charred Seed,炭化種実(イネ),carbonized seed/nuts rice (Oryza sativa),試料№:153　SC88-埋土　土坑,尾花A遺跡,Obanaaiseki,児湯郡川南町,32.19176111,131.5254694,Miyazaki,Kyushu,Rekihaku 14C Database,2009,宮崎県埋蔵文化財センター発掘調査報告書　第195集　尾花A遺跡Ⅱ　弥生時代以降編　東九州自動車道(都農〜西都間)建設に伴う埋蔵文化財発掘調査報告書65　本文編(1/3),,
324,FALSE,TRUE,TRUE,,PED-9520,775,20,AMS,-24.4,NA,Charred Seed,炭化種実(イネ),carbonized seed/nuts rice (Oryza sativa),試料№:165　SC92-埋土　土坑,尾花A遺跡,Obanaaiseki,児湯郡川南町,32.19176111,131.5254694,Miyazaki,Kyushu,Rekihaku 14C Database,2009,宮崎県埋蔵文化財センター発掘調査報告書　第195集　尾花A遺跡Ⅱ　弥生時代以降編　東九州自動車道(都農〜西都間)建設に伴う埋蔵文化財発掘調査報告書65　本文編(1/3),,
325,FALSE,TRUE,TRUE,,PED-9526,2115,20,AMS,-23.65,NA,Charred Seed,炭化種実(イネ),carbonized seed/nuts rice (Oryza sativa),試料№:197　S119-P11埋土　住居内ピット,尾花A遺跡,Obanaaiseki,児湯郡川南町,32.19176111,131.5254694,Miyazaki,Kyushu,Rekihaku 14C Database,2009,宮崎県埋蔵文化財センター発掘調査報告書　第195集　尾花A遺跡Ⅱ　弥生時代以降編　東九州自動車道(都農〜西都間)建設に伴う埋蔵文化財発掘調査報告書65　本文編(1/3),,
326,FALSE,TRUE,TRUE,,PED-9527,2165,20,AMS,-22.81,NA,Charred Seed,炭化種実(イネ),carbonized seed/nuts rice (Oryza sativa),試料№:200　S155-SC1埋土　住居内土坑,尾花A遺跡,Obanaaiseki,児湯郡川南町,32.19176111,131.5254694,Miyazaki,Kyushu,Rekihaku 14C Database,2009,宮崎県埋蔵文化財センター発掘調査報告書　第195集　尾花A遺跡Ⅱ　弥生時代以降編　東九州自動車道(都農〜西都間)建設に伴う埋蔵文化財発掘調査報告書65　本文編(1/3),,
327,FALSE,TRUE,TRUE,,PED-9530,1770,20,AMS,-26.24,NA,Charred Seed,炭化種実(イネ),carbonized seed/nuts rice (Oryza sativa),試料№:228　S34-Ⅳ層　土坑,尾花A遺跡,Obanaaiseki,児湯郡川南町,32.19176111,131.5254694,Miyazaki,Kyushu,Rekihaku 14C Database,2009,宮崎県埋蔵文化財センター発掘調査報告書　第195集　尾花A遺跡Ⅱ　弥生時代以降編　東九州自動車道(都農〜西都間)建設に伴う埋蔵文化財発掘調査報告書65　本文編(1/3),,
328,FALSE,TRUE,TRUE,,PED-9536,1825,20,AMS,-24.9,NA,Charred Seed,炭化種実(イネ),carbonized seed/nuts rice (Oryza sativa),試料№:251　S103-底　土坑,尾花A遺跡,Obanaaiseki,児湯郡川南町,32.19176111,131.5254694,Miyazaki,Kyushu,Rekihaku 14C Database,2009,宮崎県埋蔵文化財センター発掘調査報告書　第195集　尾花A遺跡Ⅱ　弥生時代以降編　東九州自動車道(都農〜西都間)建設に伴う埋蔵文化財発掘調査報告書65　本文編(1/3),,
329,FALSE,TRUE,TRUE,,PLD-10219,2450,20,AMS,-26.8,NA,Charred Seed,"種実,コメ,",seed/nuts rice (Oryza sativa),森先生調査資料か？,有田遺跡,Aritaiseki,福岡市早良区有田・小田部・南庄地区,33.56435,130.3361194,Fukuoka,Kyushu,Rekihaku 14C Database,2009,弥生農耕の起源と東アジア-炭素14年代測定による高精度編年体系の構築-平成16～20年文部科学省・科学研究費学術創成研究費　研究成果報告書,,
330,FALSE,TRUE,TRUE,,PLD-10282,2365,25,AMS,-26.26,NA,Charred Seed,"種実,コメ,",seed/nuts rice (Oryza sativa),NA,上里遺跡,Uwazatoiseki,京都市西京区大原野上里南ノ町・大原野石見町地内,34.95000278,135.6843833,Kyoto,Kansai,Rekihaku 14C Database,2009,弥生農耕の起源と東アジア-炭素14年代測定による高精度編年体系の構築-平成16～20年文部科学省・科学研究費学術創成研究費　研究成果報告書,Updated coordinates to match remaining entries,
331,FALSE,TRUE,TRUE,,PLD-1034,2260,30,AMS,NA,-25.8,Charred Seed,炭化米,carbonized rice (Oryza sativa),SB07-P20,猫島遺跡,Nekojimaiseki,一宮市千秋町,35.30778889,136.8547194,Aichi,Chubu,Rekihaku 14C Database,2003,愛知県埋蔵文化財センター調査報告書第107集　猫島遺跡,,
332,FALSE,TRUE,FALSE,Duplicate of 331,PLD-1034,2260,30,AMS,NA,-25.8,Charred Seed,炭化米,carbonized rice (Oryza sativa),SB07-P20,八王子遺跡,Hachiojiiseki,一宮市大和町苅安賀,35.2904,136.7766,Aichi,Chubu,Rekihaku 14C Database,2002,愛知県埋蔵文化財センター調査報告書第92集　八王子遺跡　報告編,,
333,FALSE,TRUE,FALSE,Duplicate of 334,PLD-11630,1925,25,AMS,-26.61,NA,Charred Seed,"種実,コメ,",seed/nuts rice (Oryza sativa),"Btr,溝2層",カラカミ遺跡,Karakamiiseki,壱岐市勝本町立石東触字カラカミ765-1,33.79505,129.6965806,Nagasaki,Kyushu,Rekihaku 14C Database,2009,弥生農耕の起源と東アジア-炭素14年代測定による高精度編年体系の構築-平成16～20年文部科学省・科学研究費学術創成研究費　研究成果報告書,,
334,FALSE,TRUE,TRUE,,PLD-11630,1925,25,AMS,-26.6,NA,Charred Seed,炭化米,carbonized rice (Oryza sativa),試料番号:NAKU-C8　第2地点Bトレンチ溝2層　,カラカミ遺跡,Karakamiiseki,壱岐市勝本町立石東触ほか,33.79505,129.6965806,Nagasaki,Kyushu,Rekihaku 14C Database,2008,壱岐カラカミ遺跡Ⅱ　-カラカミ遺跡東亜考古学会第1地点の発掘調査-　平成20年度独立行政法人日本学術振興会科学研究費補助金基盤研究B,,
335,FALSE,TRUE,FALSE,Duplicate of 336,PLD-11632,2085,20,AMS,-26.02,NA,Charred Seed,"種実,コメ,",seed/nuts rice (Oryza sativa),"B9-a,貝層",カラカミ遺跡,Karakamiiseki,壱岐市勝本町立石東触字カラカミ765-1,33.79505,129.6965806,Nagasaki,Kyushu,Rekihaku 14C Database,2009,弥生農耕の起源と東アジア-炭素14年代測定による高精度編年体系の構築-平成16～20年文部科学省・科学研究費学術創成研究費　研究成果報告書,,
336,FALSE,TRUE,TRUE,,PLD-11632,2085,20,AMS,-26,NA,Charred Seed,炭化米,carbonized rice (Oryza sativa),試料番号:NAKU-C11　第1地点B9-5a貝層,カラカミ遺跡,Karakamiiseki,壱岐市勝本町立石東触ほか,33.79505,129.6965806,Nagasaki,Kyushu,Rekihaku 14C Database,2008,壱岐カラカミ遺跡Ⅱ　-カラカミ遺跡東亜考古学会第1地点の発掘調査-　平成20年度独立行政法人日本学術振興会科学研究費補助金基盤研究B,,
337,FALSE,TRUE,TRUE,,PLD-11698,560,20,AMS,-26.11,NA,Charred Seed,炭化種実(イネ),carbonized seed/nuts rice (Oryza sativa),第3号竪穴住居跡　床面,中居林遺跡,Nakaibayashiiseki,八戸市大字中居林字中居林,40.48821944,141.4939889,Aomori,Tohoku,Rekihaku 14C Database,2009,青森県埋蔵文化財調査報告書第470集　長久保(2)遺跡Ⅲ　糠塚小沢遺跡Ⅱ　中居林遺跡Ⅱ,,
338,FALSE,TRUE,TRUE,,PLD-12287,1124,20,AMS,-24.19,NA,Charred Seed,炭化種実(イネ炭化種子),carbonized seed seed/nuts rice (Oryza sativa),SI05　イ区2号土壌サンプル,中平遺跡,Nakadairaiseki,青森市浪岡大字吉野田字平野,40.72323056,140.5305194,Aomori,Tohoku,Rekihaku 14C Database,2010,青森県埋蔵文化財調査報告書第490集　中平遺跡Ⅱ,,
339,FALSE,TRUE,TRUE,,PLD-12328,1350,18,AMS,-27.32,NA,Seed,生種実(イネ果実),seed/nuts fruit /achenes etc rice (Oryza sativa),火山灰範囲12　Ⅱa層,宮田館遺跡,Miyatadateiseki,青森市大字宮田字玉水,40.8354,140.8396111,Aomori,Tohoku,Rekihaku 14C Database,2009,青森県埋蔵文化財調査報告書第473集　米山(2)遺跡Ⅵ･宮田館遺跡Ⅶ,,
340,FALSE,TRUE,TRUE,,PLD-12397,2154,21,AMS,-23.4,NA,Charred Seed,炭化種子(イネ･玄米),carbonized seed rice (Oryza sativa),5号土坑　1.2層,佐寺原遺跡(3次調査),Sateraharaiseki（3jichosa）,日田市大字有田字佐寺原50-1,33.3394,130.9796806,Oita,Kyushu,Rekihaku 14C Database,2011,佐寺原遺跡　ｰ2･3次調査ｰ,,
341,FALSE,TRUE,TRUE,,PLD-12604,1260,23,AMS,-24.91,NA,Charred Seed,炭化種実(炭化米),carbonized seed/nuts rice (Oryza sativa),SD9,上五明条里水田址,Kamigomyojorisuidenshi,坂城町大字上平,36.44278889,138.14725,Nagano,Chubu,Rekihaku 14C Database,2011,長野県埋蔵文化財センター発掘調査報告書97　主要地方道長野上田線力石バイパス建設事業埋蔵文化財発掘調査報告書2　坂城町内　上五明条里水田址,,
342,FALSE,TRUE,TRUE,,PLD-12741,2216,22,AMS,-26.57,NA,Charred Seed,炭化種子(イネ:玄米),carbonized seed rice (Oryza sativa),6号土坑,佐寺原遺跡(3次調査),Sateraharaiseki（3jichosa）,日田市大字有田字佐寺原50-1,33.3394,130.9796806,Oita,Kyushu,Rekihaku 14C Database,2011,佐寺原遺跡　ｰ2･3次調査ｰ,,
343,FALSE,TRUE,TRUE,,PLD-12742,2062,21,AMS,-25.47,NA,Charred Seed,炭化種子(イネ:玄米),carbonized seed rice (Oryza sativa),2号竪穴住居跡　炉1層　,佐寺原遺跡(3次調査),Sateraharaiseki（3jichosa）,日田市大字有田字佐寺原50-1,33.3394,130.9796806,Oita,Kyushu,Rekihaku 14C Database,2011,佐寺原遺跡　ｰ2･3次調査ｰ,,
344,FALSE,TRUE,TRUE,,PLD-1306,960,20,AMS,NA,-24.5,Charred Seed,炭化米,carbonized rice (Oryza sativa),SN1322,厨川谷地遺跡,Kuriyagawayachiiseki,仙北郡美郷町土崎字厨川谷地,39.46821111,140.5619806,Akita,Tohoku,Rekihaku 14C Database,2005,秋田県文化財調査報告書第383集　厨川谷地遺跡,,
345,FALSE,TRUE,TRUE,,PLD-14141,546,19,AMS,-23.39,NA,Charred Seed,イネ炭化種子,carbonized seed rice (Oryza sativa),SK-27　第4層,中平遺跡,Nakadairaiseki,青森市浪岡大字吉野田字平野,40.72323056,140.5305194,Aomori,Tohoku,Rekihaku 14C Database,2010,青森県埋蔵文化財調査報告書第490集　中平遺跡Ⅱ,,
346,FALSE,TRUE,TRUE,,PLD-14143,116,19,AMS,-22.03,NA,Charred Seed,イネ炭化種子,carbonized seed rice (Oryza sativa),EV-54-54　土器内堆積土,中平遺跡,Nakadairaiseki,青森市浪岡大字吉野田字平野,40.72323056,140.5305194,Aomori,Tohoku,Rekihaku 14C Database,2010,青森県埋蔵文化財調査報告書第490集　中平遺跡Ⅱ,,
347,FALSE,TRUE,TRUE,,PLD-14145,582,21,AMS,-24.17,NA,Charred Seed,イネ炭化種子,carbonized seed rice (Oryza sativa),SK-568側　基本層序Ⅱ層,中平遺跡,Nakadairaiseki,青森市浪岡大字吉野田字平野,40.72323056,140.5305194,Aomori,Tohoku,Rekihaku 14C Database,2010,青森県埋蔵文化財調査報告書第490集　中平遺跡Ⅱ,,
348,FALSE,TRUE,TRUE,,PLD-14163,782,18,AMS,-26.6,NA,Charred Seed,イネ炭化種子,carbonized seed rice (Oryza sativa),22号井戸12層,釣上高岡南遺跡,Kagiagetakaokaminamiiseki,さいたま市岩槻区大字釣上字高岡,35.90056111,139.7421306,Saitama,Kanto,Rekihaku 14C Database,2009,さいたま市遺跡調査会報告書第104集　釣上新田上遺跡　釣上高岡南遺跡　尾ヶ崎新田深町西遺跡　尾ヶ崎新田深町遺跡,,
349,FALSE,TRUE,TRUE,,PLD-14300,1229,20,AMS,-22.37,NA,Charred Seed,炭化種実(イネ),carbonized seed/nuts rice (Oryza sativa),試料№:1･2･3　SR1　1号焼土土坑　炉内埋土　,梅北針谷遺跡,Umekitaharitaniiseki,都城市梅北町231番地2他,31.66256944,131.0553694,Miyazaki,Kyushu,Rekihaku 14C Database,2011,宮崎県埋蔵文化財センター発掘調査報告書　第204集　梅北針谷遺跡　都城東環状線(今町工区)地域高規格道路整備事業に伴う埋蔵文化財発掘調査報告書2,,
350,FALSE,TRUE,TRUE,,PLD-14301,1219,21,AMS,-23.67,NA,Charred Seed,炭化種実(イネ),carbonized seed/nuts rice (Oryza sativa),試料№:3･4･5　SR2　　2号焼土土坑　炉内埋土,梅北針谷遺跡,Umekitaharitaniiseki,都城市梅北町231番地2他,31.66256944,131.0553694,Miyazaki,Kyushu,Rekihaku 14C Database,2011,宮崎県埋蔵文化財センター発掘調査報告書　第204集　梅北針谷遺跡　都城東環状線(今町工区)地域高規格道路整備事業に伴う埋蔵文化財発掘調査報告書2,,
351,FALSE,TRUE,TRUE,,PLD-14302,1255,22,AMS,-22.85,NA,Charred Seed,炭化種実(イネ),carbonized seed/nuts rice (Oryza sativa),試料№:6･7　SR3　3号焼土土坑　炉内埋土,梅北針谷遺跡,Umekitaharitaniiseki,都城市梅北町231番地2他,31.66256944,131.0553694,Miyazaki,Kyushu,Rekihaku 14C Database,2011,宮崎県埋蔵文化財センター発掘調査報告書　第204集　梅北針谷遺跡　都城東環状線(今町工区)地域高規格道路整備事業に伴う埋蔵文化財発掘調査報告書2,,
352,FALSE,TRUE,TRUE,,PLD-14303,1218,21,AMS,-24.39,NA,Charred Seed,炭化種実(イネ),carbonized seed/nuts rice (Oryza sativa),試料№:8　SR5 5号焼土土坑　炉内埋土,梅北針谷遺跡,Umekitaharitaniiseki,都城市梅北町231番地2他,31.66256944,131.0553694,Miyazaki,Kyushu,Rekihaku 14C Database,2011,宮崎県埋蔵文化財センター発掘調査報告書　第204集　梅北針谷遺跡　都城東環状線(今町工区)地域高規格道路整備事業に伴う埋蔵文化財発掘調査報告書2,,
353,FALSE,TRUE,TRUE,,PLD-14359,1827,25,AMS,-23.69,NA,Charred Seed,炭化米(イネ胚乳),carbonized rice (Oryza sativa),"竪穴住居址H56 No,1土器内",北一本柳遺跡,Kitaipponyanagiiseki,佐久市岩村田字西北一本柳,36.2701,138.468,Nagano,Chubu,Rekihaku 14C Database,2010,佐久市埋蔵文化財調査報告書第175集　第1分冊　西一本柳遺跡ⅩⅣ,Updated coordinated from Nabunken Database,
354,FALSE,TRUE,TRUE,,PLD-14360,1845,25,AMS,-25.84,NA,Charred Seed,炭化米(マメ類種子),carbonized seed rice (Oryza sativa) legume (Fabaceae),竪穴住居址H61　,北一本柳遺跡,Kitaipponyanagiiseki,佐久市岩村田字西北一本柳,36.2701,138.468,Nagano,Chubu,Rekihaku 14C Database,2010,佐久市埋蔵文化財調査報告書第175集　第1分冊　西一本柳遺跡ⅩⅣ,"Date is on rice and a legume, I assume azuki or soybean [CJS]; Updated coordinated from Nabunken Database",
355,FALSE,TRUE,TRUE,,PLD-14362,2091,25,AMS,-24.07,NA,Charred Seed,炭化米(イネ胚乳),carbonized rice (Oryza sativa),溝跡M11　No.4土器内,西一本柳遺跡,Nishiipponyanagiiseki,佐久市岩村田字西一本柳,36.265833,138.468055,Nagano,Chubu,Rekihaku 14C Database,2010,佐久市埋蔵文化財調査報告書第175集　第1分冊　西一本柳遺跡ⅩⅣ,Updated coordinated from Nabunken Database,
356,FALSE,TRUE,TRUE,,PLD-14905,342,23,AMS,-25.01,NA,Charred Seed,炭化イネ,carbonized rice (Oryza sativa),SBJ09不明遺構,桜洞城跡,Sakuraborajoato,下呂市萩原町,35.94423056,137.2119611,Gifu,Chubu,Rekihaku 14C Database,2014,下呂市文化財調査報告書第3集　桜洞城跡発掘調査報告書,,
357,FALSE,TRUE,TRUE,,PLD-15588,334,18,AMS,-22.55,NA,Charred Seed,炭化種実(イネ),carbonized seed/nuts rice (Oryza sativa),グリッド　L66　方形土坑SK29,武蔵国府関連遺跡,Musashikokufukanreniseki,府中市西府町,35.66852176,139.4734519,Tokyo,Kanto,Rekihaku 14C Database,2010,府中市埋蔵文化財調査報告第45集　西府･本宿町地域の調査2,,
358,TRUE,FALSE,,,PLD-1576,3045,30,AMS,NA,-19.6,Soil,有機質土,organic matter,E区　Ⅳ層(水田耕作土),中之郷北遺跡,Nakanogokitaiseki,西春日井郡西春町中之郷,35.24318889,136.845,Aichi,Chubu,Rekihaku 14C Database,2006,愛知県埋蔵文化財センター調査報告書第139集　島崎遺跡　伝法寺本郷遺跡　中之郷北遺跡,,
359,FALSE,TRUE,TRUE,,PLD-16399,2010,22,AMS,-23.03,NA,Charred Seed,イネ炭化種子,carbonized seed rice (Oryza sativa),TSS-B1区　SD51-S,下佐野遺跡,Shimosanoiseki,高岡市佐野,36.72391111,136.9924611,Toyama,Chubu,Rekihaku 14C Database,2011,下佐野遺跡発掘調査報告書,,
360,FALSE,TRUE,TRUE,,PLD-16400,1984,23,AMS,-23.03,NA,Charred Seed,イネ炭化種子,carbonized seed rice (Oryza sativa),TSS-B1区　SD139-C,下佐野遺跡,Shimosanoiseki,高岡市佐野,36.72391111,136.9924611,Toyama,Chubu,Rekihaku 14C Database,2011,下佐野遺跡発掘調査報告書,,
361,FALSE,TRUE,TRUE,,PLD-16401,1959,21,AMS,-22.36,NA,Charred Seed,イネ炭化種子,carbonized seed rice (Oryza sativa),TSS-B1区　SD157-N,下佐野遺跡,Shimosanoiseki,高岡市佐野,36.72391111,136.9924611,Toyama,Chubu,Rekihaku 14C Database,2011,下佐野遺跡発掘調査報告書,,
362,FALSE,TRUE,TRUE,,PLD-16402,1850,22,AMS,-23.42,NA,Charred Seed,イネ炭化種子,carbonized seed rice (Oryza sativa),TSS-B1区　SD168-d,下佐野遺跡,Shimosanoiseki,高岡市佐野,36.72391111,136.9924611,Toyama,Chubu,Rekihaku 14C Database,2011,下佐野遺跡発掘調査報告書,,
363,FALSE,TRUE,TRUE,,PLD-16403,302,20,AMS,-22.2,NA,Charred Seed,イネ炭化種子,carbonized seed rice (Oryza sativa),TSS-B3区　SZ02　SK16,下佐野遺跡,Shimosanoiseki,高岡市佐野,36.72391111,136.9924611,Toyama,Chubu,Rekihaku 14C Database,2011,下佐野遺跡発掘調査報告書,,
364,FALSE,TRUE,FALSE,Negative Date (Needs Checking),PLD-16404,-812,21,AMS,-24.45,NA,Charred Seed,イネ炭化種子,carbonized seed rice (Oryza sativa),TSS-B4区　SD131-a,下佐野遺跡,Shimosanoiseki,高岡市佐野,36.72391111,136.9924611,Toyama,Chubu,Rekihaku 14C Database,2011,下佐野遺跡発掘調査報告書,"Negative Date, the report does not have a pdf entry so needs to be manually checked by Shinya",Yes
365,FALSE,TRUE,TRUE,,PLD-16405,663,21,AMS,-25.65,NA,Charred Seed,イネ炭化種子,carbonized seed rice (Oryza sativa),TSS-B4区　SD153-a,下佐野遺跡,Shimosanoiseki,高岡市佐野,36.72391111,136.9924611,Toyama,Chubu,Rekihaku 14C Database,2011,下佐野遺跡発掘調査報告書,,
366,FALSE,TRUE,TRUE,,PLD-16406,716,20,AMS,-23.77,NA,Charred Seed,イネ炭化種子,carbonized seed rice (Oryza sativa),TSS-B4区　SD156-W,下佐野遺跡,Shimosanoiseki,高岡市佐野,36.72391111,136.9924611,Toyama,Chubu,Rekihaku 14C Database,2011,下佐野遺跡発掘調査報告書,,
367,FALSE,TRUE,TRUE,,PLD-1641,430,30,AMS,NA,-24.6,Charred Seed,炭化米,carbonized rice (Oryza sativa),SK167,木戸城遺跡,Kidojoiseki,安城市木戸町東屋敷,34.89443889,137.0908111,Aichi,Chubu,Rekihaku 14C Database,2003,愛知県埋蔵文化財センター調査報告書第111集　木戸城遺跡･古新田遺跡,,
368,FALSE,TRUE,TRUE,,PLD-1642,345,25,AMS,NA,-24.3,Charred Seed,炭化米,carbonized rice (Oryza sativa),SK167,木戸城遺跡,Kidojoiseki,安城市木戸町東屋敷,34.89443889,137.0908111,Aichi,Chubu,Rekihaku 14C Database,2003,愛知県埋蔵文化財センター調査報告書第111集　木戸城遺跡･古新田遺跡,,
369,FALSE,TRUE,TRUE,,PLD-1643,425,30,AMS,NA,-24.3,Charred Seed,炭化米,carbonized rice (Oryza sativa),SK167,木戸城遺跡,Kidojoiseki,安城市木戸町東屋敷,34.89443889,137.0908111,Aichi,Chubu,Rekihaku 14C Database,2003,愛知県埋蔵文化財センター調査報告書第111集　木戸城遺跡･古新田遺跡,,
370,TRUE,FALSE,,,PLD-16779,870,21,AMS,-31.46,NA,Seed,カヤツリグサ科(種実),seed/nuts Japanese nutmeg tree​ (Torreya nucifera) Sedges/Cyperus,Ⅷ層･1枚目水田耕作土に相当する青灰〜灰色粘土〜シルト,小坂居付遺跡,Kosakaizukeiseki,新潟市南区小坂字居付,37.78605,139.0236111,Niigata,Chubu,Rekihaku 14C Database,2012,新潟県埋蔵文化財調査報告書第238集　一般国道8号白根バイパス関係発掘調査報告書Ⅱ　小坂居付遺跡,,
371,TRUE,FALSE,,,PLD-16780,594,21,AMS,-27.1,NA,Wood,ヤナギ属,willow (Salix sp.),南区1西壁(4B12グリッド)　ⅩⅥ層･5枚目水田畦畔植物遺体層,小坂居付遺跡,Kosakaizukeiseki,新潟市南区小坂字居付,37.78605,139.0236111,Niigata,Chubu,Rekihaku 14C Database,2012,新潟県埋蔵文化財調査報告書第238集　一般国道8号白根バイパス関係発掘調査報告書Ⅱ　小坂居付遺跡,,
372,FALSE,TRUE,TRUE,,PLD-17749,264,25,AMS,-25.92,NA,Charred Seed,炭化種実(イネ炭化種子),carbonized seed seed/nuts rice (Oryza sativa),西地区　第1廓,甲田城跡,Kodajoato,柏崎市西山町甲田,37.49081111,138.6487694,Niigata,Chubu,Rekihaku 14C Database,2013,柏崎市埋蔵文化財調査報告書第70集　柏崎市の遺跡　別冊Ⅰ,,
373,FALSE,TRUE,TRUE,,PLD-17750,283,26,AMS,-22.72,NA,Charred Seed,炭化種実(イネ炭化種子),carbonized seed seed/nuts rice (Oryza sativa),西地区　第23廓`2,甲田城跡,Kodajoato,柏崎市西山町甲田,37.49081111,138.6487694,Niigata,Chubu,Rekihaku 14C Database,2013,柏崎市埋蔵文化財調査報告書第70集　柏崎市の遺跡　別冊Ⅰ,,
374,FALSE,TRUE,TRUE,,PLD-17772,1827,21,AMS,-23.47,NA,Charred Seed,炭化種実(イネ炭化種子),carbonized seed seed/nuts rice (Oryza sativa),SI09貯蔵穴P1覆土,氷川遺跡,Hikawaiseki,目黒区大橋,35.65133889,139.6878111,Tokyo,Kanto,Rekihaku 14C Database,2012,東京都埋蔵文化財センター調査報告第266集　氷川遺跡,,
375,FALSE,TRUE,TRUE,,PLD-17774,1817,21,AMS,-24.24,NA,Charred Seed,炭化種実(イネ炭化種子),carbonized seed seed/nuts rice (Oryza sativa),SI12貯蔵穴P1覆土,氷川遺跡,Hikawaiseki,目黒区大橋,35.65133889,139.6878111,Tokyo,Kanto,Rekihaku 14C Database,2012,東京都埋蔵文化財センター調査報告第266集　氷川遺跡,,
376,FALSE,TRUE,TRUE,,PLD-17775,1793,21,AMS,-22.2,NA,Charred Seed,炭化種実(イネ炭化種子),carbonized seed seed/nuts rice (Oryza sativa),SI15炉A覆土,氷川遺跡,Hikawaiseki,目黒区大橋,35.65133889,139.6878111,Tokyo,Kanto,Rekihaku 14C Database,2012,東京都埋蔵文化財センター調査報告第266集　氷川遺跡,,
377,FALSE,TRUE,TRUE,,PLD-18601,1812,20,AMS,-25.56,NA,Seed,イネ,rice (Oryza sativa),SE365C　底面　甕内面付着,愛宕遺跡,Atagoiseki,射水市戸破,36.72168056,137.1106611,Toyama,Chubu,Rekihaku 14C Database,2013,富山県文化振興財団埋蔵文化財発掘調査報告第53集　白石遺跡　大江東遺跡　大江遺跡　愛宕遺跡　今開発東遺跡　今開発遺跡　三ケ･本開発遺跡発掘調査報告,,
378,TRUE,FALSE,,,PLD-18657,1567,19,AMS,-24.45,NA,Wood,木材(サワラ),material wood sawara cypress (Chamaecyparis pisifera),水田　④-1区第3水田　大畦畔内　木杭,西一里塚遺跡群,Nishiichirizukaisekigun,佐久市岩村田字西一里塚,36.27438056,138.4793889,Nagano,Chubu,Rekihaku 14C Database,2012,長野県埋蔵文化財センター発掘調査報告書106　濁り遺跡　久保田遺跡　西一里塚遺跡群　中部横断自動車道建設に伴う埋蔵文化財発掘調査報告書4　佐久市内4,,
379,TRUE,FALSE,,,PLD-18659,2029,20,AMS,-21.68,NA,Wood,木材(サワラ),material wood sawara cypress (Chamaecyparis pisifera),水田C　壁材,西一里塚遺跡群,Nishiichirizukaisekigun,佐久市岩村田字西一里塚,36.27438056,138.4793889,Nagano,Chubu,Rekihaku 14C Database,2012,長野県埋蔵文化財センター発掘調査報告書106　濁り遺跡　久保田遺跡　西一里塚遺跡群　中部横断自動車道建設に伴う埋蔵文化財発掘調査報告書4　佐久市内4,,
380,FALSE,TRUE,TRUE,,PLD-2162,405,25,AMS,NA,-24.4,Charred Seed,炭化米,carbonized rice (Oryza sativa),"ST01STB, BN9　B262-①層",重竹遺跡,Shigetakeiseki,関市下有知,35.51075,136.9204111,Gifu,Chubu,Rekihaku 14C Database,2005,岐阜県教育文化財団文化財保護センター調査報告書第91集　重竹遺跡･上西田遺跡　第2分冊,,
381,TRUE,FALSE,,,PLD-21859,3393,21,AMS,-30.24,NA,Wood,生材(ノブドウ属茎),material stem raw material grapes (Vitaceae),9区　24層(弥生水田層)　自然木,一丁田遺跡,Itchodaiseki,静岡市清水区庵原町,35.05148056,138.4715389,Shizuoka,Chubu,Rekihaku 14C Database,2013,静岡市埋蔵文化財調査報告　一丁田遺跡(8区･9区),,
382,FALSE,TRUE,TRUE,,PLD-23048,802,20,AMS,-27.89,NA,Seed,生の種実(イネ籾殻),seed/nuts shell rice (Oryza sativa) husk,Sea-02(SK-97)　もみがら層,高間(1)遺跡,Takama(1)Iseki,青森市大字石江字高間,40.82828889,140.69215,Aomori,Tohoku,Rekihaku 14C Database,2014,青森市埋蔵文化財調査報告書第116集-3　石江遺跡群発掘調査報告書Ⅶ(第3分冊:新田(1)･(2)遺跡本文編、石江遺跡群補遺編･分析編5･総括編),,
383,FALSE,TRUE,TRUE,,PLD-23880,622,18,AMS,-26.25,NA,Charred Seed,炭化種実(イネ籾),carbonized seed/nuts rice (Oryza sativa) husk,SI9,小谷場貝塚遺跡,Koyabakaizukaiseki,川口市,35.80726944,139.7237694,Saitama,Kanto,Rekihaku 14C Database,2014,川口市遺跡調査会報告第45集　小谷場貝塚遺跡,,
384,TRUE,FALSE,,,PLD-25956,1719,21,AMS,-25.94,NA,Seed,種実遺体(ホタルイ属及びタデ属),seed/nuts knotweed (Polygonum sp.) club-rush (Scirpus / Bolboschoenus / Schoenoplectus sp.) bulrush (Schoenoplectiella juncoides syn. Scirpus juncoides),11Q16･12Q1　Ⅷ層　水田面上面,余川中道遺跡,Yokawanakamichiiseki,南魚沼市余川字江端,37.07728056,138.8716611,Niigata,Chubu,Rekihaku 14C Database,2015,新潟県埋蔵文化財調査報告書第253集　一般国道17号六日町バイパス関係調査報告書Ⅲ　余川中道遺跡Ⅱ　一般国道253号八箇峠関係発掘調査報告書Ⅱ　金屋遺跡Ⅲ,,
385,FALSE,TRUE,TRUE,,PLD-2652,2145,35,AMS,NA,-25,Charred Seed,炭化穎果(イネ),carbonized rice (Oryza sativa),第17次調査　SD01第18層,吉崎･次場遺跡,Yoshisakisubaiseki,羽咋市,36.89326111,136.77885,Ishikawa,Chubu,Rekihaku 14C Database,2005,長者川遺跡,,
386,FALSE,TRUE,TRUE,,PLD-2653,1875,35,AMS,NA,-22.6,Charred Seed,炭化米,carbonized rice (Oryza sativa),粘土層中,長者川遺跡,Chojagawaiseki,羽咋市兵庫町,36.88345,136.7799194,Ishikawa,Chubu,Rekihaku 14C Database,2005,長者川遺跡,,
387,FALSE,TRUE,TRUE,,PLD-2654,2145,35,AMS,NA,-24.7,Charred Seed,炭化米,carbonized rice (Oryza sativa),SD-03,長者川遺跡,Chojagawaiseki,羽咋市兵庫町,36.88345,136.7799194,Ishikawa,Chubu,Rekihaku 14C Database,2005,長者川遺跡,,
388,TRUE,FALSE,,,PLD-28442,1515,19,AMS,-26.37,NA,Other Charred Remains,炭化物,carbonized material,第3面　水田直上,一反田遺跡,Ittandaiseki,菊川市赤土字一反田,34.69288889,138.0950611,Shizuoka,Chubu,Rekihaku 14C Database,2016,静岡県埋蔵文化財センター調査報告第51集　赤土政所遺跡･一反田遺跡　第2分冊,,
389,FALSE,TRUE,TRUE,,PLD-28685,332,17,AMS,-24.26,NA,Charred Seed,炭化種実(イネ),carbonized seed/nuts rice (Oryza sativa),慶長期埋土,富山城跡,Toyamajoato,富山市総曲輪四丁目,36.69262824,137.210756,Toyama,Chubu,Rekihaku 14C Database,2017,富山市埋蔵文化財調査報告88　富山城跡発掘調査報告書,,
390,FALSE,TRUE,TRUE,,PLD-28868,2518,18,NA,-28.62,NA,Charred Seed,炭化種実(イネ炭化穎果),carbonized seed/nuts rice (Oryza sativa),"貝塚Ⅱ,10-E(SQ02)",三谷遺跡,Mitaniiseki,徳島市南佐古六番町,34.07366944,134.5277306,Tokushima,Shikoku,Rekihaku 14C Database,2018,三谷遺跡　-徳島市佐古配水場施設建設工事に伴う発掘調査-　本編分冊･自然遺物編,,
391,FALSE,TRUE,TRUE,,PLD-30370,1728,19,AMS,-23.79,NA,Charred Seed,炭化種実(イネ種子),carbonized seed seed/nuts rice (Oryza sativa),C区4d層,明科遺跡群古殿屋敷,Akashinaisekigunfurutonoyashiki,安曇野市明科中川手,36.34543889,137.9344306,Nagano,Chubu,Rekihaku 14C Database,2016,安曇野市の埋蔵文化財第9集　平成26年度安曇野市埋蔵文化財発掘調査報告書　明科遺跡群古殿屋敷(第2次),,
392,FALSE,TRUE,TRUE,,PLD-30730,1174,17,AMS,-25.38,NA,Charred Seed,炭化種実(イネ種子),carbonized seed seed/nuts rice (Oryza sativa),SB24PIT1掘方　試料№4　,法垣遺跡,Hogakiiseki,中津市大字加来810-1他,33.55448056,131.2120111,Oita,Kyushu,Rekihaku 14C Database,2018,法垣遺跡3次･4次調査　ｰ本文､遺構･遺物図版､石製品写真図版･観察表編ｰ　事務所建設･地域振興施設(道の駅)建設に伴う埋蔵文化財発掘調査報告書(2)　中津市文化財調査報告　第84集　,,
393,FALSE,TRUE,TRUE,,PLD-30749,1876,19,AMS,-27.81,NA,Charred Seed,炭化種実(イネ種子),carbonized seed seed/nuts rice (Oryza sativa),SI-7　炉,馬場遺跡,Babaiseki,笛吹市境川町寺尾,35.58738889,138.5994389,Yamanashi,Chubu,Rekihaku 14C Database,2016,笛吹市文化財調査報告書第32集　馬場遺跡,,
394,FALSE,TRUE,FALSE,Possibly not on rice remain,PLD-3668,345,25,AMS,-24.67,NA,Seed,穀類(コメの塊),rice (Oryza sativa),SD01　Ⅱ層,小出城跡,Koidejoato,富山市水橋小出,36.73476944,137.31885,Toyama,Chubu,Rekihaku 14C Database,2007,富山市埋蔵文化財調査報告14　小出城跡発掘調査報告書,,
395,TRUE,FALSE,,,PLD-3805,410,30,AMS,-26.14,NA,Charred Remain,炭化物･材,carbonized material material,水田　7層,九段南一丁目遺跡,Kudamminamiitchomeiseki,千代田区九段南,35.69313889,139.7457,Tokyo,Kanto,Rekihaku 14C Database,2005,九段南一丁目遺跡,,
396,TRUE,FALSE,,,PLD-3806,700,30,AMS,-33.04,NA,Charred Remain,炭化物･材,carbonized material material,水田　7層,九段南一丁目遺跡,Kudamminamiitchomeiseki,千代田区九段南,35.69313889,139.7457,Tokyo,Kanto,Rekihaku 14C Database,2005,九段南一丁目遺跡,,
397,TRUE,FALSE,,,PLD-3807,325,30,AMS,-26.43,NA,Charred Remain,炭化物･材,carbonized material material,水田　7層,九段南一丁目遺跡,Kudamminamiitchomeiseki,千代田区九段南,35.69313889,139.7457,Tokyo,Kanto,Rekihaku 14C Database,2005,九段南一丁目遺跡,,
398,FALSE,TRUE,TRUE,,PLD-3810,1275,37,AMS,-31.2,NA,Charred Seed,炭化米,carbonized rice (Oryza sativa),須恵器窯跡　炉壁内,市ヶ洞1号窯,Ichigahora1gokama,愛知郡長久手町大字長湫字市ヶ洞,35.16526111,137.0289611,Aichi,Chubu,Rekihaku 14C Database,2007,瀬戸市埋蔵文化財センター調査報告第36集　丁子田窯跡･市ヶ洞1号窯跡,,
399,FALSE,TRUE,TRUE,,PLD-3920,2394,30,AMS,-24.05,NA,Charred Seed,炭化種実(イネ炭化胚乳),carbonized seed/nuts rice (Oryza sativa),第9号土坑一括　草本類堆積物の土壌サンプル中,中屋敷遺跡,Nakayashikiiseki,足柄上郡大井町山田中屋敷,35.3347463,139.1673167,Kanagawa,Kanto,Rekihaku 14C Database,2008,中屋敷遺跡発掘調査報告書,,
400,FALSE,TRUE,TRUE,,PLD-3991,2319,32,AMS,-24.59,NA,Charred Seed,炭化種実(イネ炭化胚乳),carbonized seed/nuts rice (Oryza sativa),第9号土坑　3層一括,中屋敷遺跡,Nakayashikiiseki,足柄上郡大井町山田中屋敷,35.3347463,139.1673167,Kanagawa,Kanto,Rekihaku 14C Database,2008,中屋敷遺跡発掘調査報告書,,
401,FALSE,TRUE,TRUE,,PLD-4355,1150,30,AMS,-24.63,NA,Charred Seed,炭化物･種子(イネ),carbonized seed material rice (Oryza sativa),23区　NH1号遺物集中,湘南新道関連遺跡,Shonanshindokanreniseki,平塚市真土,35.3693,139.2767194,Kanagawa,Kanto,Rekihaku 14C Database,2007,かながわ考古学財団調査報告208　湘南新道関連遺跡Ⅰ　大会原遺跡　六ノ域遺跡,,
402,FALSE,TRUE,TRUE,,PLD-4386,1879,23,AMS,-25.43,NA,Charred Seed,炭化米,carbonized rice (Oryza sativa),SI01-P03,打出遺跡,Uchiideiseki,富山市打出,36.75278056,137.1835306,Toyama,Chubu,Rekihaku 14C Database,2006,富山市埋蔵文化財調査報告7　打出遺跡発掘調査報告書,,
403,FALSE,TRUE,TRUE,,PLD-4593,1809,27,AMS,-26.09,NA,Charred Seed,炭化種実(イネ胚乳),carbonized seed/nuts rice (Oryza sativa),SI04 P04,打出遺跡,Uchiideiseki,富山市打出,36.75278056,137.1835306,Toyama,Chubu,Rekihaku 14C Database,2006,富山市埋蔵文化財調査報告7　打出遺跡発掘調査報告書,,
404,FALSE,TRUE,TRUE,,PLD-4737,1316,21,AMS,NA,-18.4,Charred Seed,炭化米,carbonized rice (Oryza sativa),Ａ地点,宮前遺跡,Miyamaeiseki,入間郡三芳町北永井,35.83726111,139.5165389,Saitama,Kanto,Rekihaku 14C Database,2006,三芳町埋蔵文化財報告32　町内遺跡発掘調査報告書Ⅵ,,
405,FALSE,TRUE,TRUE,,PLD-4875,2465,25,AMS,-25.41,NA,Charred Seed,"種実,コメ,",seed/nuts rice (Oryza sativa),"SB404住居跡,炭化物,炭化米,1988.6.3",大開遺跡,Daikaiiseki,神戸市兵庫区大開通,34.67551944,135.1693889,Hyogo,Kansai,Rekihaku 14C Database,2009,弥生農耕の起源と東アジア-炭素14年代測定による高精度編年体系の構築-平成16～20年文部科学省・科学研究費学術創成研究費　研究成果報告書,,
406,FALSE,TRUE,TRUE,,PLD-5104,2235,20,AMS,-25.24,NA,Charred Seed,"種実,コメ,",seed/nuts rice (Oryza sativa),"SK015ブロック8(床面直上),5(下部)",米竹遺跡,Yonetakeiseki,大分市小池原字米竹211番地の1,33.23648889,131.6634389,Oita,Kyushu,Rekihaku 14C Database,2009,弥生農耕の起源と東アジア-炭素14年代測定による高精度編年体系の構築-平成16～20年文部科学省・科学研究費学術創成研究費　研究成果報告書,,
407,FALSE,TRUE,TRUE,,PLD-5109,2185,25,AMS,-24.45,NA,Charred Seed,"種実,コメ,",seed/nuts rice (Oryza sativa),"95次,SK030床面出土",下郡遺跡,Shimogoriiseki,大分市大字下部,33.22326944,131.6260694,Oita,Kyushu,Rekihaku 14C Database,2009,弥生農耕の起源と東アジア-炭素14年代測定による高精度編年体系の構築-平成16～20年文部科学省・科学研究費学術創成研究費　研究成果報告書,,
408,FALSE,TRUE,TRUE,,PLD-5111,2165,20,AMS,-25.09,NA,Charred Seed,"種実,コメ,",seed/nuts rice (Oryza sativa),"51次,SK005甕の中から",下郡遺跡,Shimogoriiseki,大分市大字下部,33.22326944,131.6260694,Oita,Kyushu,Rekihaku 14C Database,2009,弥生農耕の起源と東アジア-炭素14年代測定による高精度編年体系の構築-平成16～20年文部科学省・科学研究費学術創成研究費　研究成果報告書,,
409,FALSE,TRUE,TRUE,,PLD-5987,1149,19,AMS,-24.55,NA,Charred Seed,炭化イネ胚乳,carbonized rice (Oryza sativa),SB4　P3,花小路遺跡,Hanakojiiseki,深谷市西大宿字花小路,36.20231944,139.2733,Saitama,Kanto,Rekihaku 14C Database,2008,埼玉県深谷市埋蔵文化財調査報告書第101集　花小路遺跡,,
410,FALSE,TRUE,TRUE,,PLD-6013,946,19,AMS,-23.9,NA,Charred Seed,炭化種実(イネ胚乳),carbonized seed/nuts rice (Oryza sativa),SI131･140,土飛山館跡,Dobiyamadateato,大館市豊町,40.27346111,140.5530389,Akita,Tohoku,Rekihaku 14C Database,2007,秋田県文化財調査報告書第425集　土飛山館跡,,
411,FALSE,TRUE,TRUE,,PLD-6014,887,19,AMS,-25.37,NA,Charred Seed,炭化種実(イネ穎果),carbonized seed/nuts rice (Oryza sativa),SI132-P2,土飛山館跡,Dobiyamadateato,大館市豊町,40.27346111,140.5530389,Akita,Tohoku,Rekihaku 14C Database,2007,秋田県文化財調査報告書第425集　土飛山館跡,,
412,FALSE,TRUE,TRUE,,PLD-6149,1193,22,AMS,-27.61,NA,Charred Seed,炭化イネ胚乳,carbonized rice (Oryza sativa),第32号建物跡周辺,幡羅遺跡,Haraiseki,深谷市東方,36.17718889,139.3191389,Saitama,Kanto,Rekihaku 14C Database,2007,埼玉県深谷市埋蔵文化財発掘調査報告書第88集　幡羅遺跡Ⅱ,,
413,FALSE,TRUE,TRUE,,PLD-6199,1605,25,AMS,-25.51,NA,Charred Seed,炭化種実(イネ炭化胚乳),carbonized seed/nuts rice (Oryza sativa),5区　住47カマド,山門北池遺跡,Yamatokitaikeiseki,みやま市瀬高町山門字北池･字前田,33.15188056,130.4982111,Fukuoka,Kyushu,Rekihaku 14C Database,2007,九州新幹線関係埋蔵文化財調査報告　第6集　山門北池遺跡,,
414,FALSE,TRUE,TRUE,,PLD-6458,2080,35,AMS,-24.87,NA,Charred Seed,"種実,コメ,",seed/nuts rice (Oryza sativa),"51次,SK005甕の中から",下郡遺跡,Shimogoriiseki,大分市大字下部,33.22326944,131.6260694,Oita,Kyushu,Rekihaku 14C Database,2009,弥生農耕の起源と東アジア-炭素14年代測定による高精度編年体系の構築-平成16～20年文部科学省・科学研究費学術創成研究費　研究成果報告書,,
415,FALSE,TRUE,TRUE,,PLD-6459,2125,35,AMS,-28.5,NA,Charred Seed,"種実,コメ,",seed/nuts rice (Oryza sativa),"51次,SK005甕の中から",下郡遺跡,Shimogoriiseki,大分市大字下部,33.22326944,131.6260694,Oita,Kyushu,Rekihaku 14C Database,2009,弥生農耕の起源と東アジア-炭素14年代測定による高精度編年体系の構築-平成16～20年文部科学省・科学研究費学術創成研究費　研究成果報告書,,
416,FALSE,TRUE,TRUE,,PLD-6460,2080,35,AMS,-27.39,NA,Charred Seed,"種実,コメ,",seed/nuts rice (Oryza sativa),"51次,SK005甕の中から",下郡遺跡,Shimogoriiseki,大分市大字下部,33.22326944,131.6260694,Oita,Kyushu,Rekihaku 14C Database,2009,弥生農耕の起源と東アジア-炭素14年代測定による高精度編年体系の構築-平成16～20年文部科学省・科学研究費学術創成研究費　研究成果報告書,,
417,FALSE,TRUE,TRUE,,PLD-6461,2140,35,AMS,-21.24,NA,Charred Seed,"種実,コメ,",seed/nuts rice (Oryza sativa),"51次,SK005甕の中から",下郡遺跡,Shimogoriiseki,大分市大字下部,33.22326944,131.6260694,Oita,Kyushu,Rekihaku 14C Database,2009,弥生農耕の起源と東アジア-炭素14年代測定による高精度編年体系の構築-平成16～20年文部科学省・科学研究費学術創成研究費　研究成果報告書,,
418,FALSE,TRUE,TRUE,,PLD-6462,2125,35,AMS,-28.8,NA,Charred Seed,"種実,コメ,",seed/nuts rice (Oryza sativa),"51次,SK005甕の中から",下郡遺跡,Shimogoriiseki,大分市大字下部,33.22326944,131.6260694,Oita,Kyushu,Rekihaku 14C Database,2009,弥生農耕の起源と東アジア-炭素14年代測定による高精度編年体系の構築-平成16～20年文部科学省・科学研究費学術創成研究費　研究成果報告書,,
419,FALSE,TRUE,TRUE,,PLD-6463,2175,30,AMS,-23.44,NA,Charred Seed,"種実,コメ,",seed/nuts rice (Oryza sativa),"51次,SK005甕の中から",下郡遺跡,Shimogoriiseki,大分市大字下部,33.22326944,131.6260694,Oita,Kyushu,Rekihaku 14C Database,2009,弥生農耕の起源と東アジア-炭素14年代測定による高精度編年体系の構築-平成16～20年文部科学省・科学研究費学術創成研究費　研究成果報告書,,
420,FALSE,TRUE,TRUE,,PLD-6473,316,17,AMS,-26.08,NA,Charred Seed,炭化種実(イネ胚乳),carbonized seed/nuts rice (Oryza sativa),東3号墓,小井川遺跡,Koikawaiseki,中央市布施,35.60436944,138.5222306,Yamanashi,Chubu,Rekihaku 14C Database,2008,山梨県埋蔵文化財センター調査報告書第255集　小井川遺跡Ⅲ,,
421,FALSE,TRUE,TRUE,,PLD-6474,355,16,AMS,-23.57,NA,Charred Seed,炭化種実(イネ胚乳),carbonized seed/nuts rice (Oryza sativa),東4号墓　下層,小井川遺跡,Koikawaiseki,中央市布施,35.60436944,138.5222306,Yamanashi,Chubu,Rekihaku 14C Database,2008,山梨県埋蔵文化財センター調査報告書第255集　小井川遺跡Ⅲ,,
422,FALSE,TRUE,TRUE,,PLD-6475,328,16,AMS,-25.34,NA,Charred Seed,炭化種実(イネ胚乳),carbonized seed/nuts rice (Oryza sativa),東地区　2号墓　下層,小井川遺跡,Koikawaiseki,中央市布施,35.60436944,138.5222306,Yamanashi,Chubu,Rekihaku 14C Database,2008,山梨県埋蔵文化財センター調査報告書第255集　小井川遺跡Ⅲ,,
423,FALSE,TRUE,TRUE,,PLD-6476,317,18,AMS,-24.08,NA,Charred Seed,炭化種実(イネ胚乳),carbonized seed/nuts rice (Oryza sativa),西地区　1号墓　中層,小井川遺跡,Koikawaiseki,中央市布施,35.60436944,138.5222306,Yamanashi,Chubu,Rekihaku 14C Database,2008,山梨県埋蔵文化財センター調査報告書第255集　小井川遺跡Ⅲ,,
424,FALSE,TRUE,TRUE,,PLD-6477,308,16,AMS,-24.1,NA,Charred Seed,炭化種実(イネ胚乳),carbonized seed/nuts rice (Oryza sativa),西地区　2号墓　下層,小井川遺跡,Koikawaiseki,中央市布施,35.60436944,138.5222306,Yamanashi,Chubu,Rekihaku 14C Database,2008,山梨県埋蔵文化財センター調査報告書第255集　小井川遺跡Ⅲ,,
425,FALSE,TRUE,TRUE,,PLD-6478,289,17,AMS,-24.26,NA,Charred Seed,炭化種実(イネ胚乳),carbonized seed/nuts rice (Oryza sativa),G494　板の下の黒色層　下層,小井川遺跡,Koikawaiseki,中央市布施,35.60436944,138.5222306,Yamanashi,Chubu,Rekihaku 14C Database,2008,山梨県埋蔵文化財センター調査報告書第255集　小井川遺跡Ⅲ,,
426,FALSE,TRUE,TRUE,,PLD-8046,1895,20,AMS,-25.4,NA,Charred Seed,炭化米,carbonized rice (Oryza sativa),SI051　床面,高柳･下安田遺跡,Takayanagi・Shimoyasudaiseki,坂井市丸岡町高柳,36.13243889,136.26035,Fukui,Chubu,Rekihaku 14C Database,2010,福井県埋蔵文化財調査報告第112集　高柳･下安田遺跡,,
427,FALSE,TRUE,TRUE,,PLD-8810,1860,25,AMS,-25.83,NA,Charred Seed,"種実,コメ,",seed/nuts rice (Oryza sativa),C7-4　1423,南山畑遺跡,Minamiyamahataiseki,豊田市広川町８丁目、９丁目地内,35.08278056,137.1779806,Aichi,Chubu,Rekihaku 14C Database,2009,弥生農耕の起源と東アジア-炭素14年代測定による高精度編年体系の構築-平成16～20年文部科学省・科学研究費学術創成研究費　研究成果報告書,,
428,FALSE,TRUE,TRUE,,PLD-9712,1855,25,AMS,-26.3,NA,Charred Seed,"種実,コメ,",seed/nuts rice (Oryza sativa),"J1号住居跡,旧23住居跡,炉内覆土",新井三丁目遺跡,Araisanchomeiseki,中野区新井三丁目,35.71583056,139.6619611,Tokyo,Kanto,Rekihaku 14C Database,2009,弥生農耕の起源と東アジア-炭素14年代測定による高精度編年体系の構築-平成16～20年文部科学省・科学研究費学術創成研究費　研究成果報告書,,
429,FALSE,TRUE,TRUE,,PLD-9713,1900,25,AMS,-26.08,NA,Charred Seed,"種実,コメ,",seed/nuts rice (Oryza sativa),"J1号住居跡,旧23住居跡,炉内覆土",新井三丁目遺跡,Araisanchomeiseki,中野区新井三丁目,35.71583056,139.6619611,Tokyo,Kanto,Rekihaku 14C Database,2009,弥生農耕の起源と東アジア-炭素14年代測定による高精度編年体系の構築-平成16～20年文部科学省・科学研究費学術創成研究費　研究成果報告書,,
430,FALSE,TRUE,TRUE,,PLD-9714,1875,20,AMS,-22.79,NA,Charred Seed,"種実,コメ,",seed/nuts rice (Oryza sativa),"J1号住居跡,旧23住居跡,炉内覆土",新井三丁目遺跡,Araisanchomeiseki,中野区新井三丁目,35.71583056,139.6619611,Tokyo,Kanto,Rekihaku 14C Database,2009,弥生農耕の起源と東アジア-炭素14年代測定による高精度編年体系の構築-平成16～20年文部科学省・科学研究費学術創成研究費　研究成果報告書,,
431,FALSE,TRUE,TRUE,,PLD-9715,1840,25,AMS,-22.68,NA,Charred Seed,"種実,コメ,",seed/nuts rice (Oryza sativa),"K2号住居跡,旧27住居跡,炉址（南側）",新井三丁目遺跡,Araisanchomeiseki,中野区新井三丁目,35.71583056,139.6619611,Tokyo,Kanto,Rekihaku 14C Database,2009,弥生農耕の起源と東アジア-炭素14年代測定による高精度編年体系の構築-平成16～20年文部科学省・科学研究費学術創成研究費　研究成果報告書,,
432,FALSE,TRUE,TRUE,,PLD-9716,1850,25,AMS,-24.9,NA,Charred Seed,"種実,コメ,",seed/nuts rice (Oryza sativa),"Y65号住居跡,旧47住居跡,柱穴B",新井三丁目遺跡,Araisanchomeiseki,中野区新井三丁目,35.71583056,139.6619611,Tokyo,Kanto,Rekihaku 14C Database,2009,弥生農耕の起源と東アジア-炭素14年代測定による高精度編年体系の構築-平成16～20年文部科学省・科学研究費学術創成研究費　研究成果報告書,,
433,FALSE,TRUE,TRUE,,PLD-9717,1905,25,AMS,-26.55,NA,Charred Seed,"種実,コメ,",seed/nuts rice (Oryza sativa),"Y146号住居跡,旧56住居跡,炉址燃焼面,下部",新井三丁目遺跡,Araisanchomeiseki,中野区新井三丁目,35.71583056,139.6619611,Tokyo,Kanto,Rekihaku 14C Database,2009,弥生農耕の起源と東アジア-炭素14年代測定による高精度編年体系の構築-平成16～20年文部科学省・科学研究費学術創成研究費　研究成果報告書,,
434,TRUE,FALSE,,,PLN-926701,2154,36,AMS,-24.45,NA,Seed,オニグルミ核,walnut (Juglans ailanthifolia),A区　水田区画1　Ⅲ層,家ノ内遺跡,Ienochiiseki,新発田市上今泉,37.98581944,139.3557111,Niigata,Chubu,Rekihaku 14C Database,2006,家ノ内遺跡発掘調査報告書,,
435,TRUE,FALSE,,,PLN-926702,912,33,AMS,-25.66,NA,Wood,スギ,Japanese cedar (Cryptomeria japonica),A区　水田区画2　Ⅲ層,家ノ内遺跡,Ienochiiseki,新発田市上今泉,37.98581944,139.3557111,Niigata,Chubu,Rekihaku 14C Database,2006,家ノ内遺跡発掘調査報告書,,
436,TRUE,FALSE,,,PLN-926703,865,34,AMS,-30.56,NA,Wood,クリ,chestnut (Castanea crenata),B区　水田区画5　Ⅲ層,家ノ内遺跡,Ienochiiseki,新発田市上今泉,37.98581944,139.3557111,Niigata,Chubu,Rekihaku 14C Database,2006,家ノ内遺跡発掘調査報告書,,
437,TRUE,FALSE,,,PLN-926704,905,34,AMS,-31.76,NA,Wood,ハンノキ属,alder (Alnus sp.)​,A区　水田区画9　Ⅳ層,家ノ内遺跡,Ienochiiseki,新発田市上今泉,37.98581944,139.3557111,Niigata,Chubu,Rekihaku 14C Database,2006,家ノ内遺跡発掘調査報告書,,
438,TRUE,FALSE,,,PLN-926705,1512,38,AMS,-26.53,NA,Seed,オニグルミ核,walnut (Juglans ailanthifolia),A区　水田区画9　Ⅳ層,家ノ内遺跡,Ienochiiseki,新発田市上今泉,37.98581944,139.3557111,Niigata,Chubu,Rekihaku 14C Database,2006,家ノ内遺跡発掘調査報告書,,
439,TRUE,FALSE,,,PLN-926708,741,36,AMS,-31.45,NA,Wood,クリ,chestnut (Castanea crenata),A区　水田区画10　Ⅳ層,家ノ内遺跡,Ienochiiseki,新発田市上今泉,37.98581944,139.3557111,Niigata,Chubu,Rekihaku 14C Database,2006,家ノ内遺跡発掘調査報告書,,
440,FALSE,TRUE,TRUE,,TERRA-578#10,173,35,AMS,NA,NA,Charred Seed,"種実,コメ,",seed/nuts rice (Oryza sativa),"住居跡,道路32号",風張(1)遺跡,Kazahari(1)Iseki,"八戸市大字是川字えぞ森7-60,40-1他",40.46616111,141.4994806,Aomori,Tohoku,Rekihaku 14C Database,2009,弥生農耕の起源と東アジア-炭素14年代測定による高精度編年体系の構築-平成16～20年文部科学省・科学研究費学術創成研究費　研究成果報告書,,
441,FALSE,TRUE,TRUE,,Tka-11782,160,90,AMS,NA,NA,Charred Seed,炭化種子(イネ),carbonized seed rice (Oryza sativa),D地区リー5･001 10･11号住居址,四葉地区遺跡,Yotsubachikuiseki,板橋区徳丸・四葉,35.77168056,139.6655111,Tokyo,Kanto,Rekihaku 14C Database,2000,板橋区四葉地区遺跡調査報告Ⅶ　四葉地区遺跡　平成11年度【本文編(中近世･古代･弥生時代編)】,,
442,TRUE,FALSE,,,Tka-15530,400,40,AMS,NA,-27.8,Lacquer,木胎漆器,Laquer on wood,2011年度F区　　28グリッド水田直下泥炭(4層)　木胎漆器,卯ノ木泥炭層遺跡,Unokideitansoiseki,中魚沼郡津南町下船渡乙字卯ノ木,37.02681944,138.67255,Niigata,Chubu,Rekihaku 14C Database,2013,國學院大學文学部考古学実習報告第47集　本ノ木遺跡･卯ノ木泥炭層遺跡　2009〜2011年度発掘調査報告書,,
443,TRUE,FALSE,,,UGAMS-R02630,20,40,NA,NA,NA,Charred Remain,炭化材,carbonized material,試料番号:07R0712　1区第２水田面検出杭列,上多々良遺跡,Kamitataraiseki,延岡市岡富町字上多々良,32.58821111,131.6599306,Miyazaki,Kyushu,Rekihaku 14C Database,2011,上多々良遺跡　延岡市文化財報告書　第45集　岡富古川土地区画整理事業に伴う埋蔵文化財発掘調査報告書　,,
444,FALSE,TRUE,TRUE,,Missing1,260,70,Beta Counting,NA,NA,Seed,米,rice (Oryza sativa),Ⅰ-1　Ⅲ,柳田館遺跡,Yanagidatateiseki,紫波郡紫波町片寄字中平,39.52868056,141.0922694,Iwate,Tohoku,Rekihaku 14C Database,1980,岩手県文化財調査報告書第53集　東北縦貫自動車道関係埋蔵文化財調査報告書Ⅳ(柳田館遺跡),Missing Lab Code,Yes
445,FALSE,TRUE,TRUE,,Missing2,225,70,Beta Counting,NA,NA,Seed,米,rice (Oryza sativa),Ⅲ-13削平地西辺の土塁Ⅱ,柳田館遺跡,Yanagidatateiseki,紫波郡紫波町片寄字中平,39.52868056,141.0922694,Iwate,Tohoku,Rekihaku 14C Database,1980,岩手県文化財調査報告書第53集　東北縦貫自動車道関係埋蔵文化財調査報告書Ⅳ(柳田館遺跡),Missing Lab Code,Yes
446,FALSE,TRUE,TRUE,,Missing3,315,19,AMS,-24.64,NA,Charred Seed,炭化米,carbonized rice (Oryza sativa),SD02,宮田館跡,Miyatayakataato,横手市大雄字田町,39.3301,140.4530306,Akita,Tohoku,Rekihaku 14C Database,2011,横手市文化財調査報告第19集　宮田館跡･島田遺跡,Missing Lab Code,Yes
447,FALSE,TRUE,TRUE,,Missing4,340,40,AMS,-13.21,NA,Charred Seed,炭化米,carbonized rice (Oryza sativa),1号堀跡　E区,新田舘跡,Shindentateato,須賀川市仁井田字舘内,37.33086944,140.32205,Fukushima,Tohoku,Rekihaku 14C Database,2006,須賀川市文化財調査報告書第53集　仁井田地区ほ場整備事業関連遺跡発掘調査報告Ⅵ　新田舘跡,Missing Lab Code,Yes
448,FALSE,TRUE,TRUE,,Missing5,1270,40,AMS,NA,NA,Charred Seed,炭化米,carbonized rice (Oryza sativa),第16次調査地点　SX1601,泉廃寺跡,Izumihaiji,南相馬市原町区字寺家前,37.60768889,140.8616,Fukushima,Tohoku,Rekihaku 14C Database,2007,南相馬市埋蔵文化財調査報告書第6集　泉廃寺跡,Missing Lab Code,Yes
449,FALSE,TRUE,TRUE,,Missing6,1200,40,AMS,NA,NA,Charred Seed,炭化米,carbonized rice (Oryza sativa),第16次調査地点　SX1601,泉廃寺跡,Izumihaiji,南相馬市原町区字寺家前,37.60768889,140.8616,Fukushima,Tohoku,Rekihaku 14C Database,2007,南相馬市埋蔵文化財調査報告書第6集　泉廃寺跡,Missing Lab Code,Yes
450,FALSE,TRUE,TRUE,,Missing7,300,40,AMS,NA,NA,Charred Seed,炭化米,carbonized rice (Oryza sativa),トレンチ内(T-2)　4-③層,増山城跡,Masuyamajoseki,砺波市増山字一の丸,36.65418889,137.0394306,Toyama,Chubu,Rekihaku 14C Database,2003,平成14年度増山城跡総合調査概報　増山城跡Ⅵ,Missing Lab Code,Yes
451,FALSE,TRUE,TRUE,,Missing8,2068,20,AMS,-24.89,NA,Charred Seed,炭化種実(イネ胚乳),carbonized seed/nuts rice (Oryza sativa),SB09　炉1,森平遺跡,Moridairaiseki,佐久市大字横和,36.2566,138.4523,Nagano,Chubu,Rekihaku 14C Database,2014,長野県埋蔵文化財センター発掘調査報告書107　森平遺跡　寄塚遺跡群　今井西原遺跡　今井宮の前遺跡　中部横断自動車道建設に伴う埋蔵文化財発掘調査報告書5　佐久市内5,Missing Lab Code,Yes
452,FALSE,TRUE,TRUE,,Missing9,2087,23,AMS,-25.68,NA,Charred Seed,炭化種実(イネ胚乳),carbonized seed/nuts rice (Oryza sativa),SB17　炉埋土,森平遺跡,Moridairaiseki,佐久市大字横和,36.2566,138.4523,Nagano,Chubu,Rekihaku 14C Database,2014,長野県埋蔵文化財センター発掘調査報告書107　森平遺跡　寄塚遺跡群　今井西原遺跡　今井宮の前遺跡　中部横断自動車道建設に伴う埋蔵文化財発掘調査報告書5　佐久市内5,Missing Lab Code,Yes
453,TRUE,FALSE,,,Missing10,1715,60,Beta Counting,NA,NA,Wood,木材,material wood,矢板　水田畦畔,山木遺跡,Yamakiiseki,伊豆の国市韮山山木,35.05711111,138.9736889,Shizuoka,Chubu,Rekihaku 14C Database,1969,山木遺跡　第二次調査概報,Missing Lab Code,Yes
454,TRUE,FALSE,,,Missing11,1140,50,AMS,NA,-27,Other unknown samples,不明,unknown,試料:①　低地部水田跡　南壁土層　5層,梅白遺跡,Umejiroiseki,唐津市大字原字梅白,33.42206944,129.9971,Saga,Kyushu,Rekihaku 14C Database,2003,佐賀県文化財調査報告書　第154集　梅白遺跡　-西九州自動車道建設に係る文化財調査報告書(2)-,Missing Lab Code,Yes
455,TRUE,FALSE,,,Missing12,1300,60,Beta Counting,NA,-27.6,Other unknown samples,不明,unknown,試料:②　低地部水田跡　南壁土層　6層最下部,梅白遺跡,Umejiroiseki,唐津市大字原字梅白,33.42206944,129.9971,Saga,Kyushu,Rekihaku 14C Database,2003,佐賀県文化財調査報告書　第154集　梅白遺跡　-西九州自動車道建設に係る文化財調査報告書(2)-,Missing Lab Code,Yes
456,TRUE,FALSE,,,Missing13,1280,70,Beta Counting,NA,-27,Other unknown samples,不明,unknown,試料:③　低地部水田跡　南壁土層　コモ層最下部,梅白遺跡,Umejiroiseki,唐津市大字原字梅白,33.42206944,129.9971,Saga,Kyushu,Rekihaku 14C Database,2003,佐賀県文化財調査報告書　第154集　梅白遺跡　-西九州自動車道建設に係る文化財調査報告書(2)-,Missing Lab Code,Yes
457,TRUE,FALSE,,,Missing14,3360,60,AMS,NA,-23.8,Other unknown samples,不明,unknown,試料:④　低地部水田跡　南壁土層　,梅白遺跡,Umejiroiseki,唐津市大字原字梅白,33.42206944,129.9971,Saga,Kyushu,Rekihaku 14C Database,2003,佐賀県文化財調査報告書　第154集　梅白遺跡　-西九州自動車道建設に係る文化財調査報告書(2)-,Missing Lab Code,Yes
458,TRUE,FALSE,,,Missing15,2490,50,Beta Counting,NA,-26.9,Seed,種実(アカガシ亜属),seed/nuts Japanese evergreen oak (Quercus acuta),試料:⑤　水田跡最下層　堅果類がつまった土坑(ドングリ土坑)出土,梅白遺跡,Umejiroiseki,唐津市大字原字梅白,33.42206944,129.9971,Saga,Kyushu,Rekihaku 14C Database,2003,佐賀県文化財調査報告書　第154集　梅白遺跡　-西九州自動車道建設に係る文化財調査報告書(2)-,Missing Lab Code,Yes
459,FALSE,TRUE,TRUE,,Missing16,2060,40,AMS,NA,-24.7,Charred Seed,炭化米,carbonized rice (Oryza sativa),②SA3,向原第1遺跡,Mukobarudai1iseki,児湯郡新富町大字新田字綿内14330-2,32.08913056,131.4439194,Miyazaki,Kyushu,Rekihaku 14C Database,2006,宮崎県埋蔵文化財センター発掘調査報告書　第119集　　向原第1遺跡　東九州自動車道(都農〜西都間)建設に伴う埋蔵文化財発掘調査報告書24,Missing Lab Code,Yes
460,FALSE,TRUE,TRUE,,Missing17,1990,40,AMS,NA,-23.2,Charred Seed,炭化種実(イネ),carbonized seed/nuts rice (Oryza sativa),③SA4-5,八幡第2遺跡,Hachimandai2iseki,児湯郡川南町大字川南字八幡山,32.243055,131.513611,Miyazaki,Kyushu,Rekihaku 14C Database,2007,宮崎県埋蔵文化財センター発掘調査報告書　第148集　八幡第2遺跡　東九州自動車道(都農〜西都間)建設に伴う埋蔵文化財発掘調査報告書43,Missing Lab Code / Coordinate updated via nabunken,Yes
461,FALSE,TRUE,TRUE,,Missing18,727,18,AMS,-25.62,NA,Charred Seed,炭化種実(イネ･胚乳),carbonized seed/nuts rice (Oryza sativa),"分析番号:22　S93
Code №:10493-3",海舞寺遺跡,Kaimaijiiseki,延岡市北浦町古江字海舞寺,32.70021944,131.8075306,Miyazaki,Kyushu,Rekihaku 14C Database,2010,宮崎県埋蔵文化財センター発掘調査報告書　第189集　海舞寺遺跡･市之串遺跡･中野内遺跡･森ノ上遺跡(弥生･古墳時代編)･力ラ石の元遺跡　東九州自動車道(県境〜北川間)建設に伴う埋蔵文化財発掘調査報告書1,Missing Lab Code,Yes
462,FALSE,TRUE,TRUE,,Missing19,768,17,AMS,-25.43,NA,Charred Seed,炭化種実(イネ･胚乳),carbonized seed/nuts rice (Oryza sativa),"分析番号:26　S110
Code №:10493-4 ",海舞寺遺跡,Kaimaijiiseki,延岡市北浦町古江字海舞寺,32.70021944,131.8075306,Miyazaki,Kyushu,Rekihaku 14C Database,2010,宮崎県埋蔵文化財センター発掘調査報告書　第189集　海舞寺遺跡･市之串遺跡･中野内遺跡･森ノ上遺跡(弥生･古墳時代編)･力ラ石の元遺跡　東九州自動車道(県境〜北川間)建設に伴う埋蔵文化財発掘調査報告書1,Missing Lab Code,Yes
463,FALSE,TRUE,TRUE,,Missing20,1726,19,AMS,-25.62,NA,Charred Seed,炭化種実(イネ･胚乳),carbonized seed/nuts rice (Oryza sativa),"分析番号:171　SA4土器中
Code №:10493-15",森ノ上遺跡,Morinoeiseki,延岡市北浦町古江字森ノ上･松ノ木,32.70021944,131.8075306,Miyazaki,Kyushu,Rekihaku 14C Database,2010,宮崎県埋蔵文化財センター発掘調査報告書　第189集　海舞寺遺跡･市之串遺跡･中野内遺跡･森ノ上遺跡(弥生･古墳時代編)･力ラ石の元遺跡　東九州自動車道(県境〜北川間)建設に伴う埋蔵文化財発掘調査報告書1,Missing Lab Code,Yes
464,FALSE,TRUE,TRUE,,Missing21,265,20,AMS,NA,NA,Charred Seed,炭化種実(炭化米),carbonized seed/nuts rice (Oryza sativa),18号土坑,穆佐城跡,Mukasajoato,宮崎市高岡町小山田926､925-4,31.93323889,131.3235806,Miyazaki,Kyushu,Rekihaku 14C Database,2010,宮崎市文化財調査報告書　第79集　史跡穆佐城跡　　穆佐城跡保存整備に伴う埋蔵文化財発掘調査報告書(Ⅳ),Missing Lab Code,Yes
465,FALSE,TRUE,TRUE,,Missing22,650,20,Beta Counting,NA,NA,Charred Seed,炭化米,carbonized rice (Oryza sativa),長者山調査区･礎石建築址,鞠智城跡,Kikuchijoato,鹿本郡菊鹿町･菊池市,33.02808056,130.7596694,Kumamoto,Kyushu,Rekihaku 14C Database,1991,熊本県文化財調査報告　第116集　鞠智城跡,Missing Lab Code;Updated coordinate and changed site name,Yes
466,FALSE,TRUE,TRUE,,IAAA-170355,2695,21,,-23.01,,Charred Seed,炭化米,carbonized rice (Oryza sativa),F-8-c 区 層位：Xa-10-17,宇木汲田貝塚,Ukikundenkaizuka,,33.411,130.0087,Saga,Kyushu,Miyamoto 2021,2021,http://doi.org/10.24484/sitereports.90408,,
467,FALSE,TRUE,TRUE,,IAAA-170356,2640,22,,-25.92,,Charred Seed,炭化米,carbonized rice (Oryza sativa),G-8-c・G-9-d 区 層位：Xa-9-67・Xa-9-70,宇木汲田貝塚,Ukikundenkaizuka,,33.411,130.0087,Saga,Kyushu,Miyamoto 2021,2021,http://doi.org/10.24484/sitereports.90408,,
468,FALSE,TRUE,TRUE,,IAAA-170357,2709,22,,-21.08,,Charred Seed,炭化米,carbonized rice (Oryza sativa),F-8-c・d ？区 層位 IXa-4-17,宇木汲田貝塚,Ukikundenkaizuka,,33.411,130.0087,Saga,Kyushu,Miyamoto 2021,2021,http://doi.org/10.24484/sitereports.90408,,
469,FALSE,TRUE,TRUE,,IAAA-171860,2681,22,,-22.55,,Charred Seed,炭化米,carbonized rice (Oryza sativa),F-8-d 区 層 Ⅸ a-3層,宇木汲田貝塚,Ukikundenkaizuka,,33.411,130.0087,Saga,Kyushu,Miyamoto 2021,2021,http://doi.org/10.24484/sitereports.90408,,
470,FALSE,TRUE,TRUE,,IAAA-201348,2710,24,,-25.29,,Charred Seed,炭化米,carbonized rice (Oryza sativa),F-8c 層位：Xa-10-17層（no.1）,宇木汲田貝塚,Ukikundenkaizuka,,33.411,130.0087,Saga,Kyushu,Miyamoto 2021,2021,http://doi.org/10.24484/sitereports.90408,,
471,FALSE,TRUE,TRUE,,IAAA-201349,2592,22,,-25.87,,Charred Seed,炭化米,carbonized rice (Oryza sativa),F-8cd 層位：IXa-4-9層（no.1）,宇木汲田貝塚,Ukikundenkaizuka,,33.411,130.0087,Saga,Kyushu,Miyamoto 2021,2021,http://doi.org/10.24484/sitereports.90408,,
472,FALSE,TRUE,TRUE,,Poz-115541,2420,30,,,,Charred Seed,,carbonized rice (Oryza sativa),SK138,力石条里遺跡群,Chikaraishijoriisekigun,,36.46926111,138.1443806,Nagano,Chubu,Leipe et al 2020,2020,10.1016/j.quascirev.2020.106507,,
473,FALSE,TRUE,TRUE,,Poz-115543,2370,30,,,,Charred Seed,,carbonized rice (Oryza sativa),SK1405,力石条里遺跡群,Chikaraishijoriisekigun,,36.46926111,138.1443806,Nagano,Chubu,Leipe et al 2020,2020,10.1016/j.quascirev.2020.106507,,
474,FALSE,TRUE,TRUE,,Poz-115542,2190,30,,,,Charred Seed,,carbonized rice (Oryza sativa),SK1405,力石条里遺跡群,Chikaraishijoriisekigun,,36.46926111,138.1443806,Nagano,Chubu,Leipe et al 2020,2020,10.1016/j.quascirev.2020.106507,,
475,FALSE,TRUE,TRUE,,NUTA2-13612,366,20,AMS,-27,,Charred Seed,イネ,carbonized rice (Oryza sativa),,新府城跡,Shinpujoato,,35.735833,138.425278,Yamanashi,Chubu,Leipe et al 2020; Nakamura et al 2010,2010,https://nagoya.repo.nii.ac.jp/record/12868/files/21-24.pdf,,
476,FALSE,TRUE,TRUE,,NUTA2-13610,365,21,AMS,-28,,Charred Seed,イネ,carbonized rice (Oryza sativa),,新府城跡,Shinpujoato,,35.735833,138.425278,Yamanashi,Chubu,Leipe et al 2020; Nakamura et al 2010,2010,https://nagoya.repo.nii.ac.jp/record/12868/files/21-24.pdf,,
477,FALSE,TRUE,TRUE,,NUTA2-13611,333,21,AMS,-27,,Charred Seed,イネ,carbonized rice (Oryza sativa),,新府城跡,Shinpujoato,,35.735833,138.425278,Yamanashi,Chubu,Leipe et al 2020; Nakamura et al 2010,2010,https://nagoya.repo.nii.ac.jp/record/12868/files/21-24.pdf,,
478,FALSE,TRUE,TRUE,,Poz-113871,2100,30,,,,Charred Seed,,carbonized rice (Oryza sativa),F-04a/HE-04a,前中西遺跡,Maenakanishi,,36.15,139.4,Saitama,Kanto,Leipe et al 2021,2021,https://doi.org/10.1007/s00334-020-00791-1,,
479,FALSE,TRUE,TRUE,,"NUTA2-21,202",2007,50,,,,Charred Seed,,carbonized rice (Oryza sativa),F-01a /HE-01a,前中西遺跡,Maenakanishi,,36.15,139.4,Saitama,Kanto,Leipe et al 2021,2021,https://doi.org/10.1007/s00334-020-00791-1,,
480,FALSE,TRUE,TRUE,,"NUTA2-21,204",2120,40,,,,Charred Seed,,carbonized rice (Oryza sativa),F-09/HE-09,前中西遺跡,Maenakanishi,,36.15,139.4,Saitama,Kanto,Leipe et al 2021,2021,https://doi.org/10.1007/s00334-020-00791-1,,
481,FALSE,TRUE,TRUE,,"NUTA2-21,206",1981,90,,,,Charred Seed,,carbonized rice (Oryza sativa),F-06/HE-06,前中西遺跡,Maenakanishi,,36.15,139.4,Saitama,Kanto,Leipe et al 2021,2021,https://doi.org/10.1007/s00334-020-00791-1,,
482,FALSE,TRUE,TRUE,,MTC-17432,2090,30,AMS,-25.5,,Charred Seed,,carbonized rice (Oryza sativa),,岩崎遺跡群,Iwasakiisekigun,,33.222,130.546,Fukuoka,Kyushu,Shitara et al 2015,2015,https://doi.org/10.15083/00027590,,
483,FALSE,TRUE,TRUE,,Missing23,2395,30,AMS,,,Charred Seed,イネ炭化胚乳,carbonized rice (Oryza sativa),土坑２２,中屋敷遺跡,Nakayashikiiseki,足柄上郡大井町山田中屋敷,35.3347463,139.1673167,Kanagawa,Kanto,Yamamoto and Koizumi 2005,2005,https://doi.org/10.11215/nihonkokogaku1994.12.20_135,Missing Lab Code,Yes
484,FALSE,TRUE,TRUE,,Missing24,2320,30,AMS,,,Charred Seed,イネ炭化胚乳,carbonized rice (Oryza sativa),土坑２２,中屋敷遺跡,Nakayashikiiseki,足柄上郡大井町山田中屋敷,35.3347463,139.1673167,Kanagawa,Kanto,Yamamoto and Koizumi 2005,2005,https://doi.org/10.11215/nihonkokogaku1994.12.20_135,Missing Lab Code,Yes
485,FALSE,TRUE,TRUE,,PLD-7201,560,22,AMS,-26.53,,Charred Seed,炭化米,carbonized rice (Oryza sativa),SKI1810,払田柵跡,Hottasakuato,秋田県大仙市払田字真山,39.468,140.549,Akita,Tohoku,Nabunken,2007,http://doi.org/10.24484/sitereports.11964,,
486,FALSE,TRUE,TRUE,,PED-8085,2107,20,AMS,,,Charred Seed,炭化米,carbonized rice (Oryza sativa),SL1,諸麦遺跡,Moromugiiseki,都城市平塚町2937,31.71245,131.0228,Miyazaki,Kyushu,宮崎県埋蔵文化財センター発掘調査報告書　第168集　諸麦遺跡　一般国道10号都城道路建設に伴う埋蔵文化財発掘調査報告書2 宮崎県埋蔵文化財センター,2008,,,
487,FALSE,TRUE,TRUE,,PLD-31493,2127,20,AMS,-26.46,,Charred Seed,炭化米,carbonized rice (Oryza sativa),No.KYUS1,御供田遺跡,Gokudeniseki,春日市春日公園6丁目,33.523333,130.476944,Fukuoka,Kyushu,九州大学埋蔵文化財調査室 2021 『九州大学筑紫キャンパス遺跡群（御供田遺跡）総括報告書2－古墳時代・古代・中世編－』九州大学埋蔵文化財調査室報告6,2021,http://doi.org/10.24484/sitereports.90369,,
488,FALSE,TRUE,TRUE,,IAAA-180836,320,20,AMS,,-25.72,Charred Seed,炭化米,carbonized rice (Oryza sativa),遺構：溝跡2　床面 遺構：溝跡2　床面直上,忍館城跡,Shinobu tate shiroato,宮城県仙台市青葉区本町三丁目8-1,38.914722,141.590833,"Miyagi


",Tohoku,https://sitereports.nabunken.go.jp//files/attach/36/36031/70402_1_小屋館城跡・忍館城跡.pdf,2020,宮城県教育委員会 2020 『宮城県文化財調査報告書253：小屋館城跡・忍館城跡』宮城県教育委員会,,
489,FALSE,TRUE,TRUE,,PLD-36603,1824,18,AMS,,-25.14,Charred Seed,炭化米,carbonized rice (Oryza sativa),"SR301_稲束, 調査区:1区i, 試料№35, 層位:29層",小ブケ遺跡 第３次,Kobukeiseki (3rd stage),三重県多気郡明和町竹川503,34.760833,136.466944,Mie,Kansai,https://sitereports.nabunken.go.jp//files/attach/33/33803/54357_1_小ブケ遺跡第３次発掘調査報告.pdf,2019,三重県埋蔵文化財センター 2019 『三重県埋蔵文化財調査報告383：小ブケ遺跡（第３次）発掘調査報告』三重県埋蔵文化財センター,,
490,FALSE,TRUE,TRUE,,PLD-37857,1926,21,AMS,,-25.06,Charred Seed,イネ炭化種子,carbonized rice (Oryza sativa),遺物No.1（H29年度）,天王山遺跡,Tennoyamaiseki,福島県白河市八幡小路7-1,37.1281,140.2536,Fukushima,Tohoku,https://sitereports.nabunken.go.jp//files/attach/42/42732/94677_1_天王山遺跡.pdf,2021,白河市 2021 『天王山遺跡』白河市埋蔵文化財調査報告書第84集,,
491,FALSE,TRUE,TRUE,,PLD-37859,1230,21,AMS,,-23.48,Charred Seed,イネ炭化種子,carbonized rice (Oryza sativa),遺物No.31（S25年度）,天王山遺跡,Tennoyamaiseki,福島県白河市八幡小路7-1,37.1281,140.2536,Fukushima,Tohoku,https://sitereports.nabunken.go.jp//files/attach/42/42732/94677_1_天王山遺跡.pdf,2021,白河市 2021 『天王山遺跡』白河市埋蔵文化財調査報告書第84集,,
492,FALSE,TRUE,TRUE,,Beta-420403,2080,30,AMS,,,Charred Seed,炭化米,carbonized rice (Oryza sativa),13 地区 E5-10-1K ZS-YSZ1-Sの1炭 / carbonized rice (ISYZ-S1) E5-10-1K overburden in District 13,八日市地方遺跡,Yokaichijikataiseki,石川県小松市原町ト77-8,36.401666,136.456388,Ishikawa,Chubu,https://sitereports.nabunken.go.jp//files/attach/34/34134/62771_1_八日市地方遺跡V.pdf,2019,小松市埋蔵文化財センター 2019 『八日市地方遺跡 V5』小松市埋蔵文化財センター,,
493,FALSE,TRUE,TRUE,,Beta-420404,2250,30,AMS,,,Charred Seed,炭化米,carbonized rice (Oryza sativa),"26 地区 E6-a; 7 ～ 10 期 ISYZ-S2 の炭 / (ISYZ-S2) carbonized rice excavated from the middle layer of E6-a (buried shallow valley), District 26.",八日市地方遺跡,Yokaichijikataiseki,石川県小松市原町ト77-8,36.401666,136.456388,Ishikawa,Chubu,https://sitereports.nabunken.go.jp//files/attach/34/34134/62771_1_八日市地方遺跡V.pdf,2019,小松市埋蔵文化財センター 2019 『八日市地方遺跡 V5』小松市埋蔵文化財センター,,
494,FALSE,TRUE,TRUE,,YU-7197,824,20,AMS,,-25.56,Charred Seed,イネ胚乳,carbonized rice (Oryza sativa),No.4 石組遺構１号,小牧遺跡,Komaki iseki,鹿児島県霧島市国分上野原縄文の森２番１号,31.445833,130.945277,Kagoshima,Kyushu,https://sitereports.nabunken.go.jp//files/attach/38/38243/72330_1_小牧遺跡１古代～近世以降編.pdf || https://sitereports.nabunken.go.jp//files/attach/38/38244/72330_2_小牧遺跡１古代～近世以降編.pdf || https://sitereports.nabunken.go.jp//files/attach/38/38245/72330_3_小牧遺跡１古代～近世以降編.pdf || https://sitereports.nabunken.go.jp//files/attach/38/38246/72330_4_小牧遺跡１古代～近世以降編.pdf,2019,公益財団法人鹿児島県文化振興財団埋蔵文化財調査センター 2019 『公益財団法人鹿児島県文化振興財団 埋蔵文化財調査センター発掘調査報告書26：小牧遺跡１　古代～近世以降編』公益財団法人鹿児島県文化振興財団埋蔵文化財調査センター,,
495,FALSE,TRUE,TRUE,,YU-10196,1311,20,AMS,,-28.12,Charred Seed,イネ?,carbonized rice (Oryza sativa)?,竪穴建物跡16号SA32 No.5イネ?,春日堀遺跡１,Kasugabori Iseki 1,"Ariakecho-futsuhara148-2, 899-7503 Shibushi City, JP",31.4652,131.036538,Kagoshima,Kyushu,https://sitereports.nabunken.go.jp//files/attach/38/38267/72344_1_春日堀遺跡１縄文時代中期～近世編.pdf || https://sitereports.nabunken.go.jp//files/attach/38/38268/72344_2_春日堀遺跡１縄文時代中期～近世編.pdf || https://sitereports.nabunken.go.jp//files/attach/38/38269/72344_3_春日堀遺跡１縄文時代中期～近世編.pdf || https://sitereports.nabunken.go.jp//files/attach/38/38270/72344_4_春日堀遺跡１縄文時代中期～近世編.pdf,2020,公益財団法人鹿児島県文化振興財団埋蔵文化財調査センター 2020 『春日堀遺跡１　縄文時代中期～近世編』公益財団法人鹿児島県文化振興財団埋蔵文化財調査センター発掘調査報告書32,,
496,FALSE,TRUE,TRUE,,PLD-31079,206,19,AMS,,-27.78,Charred Seed,炭化米,carbonized rice (Oryza sativa),"調査区：4区, 遺構：4-SD1,位置：北壁⑯",富山城跡,Toyamajoseki,富山県富山市婦中町速星754番地　婦中行政サービスセンター本館3階,36.66140956,137.159974,Toyama,Chubu,https://sitereports.nabunken.go.jp//files/attach/33/33396/36062_1_富山城跡発掘調査報告書第二分冊.pdf || https://sitereports.nabunken.go.jp//files/attach/33/33397/36062_2_富山城跡発掘調査報告書第二分冊.pdf || https://sitereports.nabunken.go.jp//files/attach/33/33398/36062_3_富山城跡発掘調査報告書第二分冊.pdf || https://sitereports.nabunken.go.jp//files/attach/33/33399/36062_4_富山城跡発掘調査報告書第二分冊.pdf,2018,北陸航測株式会社 2018 『富山市埋蔵文化財調査報告93：富山城跡発掘調査報告書　第二分冊2』富山市教育委員会埋蔵文化財センター,,
497,FALSE,TRUE,TRUE,,PLD-25352,499,16,AMS,-25.68,,Seed,出土米,carbonized seed/nuts rice (Oryza sativa),,境関館遺跡,Sakaizekidateiseki,青森県青森市大字新城字天田内152-15,40.620555,140.508611,Aomori,Tohoku,Tanaka and Kamijo 2014,2014,"Tanaka, K., Kamijo, N. (Eds.), 2014. Ancient rice in Japan I. Research Center for Archaeology of Northern Japan, Hirosaki University, Hirosaki (in Japanese).",,
498,FALSE,TRUE,TRUE,,PLD-25353,1144,18,AMS,-26.5,,Seed,出土米,carbonized seed/nuts rice (Oryza sativa),,隠川(４)遺跡,Kakuregawa(4)iseki,青森県五所川原市大字持子沢字隠川616ほか,40.750833,140.54305,Aomori,Tohoku,Tanaka and Kamijo 2014,2014,"Tanaka, K., Kamijo, N. (Eds.), 2014. Ancient rice in Japan I. Research Center for Archaeology of Northern Japan, Hirosaki University, Hirosaki (in Japanese).",,
499,FALSE,TRUE,TRUE,,PLD-25354,435,19,AMS,-28.56,,Seed,出土米,carbonized seed/nuts rice (Oryza sativa),,砂沢平遺跡,Sunazawataiiseki,青森県南津軽郡大鰐町大字長峰字砂沢平126-1/126-2,40.510277,140.61277,Aomori,Tohoku,Tanaka and Kamijo 2014,2014,"Tanaka, K., Kamijo, N. (Eds.), 2014. Ancient rice in Japan I. Research Center for Archaeology of Northern Japan, Hirosaki University, Hirosaki (in Japanese).",,
500,FALSE,TRUE,TRUE,,PLD-25355,1138,20,AMS,-26.71,,Seed,出土米,carbonized seed/nuts rice (Oryza sativa),,大平遺跡,Oodaiiseki,青森県南津軽郡大鰐町大字長峰字杉浦平74,40.514722,140.60916,Aomori,Tohoku,Tanaka and Kamijo 2014,2014,"Tanaka, K., Kamijo, N. (Eds.), 2014. Ancient rice in Japan I. Research Center for Archaeology of Northern Japan, Hirosaki University, Hirosaki (in Japanese).",,
501,FALSE,TRUE,TRUE,,PLD-25356,963,19,AMS,-27.57,,Seed,出土米,carbonized seed/nuts rice (Oryza sativa),,前川遺跡C区,Maekawaiseki,青森県南津軽郡田舎館村大字田舎舘字前川201-1ほか,40.629444,140.543888,Aomori,Tohoku,Tanaka and Kamijo 2014,2014,"Tanaka, K., Kamijo, N. (Eds.), 2014. Ancient rice in Japan I. Research Center for Archaeology of Northern Japan, Hirosaki University, Hirosaki (in Japanese).",,
502,FALSE,TRUE,TRUE,,PLD-25357,639,19,AMS,-26.73,,Seed,出土米,carbonized seed/nuts rice (Oryza sativa),,前川遺跡CI区,Maekawaiseki,青森県南津軽郡田舎館村大字田舎舘字前川201-1ほか,40.629444,140.543888,Aomori,Tohoku,Tanaka and Kamijo 2014,2014,"Tanaka, K., Kamijo, N. (Eds.), 2014. Ancient rice in Japan I. Research Center for Archaeology of Northern Japan, Hirosaki University, Hirosaki (in Japanese).",,
503,FALSE,TRUE,TRUE,,PLD-25358,1893,18,AMS,-25.61,,Seed,出土米,carbonized seed/nuts rice (Oryza sativa),,橋原遺跡,Hashihara,〒394-0045 長野県岡谷市川岸東１丁目５,36.0537661,138.0391061,Nagano,Chubu,Tanaka and Kamijo 2014,2014,"Tanaka, K., Kamijo, N. (Eds.), 2014. Ancient rice in Japan I. Research Center for Archaeology of Northern Japan, Hirosaki University, Hirosaki (in Japanese).",,
504,FALSE,TRUE,TRUE,,PLD-25359,1940,17,AMS,-23.33,,Seed,出土米,carbonized seed/nuts rice (Oryza sativa),,榎田遺跡,Enokidaiseki,長野県長野市若穂綿内,36.6198,138.2719,Nagano,Chubu,Tanaka and Kamijo 2014,2014,"Tanaka, K., Kamijo, N. (Eds.), 2014. Ancient rice in Japan I. Research Center for Archaeology of Northern Japan, Hirosaki University, Hirosaki (in Japanese).",,
505,FALSE,TRUE,TRUE,,PLD-25360,2125,18,AMS,-25.87,,Seed,出土米,carbonized seed/nuts rice (Oryza sativa),,小塚遺跡IV,Kurokawakozukaiseki,群馬県富岡市黒川字小塚,36.205833,138.869444,Gunma,Kanto,Tanaka and Kamijo 2014,2014,"Tanaka, K., Kamijo, N. (Eds.), 2014. Ancient rice in Japan I. Research Center for Archaeology of Northern Japan, Hirosaki University, Hirosaki (in Japanese).",,
506,FALSE,TRUE,TRUE,,PLD-25361,292,16,AMS,-23.37,,Seed,出土米,carbonized seed/nuts rice (Oryza sativa),,行幸田西遺跡,Miyukidanishiiseki,,36.482,138.999,Gunma,Kanto,Tanaka and Kamijo 2014,2014,"Tanaka, K., Kamijo, N. (Eds.), 2014. Ancient rice in Japan I. Research Center for Archaeology of Northern Japan, Hirosaki University, Hirosaki (in Japanese).",,
507,FALSE,TRUE,TRUE,,PLD-25362,2140,17,AMS,-27.03,,Seed,出土米,carbonized seed/nuts rice (Oryza sativa),,平梨平遺跡,Hiranashidairaiseki,,36.644,138.1759,Nagano,Chubu,Tanaka and Kamijo 2014,2014,"Tanaka, K., Kamijo, N. (Eds.), 2014. Ancient rice in Japan I. Research Center for Archaeology of Northern Japan, Hirosaki University, Hirosaki (in Japanese).",,
508,FALSE,TRUE,TRUE,,PLD-27262,2274,20,AMS,-25.34,,Charred Seed,炭化種実(イネ),carbonized seed/nuts rice (Oryza sativa),第１１号袋状竪穴,板付遺跡,Itazukeiseki,福岡県福岡市博多区板付5丁目4-4ほか,33.563888,130.451944,Fukuoka,Kyushu,Tanaka et al 2015,2015,"Tanaka, K., Sato, Y.-I., Kamijo, N. (Eds.), 2015. Ancient rice in Japan II. Research Center for Archaeology of Northern Japan, Hirosaki University, Hirosaki (in Japanese).",,
509,FALSE,TRUE,TRUE,,PLD-27263,879,20,AMS,-31.62,,Charred Seed,炭化種実(イネ),carbonized seed/nuts rice (Oryza sativa),,亀ケ岡遺跡,Kamegaokaiseki,,40.88490014,140.3395593,Aomori,Tohoku,Tanaka et al 2015,2015,"Tanaka, K., Sato, Y.-I., Kamijo, N. (Eds.), 2015. Ancient rice in Japan II. Research Center for Archaeology of Northern Japan, Hirosaki University, Hirosaki (in Japanese).",,
510,FALSE,TRUE,TRUE,,PLD-27264,1989,20,AMS,-26.32,,Charred Seed,炭化種実(イネ),carbonized seed/nuts rice (Oryza sativa),,佐原泉遺跡,Saharaizumiiseki,,35.24,139.671,Kanagawa,Kanto,Tanaka et al 2015,2015,"Tanaka, K., Sato, Y.-I., Kamijo, N. (Eds.), 2015. Ancient rice in Japan II. Research Center for Archaeology of Northern Japan, Hirosaki University, Hirosaki (in Japanese).",,
511,FALSE,TRUE,TRUE,,PLD-27265,625,20,AMS,-23.49,,Charred Seed,炭化種実(イネ),carbonized seed/nuts rice (Oryza sativa),,金沢柵阯,Kanazawanozakuato,秋田県横手市金沢字安本館ほか,39.37319,140.5775,Akita,Tohoku,Tanaka et al 2015,2015,"Tanaka, K., Sato, Y.-I., Kamijo, N. (Eds.), 2015. Ancient rice in Japan II. Research Center for Archaeology of Northern Japan, Hirosaki University, Hirosaki (in Japanese).",,
512,FALSE,TRUE,TRUE,,PLD-27266,2010,20,AMS,-25.44,,Charred Seed,炭化種実(イネ),carbonized seed/nuts rice (Oryza sativa),,天王山遺跡,Tennoyamaiseki,白河市久田野豆柄山ほか,37.1281,140.2536,Fukushima,Tohoku,Tanaka et al 2015,2015,"Tanaka, K., Sato, Y.-I., Kamijo, N. (Eds.), 2015. Ancient rice in Japan II. Research Center for Archaeology of Northern Japan, Hirosaki University, Hirosaki (in Japanese).",,
513,FALSE,TRUE,TRUE,,PLD-27267,368,19,AMS,-24.69,,Charred Seed,炭化種実(イネ),carbonized seed/nuts rice (Oryza sativa),,槻沢遺跡,Tsukinokizawaiseki,栃木県那須郡西那須野町大字槻沢,36.9031,139.98,Tochigi,Kanto,Tanaka et al 2015,2015,"Tanaka, K., Sato, Y.-I., Kamijo, N. (Eds.), 2015. Ancient rice in Japan II. Research Center for Archaeology of Northern Japan, Hirosaki University, Hirosaki (in Japanese).",,
514,FALSE,TRUE,TRUE,,PLD-27268,2014,19,AMS,-28.2,,Charred Seed,炭化種実(イネ),carbonized seed/nuts rice (Oryza sativa),,唐古・鍵遺跡,Karakokagiiseki,奈良県磯城郡田原本町,34.5712,135.7987,Nara,Kansai,Tanaka et al 2015,2015,"Tanaka, K., Sato, Y.-I., Kamijo, N. (Eds.), 2015. Ancient rice in Japan II. Research Center for Archaeology of Northern Japan, Hirosaki University, Hirosaki (in Japanese).",,
515,FALSE,TRUE,TRUE,,PLD-27269,2165,20,AMS,-25.61,,Charred Seed,炭化種実(イネ),carbonized seed/nuts rice (Oryza sativa),,垂柳遺跡,Tareyanagiiseki,青森県南津軽郡田舎館村大字垂柳字松立,40.633583,140.5682,Aomori,Tohoku,Tanaka et al 2015,2015,"Tanaka, K., Sato, Y.-I., Kamijo, N. (Eds.), 2015. Ancient rice in Japan II. Research Center for Archaeology of Northern Japan, Hirosaki University, Hirosaki (in Japanese).",,
516,FALSE,TRUE,TRUE,,PLD-27270,1311,19,AMS,-25.53,,Charred Seed,炭化種実(イネ),carbonized seed/nuts rice (Oryza sativa),,基肄城跡,Kiijoato,,33.44339,130.5085,Saga,Kyushu,Tanaka et al 2015,2015,"Tanaka, K., Sato, Y.-I., Kamijo, N. (Eds.), 2015. Ancient rice in Japan II. Research Center for Archaeology of Northern Japan, Hirosaki University, Hirosaki (in Japanese).",,
517,FALSE,TRUE,TRUE,,PLD-27271,1586,19,AMS,-28.42,,Charred Seed,炭化種実(イネ),carbonized seed/nuts rice (Oryza sativa),,梅坂炭化米遺跡,Umesakatankamaiiseki,佐賀県鳥栖市今町字梅坂、柚比町字大久保,33.4039,130.5192,Saga,Kyushu,Tanaka et al 2015,2015,"Tanaka, K., Sato, Y.-I., Kamijo, N. (Eds.), 2015. Ancient rice in Japan II. Research Center for Archaeology of Northern Japan, Hirosaki University, Hirosaki (in Japanese).",,
518,FALSE,TRUE,TRUE,,PLD-27272,1917,20,AMS,-26.34,,Charred Seed,炭化種実(イネ),carbonized seed/nuts rice (Oryza sativa),,大場富士塚遺跡,Obafujitsukaiseki,,35.5672,139.53763,Kanagawa,Kanto,Tanaka et al 2015,2015,"Tanaka, K., Sato, Y.-I., Kamijo, N. (Eds.), 2015. Ancient rice in Japan II. Research Center for Archaeology of Northern Japan, Hirosaki University, Hirosaki (in Japanese).",,
519,FALSE,TRUE,TRUE,,PLD-27273,1241,20,AMS,-23.5,,Charred Seed,炭化種実(イネ),carbonized seed/nuts rice (Oryza sativa),,手宮洞窟,Temiyadoukutsu,,43.2121,141.002,Hokkaido,Hokkaido,Tanaka et al 2015,2015,"Tanaka, K., Sato, Y.-I., Kamijo, N. (Eds.), 2015. Ancient rice in Japan II. Research Center for Archaeology of Northern Japan, Hirosaki University, Hirosaki (in Japanese).",,
520,FALSE,TRUE,TRUE,,PLD-27274,2077,20,AMS,-27.29,,Charred Seed,炭化種実(イネ),carbonized seed/nuts rice (Oryza sativa),,吉田遺跡,Yoshidaiseki,,33.22,130.557,Fukuoka,Kyushu,Tanaka et al 2015,2015,"Tanaka, K., Sato, Y.-I., Kamijo, N. (Eds.), 2015. Ancient rice in Japan II. Research Center for Archaeology of Northern Japan, Hirosaki University, Hirosaki (in Japanese).",,
521,FALSE,TRUE,TRUE,,PLD-27275,2093,20,AMS,-24.79,,Charred Seed,炭化種実(イネ),carbonized seed/nuts rice (Oryza sativa),,岩崎遺跡群,Iwasakiisekigun,,33.222,130.546,Fukuoka,Kyushu,Tanaka et al 2015,2015,"Tanaka, K., Sato, Y.-I., Kamijo, N. (Eds.), 2015. Ancient rice in Japan II. Research Center for Archaeology of Northern Japan, Hirosaki University, Hirosaki (in Japanese).",,
523,FALSE,TRUE,TRUE,,Beta-181423,2660,40,,NA,NA,Charred Seed,炭化米,carbonized rice (Oryza sativa),Sample No.9,雀居福岡,Sasai Fukuoka,"Sasai,雀居, Sasai, Hakata Ward, Fukuoka, 812-0891",33.57935337,130.4512285,Fukuoka,Kyushu,"Obata 2011, Table 22",2011,"Obata, Hiroki [小畑弘己著]. 2011. Ancient plant lore in northeast Asia and Jomon cultivation. [東北アジア古民族植物. 学と縄文農耕]. Doeisha: Tokyo. [in Japanese]","Site is part of airport, but has had multiple excavations - over 10 reports. e.g. 福岡市教育委員会 1995 『福岡市埋蔵文化財調査報告書406：雀居遺跡２』福岡市教育委員会. However the date was not found in any of them on nabunken",
524,FALSE,TRUE,TRUE,,Tka-13458,1595,40,,NA,NA,Charred Seed,炭化米,carbonized rice (Oryza sativa),Sample JF0002,魔取五反田追跡 (福岡),Matogotandatsuiseki,〒839-1202 福岡県久留米市田主丸町鷹取496-1,33.34621005,130.7285166,Fukuoka,Kyushu,"Obata 2011, Table 22",2011,"Obata, Hiroki [小畑弘己著]. 2011. Ancient plant lore in northeast Asia and Jomon cultivation. [東北アジア古民族植物. 学と縄文農耕]. Doeisha: Tokyo. [in Japanese]","Site location is referenced in 1993 report 九州横断自動車道関係, 埋蔵文化財調在報告27朝倉郡朝倉町所在上の原遺跡の調査1 9 9 3福岡県教育委員会. But date is not",
525,FALSE,TRUE,TRUE,,Tka-13459,1550,40,,NA,NA,Charred Seed,炭化米,carbonized rice (Oryza sativa),Sample JF0003,魔取五反田追跡 (福岡),Matogotandatsuiseki,〒839-1202 福岡県久留米市田主丸町鷹取496-1,33.34621005,130.7285166,Fukuoka,Kyushu,"Obata 2011, Table 22",2011,"Obata, Hiroki [小畑弘己著]. 2011. Ancient plant lore in northeast Asia and Jomon cultivation. [東北アジア古民族植物. 学と縄文農耕]. Doeisha: Tokyo. [in Japanese]","Site location is referenced in 1993 report 九州横断自動車道関係, 埋蔵文化財調在報告27朝倉郡朝倉町所在上の原遺跡の調査1 9 9 3福岡県教育委員会. But date is not",
526,FALSE,TRUE,FALSE,No reassurance - needs checking,GaK-17431,3020,80,AMS,NA,NA,Charred Seed,炭化米,carbonized rice (Oryza sativa),"中央調査区・SD11下層,No.1",小津浜遺跡,Ozuhamaiseki,守山市山賀町・杉江町,35.07165,135.95125,Shiga,Kansai,Rekihaku 14C Database,2002,琵琶湖開発関連埋蔵文化財発掘調査報告書6 小津浜遺跡 第１分冊（本文）,Needs to be checked via Shinya,Very old
527,FALSE,TRUE,FALSE,,IAA-541,NA,NA,Beta Counting,NA,-28.7,Wood,植物遺体(イネ),plant plant remains rice (Oryza sativa),B3地区 SK2480,中尾新保谷内遺跡,Nakaoshimboyachiiseki,氷見市中尾,36.85016944,136.9477194,Toyama,Chubu,Rekihaku 14C Database,2009,富山県文化振興財団埋蔵文化財発掘調査報告第41集 中尾茅戸遺跡 中尾新保谷内遺跡 神明北遺跡 大野江淵遺跡発掘調査報告(第二分冊),,No Date?
528,TRUE,FALSE,,,IAAA-103669,3780,30,AMS,-29.09,NA,Other Charred Remains,炭化物,carbonized material,Ⅲ層上部（水田被覆砂）,中西遺跡第14次,Nakanishiiseki No.14,御所市條,34.44383889,135.7425389,Nara,Kansai,Rekihaku 14C Database,2011,奈良県遺跡調査概報 2010年度（第二分冊）,,
529,TRUE,FALSE,,,IAAA-103670,2490,30,AMS,-31.31,NA,Other Charred Remains,炭化物,carbonized material,Ⅲ層上部（水田被覆砂）,中西遺跡第14次,Nakanishiiseki No.14,御所市條,34.44383889,135.7425389,Nara,Kansai,Rekihaku 14C Database,2011,奈良県遺跡調査概報 2010年度（第二分冊）,,
530,TRUE,FALSE,,,IAAA-103674,2420,30,AMS,-28.82,NA,Other Charred Remains,炭化物,carbonized material,Ⅳa層（水田耕作土）,中西遺跡第14次,Nakanishiiseki No.14,御所市條,34.44383889,135.7425389,Nara,Kansai,Rekihaku 14C Database,2011,奈良県遺跡調査概報 2010年度（第二分冊）,,
531,TRUE,FALSE,,,IAAA-103674,2419,29,AMS,-28.82,NA,Other Charred Remains,炭化物,carbonized material,池西辺壁 8A-1層（水田耕作土） 試料名06（sample40）,中西遺跡第14次,Nakanishiiseki No.14,御所市條・室,34.44383889,135.7425389,Nara,Kansai,Rekihaku 14C Database,2017,中西遺跡Ⅰ―京奈和自動車道「御所区間」建設に伴う調査報告書（8）― 奈良県立橿原考古学研究所調査報告 第123冊,,
532,TRUE,FALSE,,,IAAA-103675,2420,30,AMS,-27.41,NA,Organic Residue from Pottery,土器付着炭化物,carbonized from pottery material residue,Ⅳ層（水田耕作土）,中西遺跡第14次,Nakanishiiseki No.14,御所市條,34.44383889,135.7425389,Nara,Kansai,Rekihaku 14C Database,2011,奈良県遺跡調査概報 2010年度（第二分冊）,,
533,TRUE,FALSE,,,IAAA-103675,2419,29,AMS,-27.41,NA,Organic Residue from Pottery,土器付着炭化物,carbonized from pottery material residue,3-C4区 8A層（水田耕作土） 弥生土器（報告番号239） 試料名07（登録番号718）,中西遺跡第14次,Nakanishiiseki No.14,御所市條・室,34.44383889,135.7425389,Nara,Kansai,Rekihaku 14C Database,2017,中西遺跡Ⅰ―京奈和自動車道「御所区間」建設に伴う調査報告書（8）― 奈良県立橿原考古学研究所調査報告 第123冊,,
534,TRUE,FALSE,,,IAAA-103678,2440,30,AMS,-28.24,NA,Seed,種子（ホタルイ属）,"seed, club-rush (Scirpus / Bolboschoenus / Schoenoplectus sp.) bulrush (Schoenoplectiella juncoides syn. Scirpus juncoides)",Ⅳa層（水田耕作土）,中西遺跡第14次,Nakanishiiseki No.14,御所市條,34.44383889,135.7425389,Nara,Kansai,Rekihaku 14C Database,2011,奈良県遺跡調査概報 2010年度（第二分冊）,,
535,TRUE,FALSE,,,IAAA-103678,2443,27,AMS,-28.24,NA,Seed,種子（ホタルイ属）,"seed, club-rush (Scirpus / Bolboschoenus / Schoenoplectus sp.) bulrush (Schoenoplectiella juncoides syn. Scirpus juncoides)",I27区畦畔南 8A-1層（水田耕作土） 洗浄土嚢袋1/7 試料名10,中西遺跡第14次,Nakanishiiseki No.14,御所市條・室,34.44383889,135.7425389,Nara,Kansai,Rekihaku 14C Database,2017,中西遺跡Ⅰ―京奈和自動車道「御所区間」建設に伴う調査報告書（8）― 奈良県立橿原考古学研究所調査報告 第123冊,,
536,TRUE,FALSE,,,IAAA-103679,2750,30,AMS,-18.76,NA,Other Charred Remains,炭化物,carbonized material,Ⅴ層（水田基盤土壌）,中西遺跡第14次,Nakanishiiseki No.14,御所市條,34.44383889,135.7425389,Nara,Kansai,Rekihaku 14C Database,2011,奈良県遺跡調査概報 2010年度（第二分冊）,,
537,FALSE,TRUE,FALSE,Original Report not available,IAAA-110795,NA,NA,AMS,-33.81,NA,Seed,イネ未炭化籾殻,"carbonized shell, rice (Oryza sativa) rice unhusked (Oryza sp.)",方形遺構埋土中 14C-1,別對遺跡,Bettsuiiseki,大和郡山市椎木町、生駒郡安堵町岡崎,34.61211111,135.7650111,Nara,Kansai,Rekihaku 14C Database,2012,奈良県遺跡調査概報 2011年度（第一分冊）,,No Date?
538,TRUE,FALSE,,,IAAA-112092,2130,20,AMS,-11.15,NA,Other Charred Remains,炭,charcoal,第2遺構面 水田土壌？（2a）,秋津遺跡第4次,Akitsuiseki No.4,御所市條,34.44383889,135.7425389,Nara,Kansai,Rekihaku 14C Database,2012,奈良県遺跡調査概報 2011年度（第二分冊）,,
539,TRUE,FALSE,,,IAAA-112092,2130,20,AMS,-11.15,NA,Other Charred Remains,炭,charcoal or charred seed?,第2遺構面 水田土壌？（2a）,秋津遺跡第4次,Akitsuiseki No.4,御所市條,34.44383889,135.7425389,Nara,Kansai,Rekihaku 14C Database,2012,奈良県遺跡調査概報 2011年度（第二分冊）,,
540,TRUE,FALSE,,,IAAA-112093,2250,30,AMS,-16.01,NA,Other Charred Remains,炭,charcoal,第3a-1遺構面 水田土壌？（7a）,秋津遺跡第4次,Akitsuiseki No.4,御所市條,34.44383889,135.7425389,Nara,Kansai,Rekihaku 14C Database,2012,奈良県遺跡調査概報 2011年度（第二分冊）,,
541,TRUE,FALSE,,,IAAA-112093,2250,30,AMS,-16.01,NA,Other Charred Remains,炭,charcoal or charred seed?,第3a-1遺構面 水田土壌？（7a）,秋津遺跡第4次,Akitsuiseki No.4,御所市條,34.44383889,135.7425389,Nara,Kansai,Rekihaku 14C Database,2012,奈良県遺跡調査概報 2011年度（第二分冊）,,
542,TRUE,FALSE,,,IAAA-112094,2390,20,AMS,-23.54,NA,Other Charred Remains,炭,charcoal,第3b-2遺構面 水田土壌（7d）,秋津遺跡第4次,Akitsuiseki No.4,御所市條,34.44383889,135.7425389,Nara,Kansai,Rekihaku 14C Database,2012,奈良県遺跡調査概報 2011年度（第二分冊）,,
543,TRUE,FALSE,,,IAAA-112094,2390,20,AMS,-23.54,NA,Other Charred Remains,炭,charcoal or charred seed?,第3b-2遺構面 水田土壌（7d）,秋津遺跡第4次,Akitsuiseki No.4,御所市條,34.44383889,135.7425389,Nara,Kansai,Rekihaku 14C Database,2012,奈良県遺跡調査概報 2011年度（第二分冊）,,
544,TRUE,FALSE,,,IAAA-112095,2310,20,AMS,-9.53,NA,Other Charred Remains,炭,charcoal,第3a-2遺構面 水田土壌？,秋津遺跡第4次,Akitsuiseki No.4,御所市條,34.44383889,135.7425389,Nara,Kansai,Rekihaku 14C Database,2012,奈良県遺跡調査概報 2011年度（第二分冊）,,
545,TRUE,FALSE,,,IAAA-112095,2310,20,AMS,-9.53,NA,Other Charred Remains,炭,charcoal or charred seed?,第3a-2遺構面 水田土壌？,秋津遺跡第4次,Akitsuiseki No.4,御所市條,34.44383889,135.7425389,Nara,Kansai,Rekihaku 14C Database,2012,奈良県遺跡調査概報 2011年度（第二分冊）,,
546,TRUE,FALSE,,,IAAA-112096,2410,30,AMS,-27.46,NA,Other Charred Remains,炭,charcoal,第3b遺構面 水田基盤土壌（8a）,秋津遺跡第4次,Akitsuiseki No.4,御所市條,34.44383889,135.7425389,Nara,Kansai,Rekihaku 14C Database,2012,奈良県遺跡調査概報 2011年度（第二分冊）,,
547,TRUE,FALSE,,,IAAA-112096,2410,30,AMS,-27.46,NA,Other Charred Remains,炭,charcoal or charred seed?,第3b遺構面 水田基盤土壌（8a）,秋津遺跡第4次,Akitsuiseki No.4,御所市條,34.44383889,135.7425389,Nara,Kansai,Rekihaku 14C Database,2012,奈良県遺跡調査概報 2011年度（第二分冊）,,
548,TRUE,FALSE,,,IAAA-122201,2460,30,AMS,-28.2,NA,Other Charred Remains,微粒炭,Fine grained charcoal,斜アゼEa12 第3b-1面水田作土？,秋津遺跡第5次,Akitsuiseki No.5,御所市室および條地内,34.44106111,135.7354889,Nara,Kansai,Rekihaku 14C Database,2015,奈良県遺跡調査概報 2013年度（第二分冊）,,
549,TRUE,FALSE,,,IAAA-122202,2390,30,AMS,-26.68,NA,Other Charred Remains,微粒炭,Fine grained charcoal,斜アゼEa12 第3b-1面水田作土？,秋津遺跡第5次,Akitsuiseki No.5,御所市室および條地内,34.44106111,135.7354889,Nara,Kansai,Rekihaku 14C Database,2015,奈良県遺跡調査概報 2013年度（第二分冊）,,
550,TRUE,FALSE,,,IAAA-122203,2430,30,AMS,-25.29,NA,Other Charred Remains,微粒炭,Fine grained charcoal,北壁Ea12 第3b-2面水田作土,秋津遺跡第5次,Akitsuiseki No.5,御所市室および條地内,34.44106111,135.7354889,Nara,Kansai,Rekihaku 14C Database,2015,奈良県遺跡調査概報 2013年度（第二分冊）,,
551,TRUE,FALSE,,,IAAA-122204,2290,20,AMS,-14.9,NA,Other Charred Remains,微粒炭,Fine grained charcoal,北壁第3a-2面 水田作土,秋津遺跡第5次,Akitsuiseki No.5,御所市室および條地内,34.44106111,135.7354889,Nara,Kansai,Rekihaku 14C Database,2015,奈良県遺跡調査概報 2013年度（第二分冊）,,
552,TRUE,FALSE,,,IAAA-122205,2430,20,AMS,-20.46,NA,Other Charred Remains,微粒炭,Fine grained charcoal,北壁第3b-2面 水田作土,秋津遺跡第5次,Akitsuiseki No.5,御所市室および條地内,34.44106111,135.7354889,Nara,Kansai,Rekihaku 14C Database,2015,奈良県遺跡調査概報 2013年度（第二分冊）,,
553,TRUE,FALSE,,,IAAA-122210,1140,20,AMS,-27.98,NA,Wood,樹根樹皮,"bark root, wood indet.",Ee12 第3b-2面水田面検出立木,秋津遺跡第5次,Akitsuiseki No.5,御所市室および條地内,34.44106111,135.7354889,Nara,Kansai,Rekihaku 14C Database,2015,奈良県遺跡調査概報 2013年度（第二分冊）,,
554,TRUE,FALSE,,,IAAA-122211,2570,30,AMS,-30.85,NA,Charred Seed,炭化種実,carbonized seed/nuts,南壁B地点No.1 第3b-1面水田作土,秋津遺跡第5次,Akitsuiseki No.5,御所市室および條地内,34.44106111,135.7354889,Nara,Kansai,Rekihaku 14C Database,2015,奈良県遺跡調査概報 2013年度（第二分冊）,,
555,TRUE,FALSE,,,IAAA-122212,2370,30,AMS,-28.36,NA,Charred Seed,炭化種実,carbonized seed/nuts,南壁B地点No.3 第3b-2面水田作土,秋津遺跡第5次,Akitsuiseki No.5,御所市室および條地内,34.44106111,135.7354889,Nara,Kansai,Rekihaku 14C Database,2015,奈良県遺跡調査概報 2013年度（第二分冊）,,
556,TRUE,FALSE,,,IAAA-122213,2500,30,AMS,-23.81,NA,Charred Seed,炭化種実,carbonized seed/nuts,南壁B地点No.7 第4a面水田作土,秋津遺跡第5次,Akitsuiseki No.5,御所市室および條地内,34.44106111,135.7354889,Nara,Kansai,Rekihaku 14C Database,2015,奈良県遺跡調査概報 2013年度（第二分冊）,,
557,TRUE,FALSE,,,IAAA-131823,2470,20,AMS,-23.79,NA,Other Charred Remains,微粒炭,Fine grained charcoal,E01line 第4a面水田作土,秋津遺跡第7-3次調査,Akitsuiseki No.7-3 Survey,御所市室,34.44106111,135.7354889,Nara,Kansai,Rekihaku 14C Database,2015,奈良県遺跡調査概報 2014年度（第一分冊）,,
558,TRUE,FALSE,,,IAAA-131824,2490,30,AMS,-20.52,NA,Other Charred Remains,微粒炭,Fine grained charcoal,E01line 第4a面水田作土下,秋津遺跡第7-3次調査,Akitsuiseki No.7-3 Survey,御所市室,34.44106111,135.7354889,Nara,Kansai,Rekihaku 14C Database,2015,奈良県遺跡調査概報 2014年度（第一分冊）,,
559,TRUE,FALSE,,,IAAA-131835,2460,20,AMS,-8.64,NA,Charred Remain,炭化草本類,carbonized herbaceous plants,南壁 第4a面水田作土泥直上,秋津遺跡第7-3次調査,Akitsuiseki No.7-3 Survey,御所市室,34.44106111,135.7354889,Nara,Kansai,Rekihaku 14C Database,2015,奈良県遺跡調査概報 2014年度（第一分冊）,,
560,TRUE,FALSE,,,IAAA-30875,2424,35,AMS,-23.54,NA,Soil,土壌,soil,14Cサンプル1（水田面サンプル6下部） (4)層（8a層）,前田遺跡,Maedaiseki,芦屋市前田町内,34.73166111,135.3004,Hyogo,Kansai,Rekihaku 14C Database,2004,芦屋市文化財調査報告 第52集 前田遺跡（第20地点）発掘調査概要報告書―弥生前期水田跡の構造と水利動態―,,
561,TRUE,FALSE,,,IAAA-30876,2393,35,AMS,-24.43,NA,Soil,土壌,soil,14Cサンプル2（水田面サンプル7） (4)層（8a層）,前田遺跡,Maedaiseki,芦屋市前田町内,34.73166111,135.3004,Hyogo,Kansai,Rekihaku 14C Database,2004,芦屋市文化財調査報告 第52集 前田遺跡（第20地点）発掘調査概要報告書―弥生前期水田跡の構造と水利動態―,,
562,TRUE,FALSE,,,IAAA-82949,2660,33,AMS,-27.12,NA,Soil,土壌,soil,東側断割りトレンチ土層断面 01（弥生時代中期初頭水田面（下層水田）の直下層） 試料No.2？,下加茂遺跡,Shimogamoiseki,洲本市下加茂2丁目,34.34723056,134.8738111,Hyogo,Kansai,Rekihaku 14C Database,2010,兵庫県文化財調査報告 第371冊 洲本市 下加茂遺跡 ―市道加茂中央線道路改良工事に伴う発掘調査報告書―,,
563,FALSE,TRUE,TRUE,,IAAA-83002,2327,30,AMS,-27.58,NA,Charred Seed,炭化米,carbonized rice (Oryza sativa),Ⅱ区SK05土坑埋土,市之郷遺跡,Ichinogouiseki,姫路市市之郷,34.82471111,134.7073806,Hyogo,Kansai,Rekihaku 14C Database,2010,兵庫県文化財調査報告 第372冊 姫路市 市之郷遺跡Ⅱ ―（都）大日線緊急街路整備工事に伴う発掘調査報告書―,,
564,FALSE,TRUE,TRUE,,IAAA-83003,2171,30,AMS,-24.07,NA,Charred Seed,炭化米,carbonized rice (Oryza sativa),Ⅱ区SK08土坑埋土,市之郷遺跡,Ichinogouiseki,姫路市市之郷,34.82471111,134.7073806,Hyogo,Kansai,Rekihaku 14C Database,2010,兵庫県文化財調査報告 第372冊 姫路市 市之郷遺跡Ⅱ ―（都）大日線緊急街路整備工事に伴う発掘調査報告書―,,
565,FALSE,TRUE,TRUE,,IAAA-91137,2562,30,AMS,-25.53,NA,Charred Seed,炭化種子 イネ胚乳,"carbonized seed, rice (Oryza sativa)",18次調査区 流路状遺構18-1215 B地点 fセクション5・6層（56）,上里遺跡,Uwazatoiseki,京都市西京区大原野上里南ノ町・大原野石見町地内,34.95000278,135.6843833,Kyoto,Kansai,Rekihaku 14C Database,2010,京都市埋蔵文化財研究所発掘調査報告書 2009-9 長岡京右京二条三坊一・八町跡、上里遺跡,,
566,FALSE,TRUE,TRUE,,IAAA-91139,2460,32,AMS,-24.44,NA,Charred Seed,炭化種子 イネ胚乳,"carbonized seed, rice (Oryza sativa)",18次調査区 流路状遺構18-1215 B地点 fセクション8～11層（138）,上里遺跡,Uwazatoiseki,京都市西京区大原野上里南ノ町・大原野石見町地内,34.95000278,135.6843833,Kyoto,Kansai,Rekihaku 14C Database,2010,京都市埋蔵文化財研究所発掘調査報告書 2009-9 長岡京右京二条三坊一・八町跡、上里遺跡,,
567,TRUE,FALSE,,,"pal-10233
PLD-33411",2439,20,AMS,-27.3,NA,Wood,樹根（エノキ属、根材、最外部3-4年）,"outermost 3-4 rings, hackberry (Celtis sp.) Japanese hackberry (Celtis sinensis var. japonica)",第3-3面 b07区 8B層（⑫層）（水田ベース土壌） 樹根1 試料名nakanishi25-c03,中西遺跡第25次,Nakanishiiseki No.25,御所市條・室,34.44383889,135.7425389,Nara,Kansai,Rekihaku 14C Database,2017,中西遺跡Ⅰ―京奈和自動車道「御所区間」建設に伴う調査報告書（8）― 奈良県立橿原考古学研究所調査報告 第123冊,,Strange LabCode
568,TRUE,FALSE,,,PED-20222,2438,21,AMS,-26.56,NA,Wood,木材（マキ属）,"material wood, plum pine (Podocarpus sp.)​",第3-1面水田直上 木製遺物A 試料No.23,中西遺跡第16次,Nakanishiiseki No.16,御所市條・室,34.44383889,135.7425389,Nara,Kansai,Rekihaku 14C Database,2017,中西遺跡Ⅰ―京奈和自動車道「御所区間」建設に伴う調査報告書（8）― 奈良県立橿原考古学研究所調査報告 第123冊,,
569,TRUE,FALSE,,,PED-20223,2371,22,AMS,-28.22,NA,Wood,木材（ヤマグワ）,"material wood, Chinese mulberry (Morus australis syn bombycis)",第3-1面水田直上 木製遺物B 試料No.24,中西遺跡第16次,Nakanishiiseki No.16,御所市條・室,34.44383889,135.7425389,Nara,Kansai,Rekihaku 14C Database,2017,中西遺跡Ⅰ―京奈和自動車道「御所区間」建設に伴う調査報告書（8）― 奈良県立橿原考古学研究所調査報告 第123冊,,
570,FALSE,TRUE,TRUE,,PLD-14738,2445,20,AMS,NA,NA,Charred Seed,炭化種子 イネ胚乳,"carbonized seed, rice (Oryza sativa)",18次調査区 流路状遺構18-1215 B地点 fセクション5・6層（84）,上里遺跡,Uwazatoiseki,京都市西京区大原野上里南ノ町・大原野石見町地内,34.95000278,135.6843833,Kyoto,Kansai,Rekihaku 14C Database,2010,京都市埋蔵文化財研究所調査報告書第24冊 上里遺跡Ⅰ－縄文時代晩期集落遺跡の調査―,,
571,FALSE,TRUE,TRUE,,PLD-14740,2410,20,AMS,NA,NA,Charred Seed,炭化種子 イネ胚乳,"carbonized seed, rice (Oryza sativa)",18次調査区 流路状遺構18-1215 B地点 fセクション8～11層（122）,上里遺跡,Uwazatoiseki,京都市西京区大原野上里南ノ町・大原野石見町地内,34.95000278,135.6843833,Kyoto,Kansai,Rekihaku 14C Database,2010,京都市埋蔵文化財研究所調査報告書第24冊 上里遺跡Ⅰ－縄文時代晩期集落遺跡の調査―,,
572,FALSE,TRUE,TRUE,,PLD-2496,1806,28,AMS,NA,-25.1,Charred Seed,炭化米,carbonized rice (Oryza sativa),02-1調査区B1トレンチ 遺構05008 5-2b面,久宝寺遺跡,Kyohojiiseki,八尾市竜華町2丁目,34.62336019,135.5865231,Osaka,Kansai,Rekihaku 14C Database,2007,（財）大阪府文化財センター調査報告書 第156集 久宝寺遺跡・竜華地区発掘調査報告書Ⅶ―分析・考察・付表編― ―寝屋川流域下水道竜華水みらいセンター水処理施設等建設事業に伴う発掘調査他―,,
573,FALSE,TRUE,TRUE,,PLD-28800,322,22,AMS,-25.38,NA,Seed,炭化種実（イネ種子）,"carbonized seed seed/nuts, rice (Oryza sativa)",基壇下 南辺東寄り、炭化物集中部 試料番号：下2,薬師寺東塔,Yakushijihigashito,奈良市西ノ京町,34.66935,135.7915306,Nara,Kansai,Rekihaku 14C Database,2016,薬師寺東塔基壇 国宝薬師寺東塔保存修理事業にともなう発掘調査概報,,
574,TRUE,FALSE,,,PLD-29748,2972,23,AMS,-24.88,NA,Charred Remain,炭化材,carbonized material,水田 4層 不撹乱資料Loc.140304-02の上端より-28.5cm,長岡京跡左京第568次調査区,Nagaokakyo Site Sakyo No.568 Survey Area,向日市上植野町十ヶ坪,34.92953889,135.7108194,Kyoto,Kansai,Rekihaku 14C Database,2016,向日市埋蔵文化財調査報告書 第103集 長岡京跡ほか,,
575,TRUE,FALSE,,,PLD-37249,2147,18,AMS,-28.98,NA,Wood,生試料・材（最終形成年輪以外部位不明）,"outermost rings, wood indet.",第3遺構面（水田面） 試料No.6,今出遺跡第7次,Imadeoiseki No.7,御所市池之内,34.44556111,135.7459611,Nara,Kansai,Rekihaku 14C Database,2019,今出遺跡Ⅱ 奈良県文化財調査報告書 第178集,,
576,TRUE,FALSE,,,PLD-37250,2169,20,AMS,-29.91,NA,Wood,生試料・材（最終形成年輪）,"outermost rings, wood indet.",第3遺構面（水田面） 試料No.7,今出遺跡第7次,Imadeoiseki No.7,御所市池之内,34.44556111,135.7459611,Nara,Kansai,Rekihaku 14C Database,2019,今出遺跡Ⅱ 奈良県文化財調査報告書 第178集,,
577,TRUE,FALSE,,,PLD-37251,2433,22,AMS,-25.39,NA,Wood,生試料・材,"sampled wood, wood indet.",第3遺構面（水田面） 試料No.8,今出遺跡第7次,Imadeoiseki No.7,御所市池之内,34.44556111,135.7459611,Nara,Kansai,Rekihaku 14C Database,2019,今出遺跡Ⅱ 奈良県文化財調査報告書 第178集,,
578,TRUE,FALSE,,,PLD-37252,2449,21,AMS,-28.86,NA,Wood,生試料・材,"sampled wood, wood indet.",第3遺構面（水田面） 試料No.9,今出遺跡第7次,Imadeoiseki No.7,御所市池之内,34.44556111,135.7459611,Nara,Kansai,Rekihaku 14C Database,2019,今出遺跡Ⅱ 奈良県文化財調査報告書 第178集,,
579,TRUE,FALSE,,,PLD-37253,2198,19,AMS,-28.91,NA,Wood,生試料・材（最終形成年輪）,"outermost rings, wood indet.",第3遺構面（水田面） 試料No.10,今出遺跡第7次,Imadeoiseki No.7,御所市池之内,34.44556111,135.7459611,Nara,Kansai,Rekihaku 14C Database,2019,今出遺跡Ⅱ 奈良県文化財調査報告書 第178集,,
580,TRUE,FALSE,,,PLD-37254,2214,18,AMS,-29.43,NA,Wood,生試料・材（最終形成年輪）,"outermost rings, wood indet.",第3遺構面（水田面） 試料No.11,今出遺跡第7次,Imadeoiseki No.7,御所市池之内,34.44556111,135.7459611,Nara,Kansai,Rekihaku 14C Database,2019,今出遺跡Ⅱ 奈良県文化財調査報告書 第178集,,
581,TRUE,FALSE,,,PLD-37255,2210,19,AMS,-27.5,NA,Wood,生試料・材（最終形成年輪）,"outermost rings, wood indet.",第3遺構面（水田面） 試料No.12,今出遺跡第7次,Imadeoiseki No.7,御所市池之内,34.44556111,135.7459611,Nara,Kansai,Rekihaku 14C Database,2019,今出遺跡Ⅱ 奈良県文化財調査報告書 第178集,,
582,TRUE,FALSE,,,PLD-37256,2219,17,AMS,-27.06,NA,Wood,生試料・材（最終形成年輪）,"outermost rings, wood indet.",第3遺構面（水田面） 試料No.13,今出遺跡第7次,Imadeoiseki No.7,御所市池之内,34.44556111,135.7459611,Nara,Kansai,Rekihaku 14C Database,2019,今出遺跡Ⅱ 奈良県文化財調査報告書 第178集,,
583,TRUE,FALSE,,,PLD-37257,2190,18,AMS,-19.07,NA,Wood,生試料・材（最終形成年輪）,"outermost rings, wood indet.",第3遺構面（水田面） 試料No.14,今出遺跡第7次,Imadeoiseki No.7,御所市池之内,34.44556111,135.7459611,Nara,Kansai,Rekihaku 14C Database,2019,今出遺跡Ⅱ 奈良県文化財調査報告書 第178集,,
584,TRUE,FALSE,,,PLD-37258,2221,22,AMS,-28.99,NA,Wood,生試料・材（最終形成年輪以外部位不明）,"outermost rings, wood indet.",第3遺構面（水田面） 試料No.15,今出遺跡第7次,Imadeoiseki No.7,御所市池之内,34.44556111,135.7459611,Nara,Kansai,Rekihaku 14C Database,2019,今出遺跡Ⅱ 奈良県文化財調査報告書 第178集,,
585,TRUE,FALSE,,,PLD-37259,2420,20,AMS,-31.08,NA,Wood,生試料・材（最終形成年輪）,"outermost rings, wood indet.",第3遺構面（水田面） 試料No.16,今出遺跡第7次,Imadeoiseki No.7,御所市池之内,34.44556111,135.7459611,Nara,Kansai,Rekihaku 14C Database,2019,今出遺跡Ⅱ 奈良県文化財調査報告書 第178集,,
586,TRUE,FALSE,,,PLD-37260,2213,18,AMS,-27.71,NA,Wood,生試料・材,"sampled wood, wood indet.",第3遺構面（水田面） 試料No.17,今出遺跡第7次,Imadeoiseki No.7,御所市池之内,34.44556111,135.7459611,Nara,Kansai,Rekihaku 14C Database,2019,今出遺跡Ⅱ 奈良県文化財調査報告書 第178集,,
587,TRUE,FALSE,,,PLD-37261,2231,18,AMS,-28.69,NA,Wood,生試料・材（最終形成年輪）,"outermost rings, wood indet.",第3遺構面（水田面） 試料No.18,今出遺跡第7次,Imadeoiseki No.7,御所市池之内,34.44556111,135.7459611,Nara,Kansai,Rekihaku 14C Database,2019,今出遺跡Ⅱ 奈良県文化財調査報告書 第178集,,
588,TRUE,FALSE,,,PLD-37262,2174,18,AMS,-31.82,NA,Wood,生試料・材（最終形成年輪）,"outermost rings, wood indet.",第3遺構面（水田面） 試料No.19,今出遺跡第7次,Imadeoiseki No.7,御所市池之内,34.44556111,135.7459611,Nara,Kansai,Rekihaku 14C Database,2019,今出遺跡Ⅱ 奈良県文化財調査報告書 第178集,,
589,TRUE,FALSE,,,PLD-37263,2176,17,AMS,-27.64,NA,Wood,生試料・材（最終形成年輪以外部位不明）,"outermost rings, wood indet.",第3遺構面（水田面） 試料No.28,今出遺跡第7次,Imadeoiseki No.7,御所市池之内,34.44556111,135.7459611,Nara,Kansai,Rekihaku 14C Database,2019,今出遺跡Ⅱ 奈良県文化財調査報告書 第178集,,
590,FALSE,TRUE,TRUE,,PLD-4592,2449,27,AMS,-25.8,NA,Charred Seed,炭化種子（イネ胚乳）,"carbonized seed, rice (Oryza sativa)",6-143土坑（最下部） 第8b面,讃良郡条里遺跡,Saragunjoriiseki,寝屋川市新家地先他,34.75516528,135.6330833,Osaka,Kansai,Rekihaku 14C Database,2009,（財）大阪府文化財センター調査報告書 第187集 讃良郡条里遺跡Ⅷ 一般国道1号バイパス（大阪北道路）・第二京阪道路建設に伴う埋蔵文化財発掘調査報告書,,